<?xml version="1.0" encoding="UTF-8"?>
<gpx creator="StravaGPX" version="1.1" xmlns="http://www.topografix.com/GPX/1/1" xmlns:xsi="http://www.w3.org/2001/XMLSchema-instance" xsi:schemaLocation="http://www.topografix.com/GPX/1/1 http://www.topografix.com/GPX/1/1/gpx.xsd">
 <metadata>
  <time>2024-01-04T16:45:18Z</time>
 </metadata>
 <trk>
  <name>Bike with my boy</name>
  <type>ebikeride</type>
  <trkseg>
   <trkpt lat="51.5717120" lon="-0.0897520">
    <ele>32.3</ele>
    <time>2024-01-04T16:45:18Z</time>
   </trkpt>
   <trkpt lat="51.5717190" lon="-0.0897340">
    <ele>32.3</ele>
    <time>2024-01-04T16:45:21Z</time>
   </trkpt>
   <trkpt lat="51.5716840" lon="-0.0897680">
    <ele>32.3</ele>
    <time>2024-01-04T16:45:26Z</time>
   </trkpt>
   <trkpt lat="51.5717170" lon="-0.0897200">
    <ele>32.3</ele>
    <time>2024-01-04T16:45:32Z</time>
   </trkpt>
   <trkpt lat="51.5717150" lon="-0.0897420">
    <ele>32.3</ele>
    <time>2024-01-04T16:45:38Z</time>
   </trkpt>
   <trkpt lat="51.5717330" lon="-0.0897600">
    <ele>32.3</ele>
    <time>2024-01-04T16:45:45Z</time>
   </trkpt>
   <trkpt lat="51.5717250" lon="-0.0897400">
    <ele>32.3</ele>
    <time>2024-01-04T16:45:50Z</time>
   </trkpt>
   <trkpt lat="51.5716950" lon="-0.0897500">
    <ele>32.3</ele>
    <time>2024-01-04T16:45:56Z</time>
   </trkpt>
   <trkpt lat="51.5717110" lon="-0.0897250">
    <ele>32.3</ele>
    <time>2024-01-04T16:46:02Z</time>
   </trkpt>
   <trkpt lat="51.5717110" lon="-0.0897420">
    <ele>32.3</ele>
    <time>2024-01-04T16:46:08Z</time>
   </trkpt>
   <trkpt lat="51.5717040" lon="-0.0897180">
    <ele>32.3</ele>
    <time>2024-01-04T16:46:14Z</time>
   </trkpt>
   <trkpt lat="51.5717100" lon="-0.0897870">
    <ele>32.3</ele>
    <time>2024-01-04T16:46:20Z</time>
   </trkpt>
   <trkpt lat="51.5717230" lon="-0.0897210">
    <ele>32.3</ele>
    <time>2024-01-04T16:46:26Z</time>
   </trkpt>
   <trkpt lat="51.5717160" lon="-0.0897390">
    <ele>32.3</ele>
    <time>2024-01-04T16:46:32Z</time>
   </trkpt>
   <trkpt lat="51.5716710" lon="-0.0897690">
    <ele>32.3</ele>
    <time>2024-01-04T16:46:38Z</time>
   </trkpt>
   <trkpt lat="51.5717040" lon="-0.0897640">
    <ele>32.3</ele>
    <time>2024-01-04T16:46:44Z</time>
   </trkpt>
   <trkpt lat="51.5717170" lon="-0.0897320">
    <ele>32.3</ele>
    <time>2024-01-04T16:46:50Z</time>
   </trkpt>
   <trkpt lat="51.5717140" lon="-0.0897450">
    <ele>32.3</ele>
    <time>2024-01-04T16:46:56Z</time>
   </trkpt>
   <trkpt lat="51.5716970" lon="-0.0897310">
    <ele>32.3</ele>
    <time>2024-01-04T16:47:02Z</time>
   </trkpt>
   <trkpt lat="51.5717090" lon="-0.0897460">
    <ele>32.3</ele>
    <time>2024-01-04T16:47:08Z</time>
   </trkpt>
   <trkpt lat="51.5717230" lon="-0.0897700">
    <ele>32.3</ele>
    <time>2024-01-04T16:47:14Z</time>
   </trkpt>
   <trkpt lat="51.5717160" lon="-0.0897560">
    <ele>32.3</ele>
    <time>2024-01-04T16:47:20Z</time>
   </trkpt>
   <trkpt lat="51.5717150" lon="-0.0897520">
    <ele>32.3</ele>
    <time>2024-01-04T16:47:26Z</time>
   </trkpt>
   <trkpt lat="51.5717190" lon="-0.0897250">
    <ele>32.3</ele>
    <time>2024-01-04T16:47:32Z</time>
   </trkpt>
   <trkpt lat="51.5717240" lon="-0.0897620">
    <ele>32.3</ele>
    <time>2024-01-04T16:47:38Z</time>
   </trkpt>
   <trkpt lat="51.5717220" lon="-0.0897300">
    <ele>32.3</ele>
    <time>2024-01-04T16:47:44Z</time>
   </trkpt>
   <trkpt lat="51.5717140" lon="-0.0897440">
    <ele>32.3</ele>
    <time>2024-01-04T16:47:50Z</time>
   </trkpt>
   <trkpt lat="51.5717300" lon="-0.0897560">
    <ele>32.3</ele>
    <time>2024-01-04T16:47:56Z</time>
   </trkpt>
   <trkpt lat="51.5717140" lon="-0.0897240">
    <ele>32.3</ele>
    <time>2024-01-04T16:48:02Z</time>
   </trkpt>
   <trkpt lat="51.5717200" lon="-0.0897300">
    <ele>32.3</ele>
    <time>2024-01-04T16:48:08Z</time>
   </trkpt>
   <trkpt lat="51.5717230" lon="-0.0897140">
    <ele>32.3</ele>
    <time>2024-01-04T16:48:14Z</time>
   </trkpt>
   <trkpt lat="51.5717160" lon="-0.0897380">
    <ele>32.3</ele>
    <time>2024-01-04T16:48:20Z</time>
   </trkpt>
   <trkpt lat="51.5717170" lon="-0.0897330">
    <ele>32.3</ele>
    <time>2024-01-04T16:48:26Z</time>
   </trkpt>
   <trkpt lat="51.5717160" lon="-0.0897450">
    <ele>32.3</ele>
    <time>2024-01-04T16:48:32Z</time>
   </trkpt>
   <trkpt lat="51.5717140" lon="-0.0897490">
    <ele>32.3</ele>
    <time>2024-01-04T16:48:38Z</time>
   </trkpt>
   <trkpt lat="51.5717200" lon="-0.0897270">
    <ele>32.3</ele>
    <time>2024-01-04T16:48:44Z</time>
   </trkpt>
   <trkpt lat="51.5717330" lon="-0.0897160">
    <ele>32.3</ele>
    <time>2024-01-04T16:48:50Z</time>
   </trkpt>
   <trkpt lat="51.5717200" lon="-0.0897380">
    <ele>32.3</ele>
    <time>2024-01-04T16:48:56Z</time>
   </trkpt>
   <trkpt lat="51.5717150" lon="-0.0897510">
    <ele>32.3</ele>
    <time>2024-01-04T16:49:02Z</time>
   </trkpt>
   <trkpt lat="51.5717030" lon="-0.0897480">
    <ele>32.3</ele>
    <time>2024-01-04T16:49:08Z</time>
   </trkpt>
   <trkpt lat="51.5717250" lon="-0.0897220">
    <ele>32.3</ele>
    <time>2024-01-04T16:49:14Z</time>
   </trkpt>
   <trkpt lat="51.5717070" lon="-0.0897380">
    <ele>32.3</ele>
    <time>2024-01-04T16:49:20Z</time>
   </trkpt>
   <trkpt lat="51.5717100" lon="-0.0897450">
    <ele>32.3</ele>
    <time>2024-01-04T16:49:26Z</time>
   </trkpt>
   <trkpt lat="51.5717110" lon="-0.0897470">
    <ele>32.3</ele>
    <time>2024-01-04T16:49:32Z</time>
   </trkpt>
   <trkpt lat="51.5717120" lon="-0.0897490">
    <ele>32.3</ele>
    <time>2024-01-04T16:49:38Z</time>
   </trkpt>
   <trkpt lat="51.5717190" lon="-0.0897180">
    <ele>32.3</ele>
    <time>2024-01-04T16:49:44Z</time>
   </trkpt>
   <trkpt lat="51.5717080" lon="-0.0897230">
    <ele>32.3</ele>
    <time>2024-01-04T16:49:50Z</time>
   </trkpt>
   <trkpt lat="51.5716930" lon="-0.0897550">
    <ele>32.3</ele>
    <time>2024-01-04T16:49:56Z</time>
   </trkpt>
   <trkpt lat="51.5717040" lon="-0.0897520">
    <ele>32.3</ele>
    <time>2024-01-04T16:50:02Z</time>
   </trkpt>
   <trkpt lat="51.5717090" lon="-0.0897510">
    <ele>32.3</ele>
    <time>2024-01-04T16:50:08Z</time>
   </trkpt>
   <trkpt lat="51.5716910" lon="-0.0897660">
    <ele>32.3</ele>
    <time>2024-01-04T16:50:13Z</time>
   </trkpt>
   <trkpt lat="51.5717220" lon="-0.0897090">
    <ele>32.3</ele>
    <time>2024-01-04T16:50:19Z</time>
   </trkpt>
   <trkpt lat="51.5717100" lon="-0.0897110">
    <ele>32.3</ele>
    <time>2024-01-04T16:50:25Z</time>
   </trkpt>
   <trkpt lat="51.5717110" lon="-0.0897200">
    <ele>32.3</ele>
    <time>2024-01-04T16:50:31Z</time>
   </trkpt>
   <trkpt lat="51.5717020" lon="-0.0897500">
    <ele>32.3</ele>
    <time>2024-01-04T16:50:37Z</time>
   </trkpt>
   <trkpt lat="51.5717170" lon="-0.0897320">
    <ele>32.3</ele>
    <time>2024-01-04T16:50:43Z</time>
   </trkpt>
   <trkpt lat="51.5717200" lon="-0.0897280">
    <ele>32.3</ele>
    <time>2024-01-04T16:50:49Z</time>
   </trkpt>
   <trkpt lat="51.5717030" lon="-0.0897480">
    <ele>32.3</ele>
    <time>2024-01-04T16:50:54Z</time>
   </trkpt>
   <trkpt lat="51.5717190" lon="-0.0897140">
    <ele>32.3</ele>
    <time>2024-01-04T16:51:00Z</time>
   </trkpt>
   <trkpt lat="51.5717160" lon="-0.0897380">
    <ele>32.3</ele>
    <time>2024-01-04T16:51:06Z</time>
   </trkpt>
   <trkpt lat="51.5716980" lon="-0.0897550">
    <ele>32.3</ele>
    <time>2024-01-04T16:51:12Z</time>
   </trkpt>
   <trkpt lat="51.5716940" lon="-0.0897510">
    <ele>32.3</ele>
    <time>2024-01-04T16:51:18Z</time>
   </trkpt>
   <trkpt lat="51.5717120" lon="-0.0897350">
    <ele>32.3</ele>
    <time>2024-01-04T16:51:24Z</time>
   </trkpt>
   <trkpt lat="51.5717200" lon="-0.0897280">
    <ele>32.3</ele>
    <time>2024-01-04T16:51:30Z</time>
   </trkpt>
   <trkpt lat="51.5717160" lon="-0.0897420">
    <ele>32.3</ele>
    <time>2024-01-04T16:51:36Z</time>
   </trkpt>
   <trkpt lat="51.5717120" lon="-0.0897510">
    <ele>32.3</ele>
    <time>2024-01-04T16:51:42Z</time>
   </trkpt>
   <trkpt lat="51.5717170" lon="-0.0897390">
    <ele>32.3</ele>
    <time>2024-01-04T16:51:48Z</time>
   </trkpt>
   <trkpt lat="51.5717270" lon="-0.0897010">
    <ele>32.3</ele>
    <time>2024-01-04T16:51:54Z</time>
   </trkpt>
   <trkpt lat="51.5717080" lon="-0.0897780">
    <ele>32.3</ele>
    <time>2024-01-04T16:52:00Z</time>
   </trkpt>
   <trkpt lat="51.5717180" lon="-0.0897380">
    <ele>32.3</ele>
    <time>2024-01-04T16:52:06Z</time>
   </trkpt>
   <trkpt lat="51.5717140" lon="-0.0897520">
    <ele>32.3</ele>
    <time>2024-01-04T16:52:12Z</time>
   </trkpt>
   <trkpt lat="51.5717130" lon="-0.0897500">
    <ele>32.3</ele>
    <time>2024-01-04T16:52:18Z</time>
   </trkpt>
   <trkpt lat="51.5717220" lon="-0.0897710">
    <ele>32.3</ele>
    <time>2024-01-04T16:52:24Z</time>
   </trkpt>
   <trkpt lat="51.5717270" lon="-0.0897780">
    <ele>32.3</ele>
    <time>2024-01-04T16:52:30Z</time>
   </trkpt>
   <trkpt lat="51.5717280" lon="-0.0897820">
    <ele>32.3</ele>
    <time>2024-01-04T16:52:36Z</time>
   </trkpt>
   <trkpt lat="51.5717190" lon="-0.0897620">
    <ele>32.3</ele>
    <time>2024-01-04T16:52:42Z</time>
   </trkpt>
   <trkpt lat="51.5717150" lon="-0.0897550">
    <ele>32.3</ele>
    <time>2024-01-04T16:52:48Z</time>
   </trkpt>
   <trkpt lat="51.5717000" lon="-0.0897480">
    <ele>32.3</ele>
    <time>2024-01-04T16:52:54Z</time>
   </trkpt>
   <trkpt lat="51.5717110" lon="-0.0897490">
    <ele>32.3</ele>
    <time>2024-01-04T16:53:00Z</time>
   </trkpt>
   <trkpt lat="51.5717200" lon="-0.0897120">
    <ele>32.3</ele>
    <time>2024-01-04T16:53:06Z</time>
   </trkpt>
   <trkpt lat="51.5717150" lon="-0.0897400">
    <ele>32.3</ele>
    <time>2024-01-04T16:53:12Z</time>
   </trkpt>
   <trkpt lat="51.5717330" lon="-0.0897400">
    <ele>32.3</ele>
    <time>2024-01-04T16:53:18Z</time>
   </trkpt>
   <trkpt lat="51.5717260" lon="-0.0897210">
    <ele>32.3</ele>
    <time>2024-01-04T16:53:24Z</time>
   </trkpt>
   <trkpt lat="51.5717240" lon="-0.0897270">
    <ele>32.3</ele>
    <time>2024-01-04T16:53:30Z</time>
   </trkpt>
   <trkpt lat="51.5717060" lon="-0.0897400">
    <ele>32.3</ele>
    <time>2024-01-04T16:53:36Z</time>
   </trkpt>
   <trkpt lat="51.5717090" lon="-0.0897460">
    <ele>32.3</ele>
    <time>2024-01-04T16:53:42Z</time>
   </trkpt>
   <trkpt lat="51.5716950" lon="-0.0897690">
    <ele>32.3</ele>
    <time>2024-01-04T16:53:48Z</time>
   </trkpt>
   <trkpt lat="51.5717150" lon="-0.0897320">
    <ele>32.3</ele>
    <time>2024-01-04T16:53:54Z</time>
   </trkpt>
   <trkpt lat="51.5717310" lon="-0.0897160">
    <ele>32.3</ele>
    <time>2024-01-04T16:54:00Z</time>
   </trkpt>
   <trkpt lat="51.5716980" lon="-0.0897470">
    <ele>32.3</ele>
    <time>2024-01-04T16:54:06Z</time>
   </trkpt>
   <trkpt lat="51.5717280" lon="-0.0896880">
    <ele>32.3</ele>
    <time>2024-01-04T16:54:12Z</time>
   </trkpt>
   <trkpt lat="51.5717180" lon="-0.0897290">
    <ele>32.3</ele>
    <time>2024-01-04T16:54:18Z</time>
   </trkpt>
   <trkpt lat="51.5717210" lon="-0.0897170">
    <ele>32.3</ele>
    <time>2024-01-04T16:54:24Z</time>
   </trkpt>
   <trkpt lat="51.5717220" lon="-0.0897510">
    <ele>32.3</ele>
    <time>2024-01-04T16:54:30Z</time>
   </trkpt>
   <trkpt lat="51.5717260" lon="-0.0897380">
    <ele>32.3</ele>
    <time>2024-01-04T16:54:36Z</time>
   </trkpt>
   <trkpt lat="51.5717150" lon="-0.0897510">
    <ele>32.3</ele>
    <time>2024-01-04T16:54:42Z</time>
   </trkpt>
   <trkpt lat="51.5717170" lon="-0.0897320">
    <ele>32.3</ele>
    <time>2024-01-04T16:54:48Z</time>
   </trkpt>
   <trkpt lat="51.5717160" lon="-0.0897310">
    <ele>32.3</ele>
    <time>2024-01-04T16:54:54Z</time>
   </trkpt>
   <trkpt lat="51.5717280" lon="-0.0896990">
    <ele>32.3</ele>
    <time>2024-01-04T16:55:00Z</time>
   </trkpt>
   <trkpt lat="51.5717250" lon="-0.0897200">
    <ele>32.3</ele>
    <time>2024-01-04T16:55:06Z</time>
   </trkpt>
   <trkpt lat="51.5717150" lon="-0.0897370">
    <ele>32.3</ele>
    <time>2024-01-04T16:55:12Z</time>
   </trkpt>
   <trkpt lat="51.5716970" lon="-0.0897560">
    <ele>32.3</ele>
    <time>2024-01-04T16:55:18Z</time>
   </trkpt>
   <trkpt lat="51.5717230" lon="-0.0897270">
    <ele>32.3</ele>
    <time>2024-01-04T16:55:24Z</time>
   </trkpt>
   <trkpt lat="51.5717300" lon="-0.0896990">
    <ele>32.3</ele>
    <time>2024-01-04T16:55:30Z</time>
   </trkpt>
   <trkpt lat="51.5717270" lon="-0.0897080">
    <ele>32.3</ele>
    <time>2024-01-04T16:55:36Z</time>
   </trkpt>
   <trkpt lat="51.5717170" lon="-0.0897340">
    <ele>32.3</ele>
    <time>2024-01-04T16:55:42Z</time>
   </trkpt>
   <trkpt lat="51.5717060" lon="-0.0897310">
    <ele>32.3</ele>
    <time>2024-01-04T16:55:48Z</time>
   </trkpt>
   <trkpt lat="51.5717040" lon="-0.0897210">
    <ele>32.3</ele>
    <time>2024-01-04T16:55:54Z</time>
   </trkpt>
   <trkpt lat="51.5717020" lon="-0.0897150">
    <ele>32.3</ele>
    <time>2024-01-04T16:56:00Z</time>
   </trkpt>
   <trkpt lat="51.5717030" lon="-0.0897130">
    <ele>32.3</ele>
    <time>2024-01-04T16:56:06Z</time>
   </trkpt>
   <trkpt lat="51.5717260" lon="-0.0896620">
    <ele>32.3</ele>
    <time>2024-01-04T16:56:12Z</time>
   </trkpt>
   <trkpt lat="51.5717150" lon="-0.0897070">
    <ele>32.3</ele>
    <time>2024-01-04T16:56:18Z</time>
   </trkpt>
   <trkpt lat="51.5717110" lon="-0.0897450">
    <ele>32.3</ele>
    <time>2024-01-04T16:56:24Z</time>
   </trkpt>
   <trkpt lat="51.5717230" lon="-0.0897580">
    <ele>32.3</ele>
    <time>2024-01-04T16:56:30Z</time>
   </trkpt>
   <trkpt lat="51.5717140" lon="-0.0897560">
    <ele>32.3</ele>
    <time>2024-01-04T16:56:36Z</time>
   </trkpt>
   <trkpt lat="51.5717020" lon="-0.0897540">
    <ele>32.3</ele>
    <time>2024-01-04T16:56:42Z</time>
   </trkpt>
   <trkpt lat="51.5717080" lon="-0.0897510">
    <ele>32.3</ele>
    <time>2024-01-04T16:56:48Z</time>
   </trkpt>
   <trkpt lat="51.5717100" lon="-0.0897510">
    <ele>32.3</ele>
    <time>2024-01-04T16:56:54Z</time>
   </trkpt>
   <trkpt lat="51.5717260" lon="-0.0897060">
    <ele>32.3</ele>
    <time>2024-01-04T16:57:00Z</time>
   </trkpt>
   <trkpt lat="51.5717170" lon="-0.0897340">
    <ele>32.3</ele>
    <time>2024-01-04T16:57:06Z</time>
   </trkpt>
   <trkpt lat="51.5717350" lon="-0.0897120">
    <ele>32.3</ele>
    <time>2024-01-04T16:57:12Z</time>
   </trkpt>
   <trkpt lat="51.5717260" lon="-0.0897080">
    <ele>32.3</ele>
    <time>2024-01-04T16:57:18Z</time>
   </trkpt>
   <trkpt lat="51.5717230" lon="-0.0897550">
    <ele>32.3</ele>
    <time>2024-01-04T16:57:24Z</time>
   </trkpt>
   <trkpt lat="51.5717160" lon="-0.0897540">
    <ele>32.3</ele>
    <time>2024-01-04T16:57:30Z</time>
   </trkpt>
   <trkpt lat="51.5717300" lon="-0.0896960">
    <ele>32.3</ele>
    <time>2024-01-04T16:57:36Z</time>
   </trkpt>
   <trkpt lat="51.5717310" lon="-0.0897610">
    <ele>32.3</ele>
    <time>2024-01-04T16:57:42Z</time>
   </trkpt>
   <trkpt lat="51.5717250" lon="-0.0897280">
    <ele>32.3</ele>
    <time>2024-01-04T16:57:48Z</time>
   </trkpt>
   <trkpt lat="51.5717180" lon="-0.0897420">
    <ele>32.3</ele>
    <time>2024-01-04T16:57:54Z</time>
   </trkpt>
   <trkpt lat="51.5717200" lon="-0.0897220">
    <ele>32.3</ele>
    <time>2024-01-04T16:58:00Z</time>
   </trkpt>
   <trkpt lat="51.5717230" lon="-0.0897510">
    <ele>32.3</ele>
    <time>2024-01-04T16:58:06Z</time>
   </trkpt>
   <trkpt lat="51.5716810" lon="-0.0897740">
    <ele>32.3</ele>
    <time>2024-01-04T16:58:12Z</time>
   </trkpt>
   <trkpt lat="51.5717010" lon="-0.0897590">
    <ele>32.3</ele>
    <time>2024-01-04T16:58:18Z</time>
   </trkpt>
   <trkpt lat="51.5717110" lon="-0.0897550">
    <ele>32.2</ele>
    <time>2024-01-04T16:58:24Z</time>
   </trkpt>
   <trkpt lat="51.5717090" lon="-0.0897560">
    <ele>32.2</ele>
    <time>2024-01-04T16:58:30Z</time>
   </trkpt>
   <trkpt lat="51.5717260" lon="-0.0897160">
    <ele>32.2</ele>
    <time>2024-01-04T16:58:36Z</time>
   </trkpt>
   <trkpt lat="51.5717170" lon="-0.0897450">
    <ele>32.2</ele>
    <time>2024-01-04T16:58:42Z</time>
   </trkpt>
   <trkpt lat="51.5717260" lon="-0.0897170">
    <ele>32.2</ele>
    <time>2024-01-04T16:58:48Z</time>
   </trkpt>
   <trkpt lat="51.5717260" lon="-0.0897070">
    <ele>32.2</ele>
    <time>2024-01-04T16:58:54Z</time>
   </trkpt>
   <trkpt lat="51.5717150" lon="-0.0897450">
    <ele>32.2</ele>
    <time>2024-01-04T16:59:00Z</time>
   </trkpt>
   <trkpt lat="51.5717130" lon="-0.0897930">
    <ele>32.2</ele>
    <time>2024-01-04T16:59:06Z</time>
   </trkpt>
   <trkpt lat="51.5717140" lon="-0.0897600">
    <ele>32.2</ele>
    <time>2024-01-04T16:59:12Z</time>
   </trkpt>
   <trkpt lat="51.5717240" lon="-0.0897090">
    <ele>32.2</ele>
    <time>2024-01-04T16:59:18Z</time>
   </trkpt>
   <trkpt lat="51.5717270" lon="-0.0897500">
    <ele>32.2</ele>
    <time>2024-01-04T16:59:24Z</time>
   </trkpt>
   <trkpt lat="51.5717160" lon="-0.0897530">
    <ele>32.2</ele>
    <time>2024-01-04T16:59:30Z</time>
   </trkpt>
   <trkpt lat="51.5717150" lon="-0.0897520">
    <ele>32.2</ele>
    <time>2024-01-04T16:59:36Z</time>
   </trkpt>
   <trkpt lat="51.5717130" lon="-0.0897510">
    <ele>32.2</ele>
    <time>2024-01-04T16:59:42Z</time>
   </trkpt>
   <trkpt lat="51.5717150" lon="-0.0897510">
    <ele>32.2</ele>
    <time>2024-01-04T16:59:48Z</time>
   </trkpt>
   <trkpt lat="51.5716980" lon="-0.0897520">
    <ele>32.2</ele>
    <time>2024-01-04T16:59:54Z</time>
   </trkpt>
   <trkpt lat="51.5717080" lon="-0.0897510">
    <ele>32.2</ele>
    <time>2024-01-04T17:00:00Z</time>
   </trkpt>
   <trkpt lat="51.5717120" lon="-0.0897510">
    <ele>32.2</ele>
    <time>2024-01-04T17:00:06Z</time>
   </trkpt>
   <trkpt lat="51.5717140" lon="-0.0897520">
    <ele>32.2</ele>
    <time>2024-01-04T17:00:12Z</time>
   </trkpt>
   <trkpt lat="51.5717140" lon="-0.0897500">
    <ele>32.2</ele>
    <time>2024-01-04T17:00:18Z</time>
   </trkpt>
   <trkpt lat="51.5717270" lon="-0.0897000">
    <ele>32.2</ele>
    <time>2024-01-04T17:00:24Z</time>
   </trkpt>
   <trkpt lat="51.5717250" lon="-0.0897060">
    <ele>32.2</ele>
    <time>2024-01-04T17:00:30Z</time>
   </trkpt>
   <trkpt lat="51.5717140" lon="-0.0897480">
    <ele>32.2</ele>
    <time>2024-01-04T17:00:36Z</time>
   </trkpt>
   <trkpt lat="51.5717100" lon="-0.0897540">
    <ele>32.2</ele>
    <time>2024-01-04T17:00:42Z</time>
   </trkpt>
   <trkpt lat="51.5717110" lon="-0.0897520">
    <ele>32.2</ele>
    <time>2024-01-04T17:00:48Z</time>
   </trkpt>
   <trkpt lat="51.5717130" lon="-0.0897500">
    <ele>32.2</ele>
    <time>2024-01-04T17:00:53Z</time>
   </trkpt>
   <trkpt lat="51.5716920" lon="-0.0897230">
    <ele>32.2</ele>
    <time>2024-01-04T17:00:59Z</time>
   </trkpt>
   <trkpt lat="51.5717130" lon="-0.0897110">
    <ele>32.2</ele>
    <time>2024-01-04T17:01:05Z</time>
   </trkpt>
   <trkpt lat="51.5717230" lon="-0.0897570">
    <ele>32.2</ele>
    <time>2024-01-04T17:01:11Z</time>
   </trkpt>
   <trkpt lat="51.5717180" lon="-0.0897520">
    <ele>32.2</ele>
    <time>2024-01-04T17:01:17Z</time>
   </trkpt>
   <trkpt lat="51.5717200" lon="-0.0897400">
    <ele>32.2</ele>
    <time>2024-01-04T17:01:23Z</time>
   </trkpt>
   <trkpt lat="51.5717250" lon="-0.0897110">
    <ele>32.2</ele>
    <time>2024-01-04T17:01:29Z</time>
   </trkpt>
   <trkpt lat="51.5717370" lon="-0.0897070">
    <ele>32.2</ele>
    <time>2024-01-04T17:01:35Z</time>
   </trkpt>
   <trkpt lat="51.5717220" lon="-0.0897350">
    <ele>32.2</ele>
    <time>2024-01-04T17:01:41Z</time>
   </trkpt>
   <trkpt lat="51.5717210" lon="-0.0897320">
    <ele>32.2</ele>
    <time>2024-01-04T17:01:47Z</time>
   </trkpt>
   <trkpt lat="51.5717140" lon="-0.0897490">
    <ele>32.2</ele>
    <time>2024-01-04T17:01:53Z</time>
   </trkpt>
   <trkpt lat="51.5717240" lon="-0.0897110">
    <ele>32.2</ele>
    <time>2024-01-04T17:01:59Z</time>
   </trkpt>
   <trkpt lat="51.5717180" lon="-0.0897370">
    <ele>32.2</ele>
    <time>2024-01-04T17:02:05Z</time>
   </trkpt>
   <trkpt lat="51.5717000" lon="-0.0897470">
    <ele>32.2</ele>
    <time>2024-01-04T17:02:11Z</time>
   </trkpt>
   <trkpt lat="51.5717200" lon="-0.0896990">
    <ele>32.2</ele>
    <time>2024-01-04T17:02:17Z</time>
   </trkpt>
   <trkpt lat="51.5717150" lon="-0.0897300">
    <ele>32.2</ele>
    <time>2024-01-04T17:02:23Z</time>
   </trkpt>
   <trkpt lat="51.5717240" lon="-0.0897100">
    <ele>32.2</ele>
    <time>2024-01-04T17:02:29Z</time>
   </trkpt>
   <trkpt lat="51.5717180" lon="-0.0897340">
    <ele>32.2</ele>
    <time>2024-01-04T17:02:35Z</time>
   </trkpt>
   <trkpt lat="51.5717200" lon="-0.0897320">
    <ele>32.2</ele>
    <time>2024-01-04T17:02:41Z</time>
   </trkpt>
   <trkpt lat="51.5717160" lon="-0.0897420">
    <ele>32.2</ele>
    <time>2024-01-04T17:02:47Z</time>
   </trkpt>
   <trkpt lat="51.5717120" lon="-0.0897480">
    <ele>32.2</ele>
    <time>2024-01-04T17:02:53Z</time>
   </trkpt>
   <trkpt lat="51.5717180" lon="-0.0897380">
    <ele>32.2</ele>
    <time>2024-01-04T17:02:59Z</time>
   </trkpt>
   <trkpt lat="51.5717280" lon="-0.0897340">
    <ele>32.2</ele>
    <time>2024-01-04T17:03:05Z</time>
   </trkpt>
   <trkpt lat="51.5717150" lon="-0.0897460">
    <ele>32.2</ele>
    <time>2024-01-04T17:03:11Z</time>
   </trkpt>
   <trkpt lat="51.5717140" lon="-0.0897520">
    <ele>32.2</ele>
    <time>2024-01-04T17:03:17Z</time>
   </trkpt>
   <trkpt lat="51.5717240" lon="-0.0897530">
    <ele>32.2</ele>
    <time>2024-01-04T17:03:23Z</time>
   </trkpt>
   <trkpt lat="51.5717200" lon="-0.0897320">
    <ele>32.2</ele>
    <time>2024-01-04T17:03:29Z</time>
   </trkpt>
   <trkpt lat="51.5717150" lon="-0.0897480">
    <ele>32.2</ele>
    <time>2024-01-04T17:03:35Z</time>
   </trkpt>
   <trkpt lat="51.5717290" lon="-0.0897800">
    <ele>32.2</ele>
    <time>2024-01-04T17:03:41Z</time>
   </trkpt>
   <trkpt lat="51.5717240" lon="-0.0897600">
    <ele>32.2</ele>
    <time>2024-01-04T17:03:47Z</time>
   </trkpt>
   <trkpt lat="51.5717250" lon="-0.0897170">
    <ele>32.2</ele>
    <time>2024-01-04T17:03:53Z</time>
   </trkpt>
   <trkpt lat="51.5717160" lon="-0.0897390">
    <ele>32.2</ele>
    <time>2024-01-04T17:03:59Z</time>
   </trkpt>
   <trkpt lat="51.5717120" lon="-0.0897500">
    <ele>32.2</ele>
    <time>2024-01-04T17:04:05Z</time>
   </trkpt>
   <trkpt lat="51.5717100" lon="-0.0897530">
    <ele>32.2</ele>
    <time>2024-01-04T17:04:11Z</time>
   </trkpt>
   <trkpt lat="51.5716910" lon="-0.0897630">
    <ele>32.2</ele>
    <time>2024-01-04T17:04:17Z</time>
   </trkpt>
   <trkpt lat="51.5717270" lon="-0.0897480">
    <ele>32.2</ele>
    <time>2024-01-04T17:04:23Z</time>
   </trkpt>
   <trkpt lat="51.5717180" lon="-0.0897500">
    <ele>32.2</ele>
    <time>2024-01-04T17:04:29Z</time>
   </trkpt>
   <trkpt lat="51.5717120" lon="-0.0897490">
    <ele>32.2</ele>
    <time>2024-01-04T17:04:35Z</time>
   </trkpt>
   <trkpt lat="51.5717180" lon="-0.0897400">
    <ele>32.2</ele>
    <time>2024-01-04T17:04:41Z</time>
   </trkpt>
   <trkpt lat="51.5717260" lon="-0.0897750">
    <ele>32.2</ele>
    <time>2024-01-04T17:04:47Z</time>
   </trkpt>
   <trkpt lat="51.5717260" lon="-0.0897260">
    <ele>32.2</ele>
    <time>2024-01-04T17:04:53Z</time>
   </trkpt>
   <trkpt lat="51.5717160" lon="-0.0897410">
    <ele>32.2</ele>
    <time>2024-01-04T17:04:59Z</time>
   </trkpt>
   <trkpt lat="51.5717270" lon="-0.0897360">
    <ele>32.2</ele>
    <time>2024-01-04T17:05:05Z</time>
   </trkpt>
   <trkpt lat="51.5717410" lon="-0.0897730">
    <ele>32.2</ele>
    <time>2024-01-04T17:05:11Z</time>
   </trkpt>
   <trkpt lat="51.5717250" lon="-0.0897140">
    <ele>32.2</ele>
    <time>2024-01-04T17:05:17Z</time>
   </trkpt>
   <trkpt lat="51.5717320" lon="-0.0897240">
    <ele>32.2</ele>
    <time>2024-01-04T17:05:23Z</time>
   </trkpt>
   <trkpt lat="51.5717200" lon="-0.0897400">
    <ele>32.2</ele>
    <time>2024-01-04T17:05:29Z</time>
   </trkpt>
   <trkpt lat="51.5717460" lon="-0.0897890">
    <ele>32.2</ele>
    <time>2024-01-04T17:05:35Z</time>
   </trkpt>
   <trkpt lat="51.5717500" lon="-0.0897980">
    <ele>32.2</ele>
    <time>2024-01-04T17:05:36Z</time>
   </trkpt>
   <trkpt lat="51.5717330" lon="-0.0897410">
    <ele>32.2</ele>
    <time>2024-01-04T17:05:42Z</time>
   </trkpt>
   <trkpt lat="51.5717260" lon="-0.0897200">
    <ele>32.2</ele>
    <time>2024-01-04T17:05:43Z</time>
   </trkpt>
   <trkpt lat="51.5717230" lon="-0.0897290">
    <ele>32.2</ele>
    <time>2024-01-04T17:05:47Z</time>
   </trkpt>
   <trkpt lat="51.5717210" lon="-0.0897340">
    <ele>32.2</ele>
    <time>2024-01-04T17:05:50Z</time>
   </trkpt>
   <trkpt lat="51.5717270" lon="-0.0897750">
    <ele>32.2</ele>
    <time>2024-01-04T17:05:53Z</time>
   </trkpt>
   <trkpt lat="51.5717140" lon="-0.0897590">
    <ele>32.2</ele>
    <time>2024-01-04T17:05:59Z</time>
   </trkpt>
   <trkpt lat="51.5717180" lon="-0.0897370">
    <ele>32.2</ele>
    <time>2024-01-04T17:06:05Z</time>
   </trkpt>
   <trkpt lat="51.5717260" lon="-0.0897540">
    <ele>32.2</ele>
    <time>2024-01-04T17:06:12Z</time>
   </trkpt>
   <trkpt lat="51.5717120" lon="-0.0897530">
    <ele>32.2</ele>
    <time>2024-01-04T17:06:24Z</time>
   </trkpt>
   <trkpt lat="51.5717110" lon="-0.0897530">
    <ele>32.2</ele>
    <time>2024-01-04T17:06:26Z</time>
   </trkpt>
   <trkpt lat="51.5717180" lon="-0.0897300">
    <ele>32.2</ele>
    <time>2024-01-04T17:06:30Z</time>
   </trkpt>
   <trkpt lat="51.5717130" lon="-0.0897440">
    <ele>32.2</ele>
    <time>2024-01-04T17:06:36Z</time>
   </trkpt>
   <trkpt lat="51.5717110" lon="-0.0897480">
    <ele>32.2</ele>
    <time>2024-01-04T17:06:42Z</time>
   </trkpt>
   <trkpt lat="51.5717200" lon="-0.0897110">
    <ele>32.2</ele>
    <time>2024-01-04T17:06:48Z</time>
   </trkpt>
   <trkpt lat="51.5717340" lon="-0.0897090">
    <ele>32.2</ele>
    <time>2024-01-04T17:06:54Z</time>
   </trkpt>
   <trkpt lat="51.5717300" lon="-0.0897700">
    <ele>32.2</ele>
    <time>2024-01-04T17:07:00Z</time>
   </trkpt>
   <trkpt lat="51.5717210" lon="-0.0897380">
    <ele>32.2</ele>
    <time>2024-01-04T17:07:06Z</time>
   </trkpt>
   <trkpt lat="51.5717080" lon="-0.0897460">
    <ele>32.2</ele>
    <time>2024-01-04T17:07:12Z</time>
   </trkpt>
   <trkpt lat="51.5716960" lon="-0.0897470">
    <ele>32.2</ele>
    <time>2024-01-04T17:07:18Z</time>
   </trkpt>
   <trkpt lat="51.5717190" lon="-0.0897210">
    <ele>32.2</ele>
    <time>2024-01-04T17:07:24Z</time>
   </trkpt>
   <trkpt lat="51.5717220" lon="-0.0897440">
    <ele>32.2</ele>
    <time>2024-01-04T17:07:30Z</time>
   </trkpt>
   <trkpt lat="51.5717230" lon="-0.0897520">
    <ele>32.2</ele>
    <time>2024-01-04T17:07:36Z</time>
   </trkpt>
   <trkpt lat="51.5717150" lon="-0.0897480">
    <ele>32.2</ele>
    <time>2024-01-04T17:07:42Z</time>
   </trkpt>
   <trkpt lat="51.5717140" lon="-0.0897490">
    <ele>32.2</ele>
    <time>2024-01-04T17:07:48Z</time>
   </trkpt>
   <trkpt lat="51.5717270" lon="-0.0896930">
    <ele>32.2</ele>
    <time>2024-01-04T17:07:54Z</time>
   </trkpt>
   <trkpt lat="51.5717250" lon="-0.0897050">
    <ele>32.2</ele>
    <time>2024-01-04T17:08:00Z</time>
   </trkpt>
   <trkpt lat="51.5717270" lon="-0.0897790">
    <ele>32.2</ele>
    <time>2024-01-04T17:08:06Z</time>
   </trkpt>
   <trkpt lat="51.5717180" lon="-0.0897610">
    <ele>32.2</ele>
    <time>2024-01-04T17:08:12Z</time>
   </trkpt>
   <trkpt lat="51.5717110" lon="-0.0897520">
    <ele>32.2</ele>
    <time>2024-01-04T17:08:18Z</time>
   </trkpt>
   <trkpt lat="51.5717260" lon="-0.0896980">
    <ele>32.2</ele>
    <time>2024-01-04T17:08:24Z</time>
   </trkpt>
   <trkpt lat="51.5717240" lon="-0.0897040">
    <ele>32.2</ele>
    <time>2024-01-04T17:08:30Z</time>
   </trkpt>
   <trkpt lat="51.5717300" lon="-0.0897790">
    <ele>32.2</ele>
    <time>2024-01-04T17:08:41Z</time>
   </trkpt>
   <trkpt lat="51.5717180" lon="-0.0897610">
    <ele>32.2</ele>
    <time>2024-01-04T17:08:47Z</time>
   </trkpt>
   <trkpt lat="51.5717150" lon="-0.0897520">
    <ele>32.2</ele>
    <time>2024-01-04T17:08:53Z</time>
   </trkpt>
   <trkpt lat="51.5717170" lon="-0.0897390">
    <ele>32.2</ele>
    <time>2024-01-04T17:08:59Z</time>
   </trkpt>
   <trkpt lat="51.5717150" lon="-0.0897450">
    <ele>32.2</ele>
    <time>2024-01-04T17:09:05Z</time>
   </trkpt>
   <trkpt lat="51.5717200" lon="-0.0897210">
    <ele>32.2</ele>
    <time>2024-01-04T17:09:11Z</time>
   </trkpt>
   <trkpt lat="51.5717150" lon="-0.0897470">
    <ele>32.2</ele>
    <time>2024-01-04T17:09:17Z</time>
   </trkpt>
   <trkpt lat="51.5717250" lon="-0.0897560">
    <ele>32.2</ele>
    <time>2024-01-04T17:09:23Z</time>
   </trkpt>
   <trkpt lat="51.5717250" lon="-0.0897260">
    <ele>32.2</ele>
    <time>2024-01-04T17:09:29Z</time>
   </trkpt>
   <trkpt lat="51.5717170" lon="-0.0897430">
    <ele>32.2</ele>
    <time>2024-01-04T17:09:35Z</time>
   </trkpt>
   <trkpt lat="51.5717120" lon="-0.0897490">
    <ele>32.2</ele>
    <time>2024-01-04T17:09:41Z</time>
   </trkpt>
   <trkpt lat="51.5717100" lon="-0.0897490">
    <ele>32.2</ele>
    <time>2024-01-04T17:09:47Z</time>
   </trkpt>
   <trkpt lat="51.5717130" lon="-0.0897510">
    <ele>32.2</ele>
    <time>2024-01-04T17:09:53Z</time>
   </trkpt>
   <trkpt lat="51.5717130" lon="-0.0897510">
    <ele>32.2</ele>
    <time>2024-01-04T17:09:59Z</time>
   </trkpt>
   <trkpt lat="51.5717070" lon="-0.0897270">
    <ele>32.2</ele>
    <time>2024-01-04T17:10:05Z</time>
   </trkpt>
   <trkpt lat="51.5717090" lon="-0.0897390">
    <ele>32.2</ele>
    <time>2024-01-04T17:10:11Z</time>
   </trkpt>
   <trkpt lat="51.5717110" lon="-0.0897450">
    <ele>32.2</ele>
    <time>2024-01-04T17:10:17Z</time>
   </trkpt>
   <trkpt lat="51.5717020" lon="-0.0897470">
    <ele>32.2</ele>
    <time>2024-01-04T17:10:23Z</time>
   </trkpt>
   <trkpt lat="51.5716980" lon="-0.0897470">
    <ele>32.2</ele>
    <time>2024-01-04T17:10:29Z</time>
   </trkpt>
   <trkpt lat="51.5717070" lon="-0.0897490">
    <ele>32.2</ele>
    <time>2024-01-04T17:10:35Z</time>
   </trkpt>
   <trkpt lat="51.5717110" lon="-0.0897500">
    <ele>32.2</ele>
    <time>2024-01-04T17:10:41Z</time>
   </trkpt>
   <trkpt lat="51.5717060" lon="-0.0897510">
    <ele>32.2</ele>
    <time>2024-01-04T17:10:47Z</time>
   </trkpt>
   <trkpt lat="51.5717110" lon="-0.0897510">
    <ele>32.2</ele>
    <time>2024-01-04T17:10:53Z</time>
   </trkpt>
   <trkpt lat="51.5717110" lon="-0.0897500">
    <ele>32.2</ele>
    <time>2024-01-04T17:10:59Z</time>
   </trkpt>
   <trkpt lat="51.5717210" lon="-0.0897530">
    <ele>32.2</ele>
    <time>2024-01-04T17:11:05Z</time>
   </trkpt>
   <trkpt lat="51.5717190" lon="-0.0897320">
    <ele>32.2</ele>
    <time>2024-01-04T17:11:11Z</time>
   </trkpt>
   <trkpt lat="51.5717250" lon="-0.0897090">
    <ele>32.2</ele>
    <time>2024-01-04T17:11:17Z</time>
   </trkpt>
   <trkpt lat="51.5717180" lon="-0.0897390">
    <ele>32.2</ele>
    <time>2024-01-04T17:11:23Z</time>
   </trkpt>
   <trkpt lat="51.5717130" lon="-0.0897460">
    <ele>32.2</ele>
    <time>2024-01-04T17:11:29Z</time>
   </trkpt>
   <trkpt lat="51.5717120" lon="-0.0897450">
    <ele>32.2</ele>
    <time>2024-01-04T17:11:35Z</time>
   </trkpt>
   <trkpt lat="51.5717150" lon="-0.0897490">
    <ele>32.2</ele>
    <time>2024-01-04T17:11:41Z</time>
   </trkpt>
   <trkpt lat="51.5716800" lon="-0.0897500">
    <ele>32.2</ele>
    <time>2024-01-04T17:11:47Z</time>
   </trkpt>
   <trkpt lat="51.5717090" lon="-0.0897510">
    <ele>32.2</ele>
    <time>2024-01-04T17:11:53Z</time>
   </trkpt>
   <trkpt lat="51.5717140" lon="-0.0897520">
    <ele>32.2</ele>
    <time>2024-01-04T17:11:55Z</time>
   </trkpt>
   <trkpt lat="51.5717250" lon="-0.0897140">
    <ele>32.2</ele>
    <time>2024-01-04T17:11:59Z</time>
   </trkpt>
   <trkpt lat="51.5717150" lon="-0.0897390">
    <ele>32.2</ele>
    <time>2024-01-04T17:12:05Z</time>
   </trkpt>
   <trkpt lat="51.5717130" lon="-0.0897460">
    <ele>32.2</ele>
    <time>2024-01-04T17:12:07Z</time>
   </trkpt>
   <trkpt lat="51.5717120" lon="-0.0897530">
    <ele>32.2</ele>
    <time>2024-01-04T17:12:11Z</time>
   </trkpt>
   <trkpt lat="51.5717180" lon="-0.0897550">
    <ele>32.2</ele>
    <time>2024-01-04T17:12:17Z</time>
   </trkpt>
   <trkpt lat="51.5716980" lon="-0.0897490">
    <ele>32.2</ele>
    <time>2024-01-04T17:12:23Z</time>
   </trkpt>
   <trkpt lat="51.5717290" lon="-0.0896850">
    <ele>32.2</ele>
    <time>2024-01-04T17:12:29Z</time>
   </trkpt>
   <trkpt lat="51.5717180" lon="-0.0897280">
    <ele>32.2</ele>
    <time>2024-01-04T17:12:35Z</time>
   </trkpt>
   <trkpt lat="51.5717140" lon="-0.0897490">
    <ele>32.2</ele>
    <time>2024-01-04T17:12:41Z</time>
   </trkpt>
   <trkpt lat="51.5717120" lon="-0.0897470">
    <ele>32.2</ele>
    <time>2024-01-04T17:12:47Z</time>
   </trkpt>
   <trkpt lat="51.5717120" lon="-0.0897460">
    <ele>32.2</ele>
    <time>2024-01-04T17:12:53Z</time>
   </trkpt>
   <trkpt lat="51.5717130" lon="-0.0897460">
    <ele>32.2</ele>
    <time>2024-01-04T17:12:59Z</time>
   </trkpt>
   <trkpt lat="51.5717120" lon="-0.0897460">
    <ele>32.2</ele>
    <time>2024-01-04T17:13:05Z</time>
   </trkpt>
   <trkpt lat="51.5717200" lon="-0.0897130">
    <ele>32.2</ele>
    <time>2024-01-04T17:13:11Z</time>
   </trkpt>
   <trkpt lat="51.5717140" lon="-0.0897420">
    <ele>32.2</ele>
    <time>2024-01-04T17:13:17Z</time>
   </trkpt>
   <trkpt lat="51.5717320" lon="-0.0896850">
    <ele>32.2</ele>
    <time>2024-01-04T17:13:23Z</time>
   </trkpt>
   <trkpt lat="51.5717140" lon="-0.0897380">
    <ele>32.2</ele>
    <time>2024-01-04T17:13:29Z</time>
   </trkpt>
   <trkpt lat="51.5717120" lon="-0.0897450">
    <ele>32.2</ele>
    <time>2024-01-04T17:13:35Z</time>
   </trkpt>
   <trkpt lat="51.5717150" lon="-0.0897460">
    <ele>32.2</ele>
    <time>2024-01-04T17:13:40Z</time>
   </trkpt>
   <trkpt lat="51.5717140" lon="-0.0897470">
    <ele>32.2</ele>
    <time>2024-01-04T17:13:46Z</time>
   </trkpt>
   <trkpt lat="51.5717240" lon="-0.0897700">
    <ele>32.2</ele>
    <time>2024-01-04T17:13:52Z</time>
   </trkpt>
   <trkpt lat="51.5717120" lon="-0.0897720">
    <ele>32.2</ele>
    <time>2024-01-04T17:13:58Z</time>
   </trkpt>
   <trkpt lat="51.5717250" lon="-0.0897550">
    <ele>32.2</ele>
    <time>2024-01-04T17:14:04Z</time>
   </trkpt>
   <trkpt lat="51.5717230" lon="-0.0897080">
    <ele>32.2</ele>
    <time>2024-01-04T17:14:11Z</time>
   </trkpt>
   <trkpt lat="51.5717310" lon="-0.0896780">
    <ele>32.2</ele>
    <time>2024-01-04T17:14:16Z</time>
   </trkpt>
   <trkpt lat="51.5717200" lon="-0.0897260">
    <ele>32.2</ele>
    <time>2024-01-04T17:14:23Z</time>
   </trkpt>
   <trkpt lat="51.5717030" lon="-0.0897410">
    <ele>32.2</ele>
    <time>2024-01-04T17:14:28Z</time>
   </trkpt>
   <trkpt lat="51.5717130" lon="-0.0897500">
    <ele>32.2</ele>
    <time>2024-01-04T17:14:34Z</time>
   </trkpt>
   <trkpt lat="51.5717240" lon="-0.0897120">
    <ele>32.2</ele>
    <time>2024-01-04T17:14:41Z</time>
   </trkpt>
   <trkpt lat="51.5717000" lon="-0.0897400">
    <ele>32.2</ele>
    <time>2024-01-04T17:14:47Z</time>
   </trkpt>
   <trkpt lat="51.5717160" lon="-0.0897320">
    <ele>32.2</ele>
    <time>2024-01-04T17:14:53Z</time>
   </trkpt>
   <trkpt lat="51.5717140" lon="-0.0897450">
    <ele>32.2</ele>
    <time>2024-01-04T17:14:59Z</time>
   </trkpt>
   <trkpt lat="51.5717130" lon="-0.0897480">
    <ele>32.2</ele>
    <time>2024-01-04T17:15:04Z</time>
   </trkpt>
   <trkpt lat="51.5717360" lon="-0.0897410">
    <ele>32.2</ele>
    <time>2024-01-04T17:15:11Z</time>
   </trkpt>
   <trkpt lat="51.5717050" lon="-0.0897480">
    <ele>32.2</ele>
    <time>2024-01-04T17:15:17Z</time>
   </trkpt>
   <trkpt lat="51.5717100" lon="-0.0897480">
    <ele>32.2</ele>
    <time>2024-01-04T17:15:23Z</time>
   </trkpt>
   <trkpt lat="51.5716790" lon="-0.0897470">
    <ele>32.2</ele>
    <time>2024-01-04T17:15:29Z</time>
   </trkpt>
   <trkpt lat="51.5717080" lon="-0.0897460">
    <ele>32.2</ele>
    <time>2024-01-04T17:15:34Z</time>
   </trkpt>
   <trkpt lat="51.5717130" lon="-0.0897470">
    <ele>32.2</ele>
    <time>2024-01-04T17:15:36Z</time>
   </trkpt>
   <trkpt lat="51.5717180" lon="-0.0897310">
    <ele>32.2</ele>
    <time>2024-01-04T17:15:41Z</time>
   </trkpt>
   <trkpt lat="51.5716910" lon="-0.0897770">
    <ele>32.2</ele>
    <time>2024-01-04T17:15:47Z</time>
   </trkpt>
   <trkpt lat="51.5716830" lon="-0.0897730">
    <ele>32.2</ele>
    <time>2024-01-04T17:15:53Z</time>
   </trkpt>
   <trkpt lat="51.5717160" lon="-0.0897340">
    <ele>32.2</ele>
    <time>2024-01-04T17:15:59Z</time>
   </trkpt>
   <trkpt lat="51.5716850" lon="-0.0897650">
    <ele>32.2</ele>
    <time>2024-01-04T17:16:05Z</time>
   </trkpt>
   <trkpt lat="51.5717150" lon="-0.0897340">
    <ele>32.2</ele>
    <time>2024-01-04T17:16:11Z</time>
   </trkpt>
   <trkpt lat="51.5716990" lon="-0.0897440">
    <ele>32.2</ele>
    <time>2024-01-04T17:16:17Z</time>
   </trkpt>
   <trkpt lat="51.5716970" lon="-0.0897260">
    <ele>32.2</ele>
    <time>2024-01-04T17:16:23Z</time>
   </trkpt>
   <trkpt lat="51.5717050" lon="-0.0897280">
    <ele>32.2</ele>
    <time>2024-01-04T17:16:29Z</time>
   </trkpt>
   <trkpt lat="51.5717280" lon="-0.0897500">
    <ele>32.2</ele>
    <time>2024-01-04T17:16:34Z</time>
   </trkpt>
   <trkpt lat="51.5717120" lon="-0.0897390">
    <ele>32.2</ele>
    <time>2024-01-04T17:16:41Z</time>
   </trkpt>
   <trkpt lat="51.5717060" lon="-0.0897360">
    <ele>32.2</ele>
    <time>2024-01-04T17:16:42Z</time>
   </trkpt>
   <trkpt lat="51.5717110" lon="-0.0897440">
    <ele>32.2</ele>
    <time>2024-01-04T17:16:47Z</time>
   </trkpt>
   <trkpt lat="51.5716870" lon="-0.0897120">
    <ele>32.2</ele>
    <time>2024-01-04T17:16:52Z</time>
   </trkpt>
   <trkpt lat="51.5717080" lon="-0.0897240">
    <ele>32.2</ele>
    <time>2024-01-04T17:16:59Z</time>
   </trkpt>
   <trkpt lat="51.5717160" lon="-0.0897310">
    <ele>32.2</ele>
    <time>2024-01-04T17:17:00Z</time>
   </trkpt>
   <trkpt lat="51.5717160" lon="-0.0897480">
    <ele>32.2</ele>
    <time>2024-01-04T17:17:05Z</time>
   </trkpt>
   <trkpt lat="51.5717180" lon="-0.0897370">
    <ele>32.2</ele>
    <time>2024-01-04T17:17:10Z</time>
   </trkpt>
   <trkpt lat="51.5717160" lon="-0.0897450">
    <ele>32.2</ele>
    <time>2024-01-04T17:17:16Z</time>
   </trkpt>
   <trkpt lat="51.5717190" lon="-0.0897360">
    <ele>32.2</ele>
    <time>2024-01-04T17:17:22Z</time>
   </trkpt>
   <trkpt lat="51.5717160" lon="-0.0897420">
    <ele>32.2</ele>
    <time>2024-01-04T17:17:28Z</time>
   </trkpt>
   <trkpt lat="51.5717150" lon="-0.0897460">
    <ele>32.2</ele>
    <time>2024-01-04T17:17:34Z</time>
   </trkpt>
   <trkpt lat="51.5717180" lon="-0.0897370">
    <ele>32.2</ele>
    <time>2024-01-04T17:17:40Z</time>
   </trkpt>
   <trkpt lat="51.5717050" lon="-0.0897430">
    <ele>32.2</ele>
    <time>2024-01-04T17:17:46Z</time>
   </trkpt>
   <trkpt lat="51.5717160" lon="-0.0897340">
    <ele>32.2</ele>
    <time>2024-01-04T17:17:52Z</time>
   </trkpt>
   <trkpt lat="51.5717050" lon="-0.0897480">
    <ele>32.2</ele>
    <time>2024-01-04T17:17:58Z</time>
   </trkpt>
   <trkpt lat="51.5716900" lon="-0.0897560">
    <ele>32.2</ele>
    <time>2024-01-04T17:18:04Z</time>
   </trkpt>
  </trkseg>
 </trk>
</gpx>
