<?xml version="1.0" encoding="UTF-8"?>
<gpx creator="StravaGPX" version="1.1" xmlns="http://www.topografix.com/GPX/1/1" xmlns:xsi="http://www.w3.org/2001/XMLSchema-instance" xsi:schemaLocation="http://www.topografix.com/GPX/1/1 http://www.topografix.com/GPX/1/1/gpx.xsd">
 <metadata>
  <time>2024-01-22T17:13:20Z</time>
 </metadata>
 <trk>
  <name>Afternoon E-Bike Ride</name>
  <type>ebikeride</type>
  <trkseg>
   <trkpt lat="51.5717070" lon="-0.0896850">
    <ele>32.2</ele>
    <time>2024-01-22T17:13:20Z</time>
   </trkpt>
   <trkpt lat="51.5717060" lon="-0.0896770">
    <ele>32.2</ele>
    <time>2024-01-22T17:13:21Z</time>
   </trkpt>
   <trkpt lat="51.5716540" lon="-0.0897990">
    <ele>32.2</ele>
    <time>2024-01-22T17:13:27Z</time>
   </trkpt>
   <trkpt lat="51.5717570" lon="-0.0897660">
    <ele>32.2</ele>
    <time>2024-01-22T17:13:33Z</time>
   </trkpt>
   <trkpt lat="51.5717800" lon="-0.0897490">
    <ele>32.2</ele>
    <time>2024-01-22T17:13:34Z</time>
   </trkpt>
   <trkpt lat="51.5717300" lon="-0.0896670">
    <ele>32.2</ele>
    <time>2024-01-22T17:13:39Z</time>
   </trkpt>
   <trkpt lat="51.5717190" lon="-0.0896590">
    <ele>32.2</ele>
    <time>2024-01-22T17:13:40Z</time>
   </trkpt>
   <trkpt lat="51.5717190" lon="-0.0896970">
    <ele>32.2</ele>
    <time>2024-01-22T17:13:45Z</time>
   </trkpt>
   <trkpt lat="51.5717240" lon="-0.0897070">
    <ele>32.2</ele>
    <time>2024-01-22T17:13:46Z</time>
   </trkpt>
   <trkpt lat="51.5717150" lon="-0.0896660">
    <ele>32.2</ele>
    <time>2024-01-22T17:13:51Z</time>
   </trkpt>
   <trkpt lat="51.5717440" lon="-0.0897320">
    <ele>32.2</ele>
    <time>2024-01-22T17:13:57Z</time>
   </trkpt>
   <trkpt lat="51.5717650" lon="-0.0897160">
    <ele>32.2</ele>
    <time>2024-01-22T17:14:03Z</time>
   </trkpt>
   <trkpt lat="51.5717280" lon="-0.0897080">
    <ele>32.2</ele>
    <time>2024-01-22T17:14:09Z</time>
   </trkpt>
   <trkpt lat="51.5717250" lon="-0.0897090">
    <ele>32.2</ele>
    <time>2024-01-22T17:14:10Z</time>
   </trkpt>
   <trkpt lat="51.5716820" lon="-0.0897030">
    <ele>32.2</ele>
    <time>2024-01-22T17:14:15Z</time>
   </trkpt>
   <trkpt lat="51.5717310" lon="-0.0897040">
    <ele>32.2</ele>
    <time>2024-01-22T17:14:21Z</time>
   </trkpt>
   <trkpt lat="51.5717400" lon="-0.0897040">
    <ele>32.2</ele>
    <time>2024-01-22T17:14:22Z</time>
   </trkpt>
   <trkpt lat="51.5717360" lon="-0.0896780">
    <ele>32.2</ele>
    <time>2024-01-22T17:14:27Z</time>
   </trkpt>
   <trkpt lat="51.5717350" lon="-0.0896750">
    <ele>32.2</ele>
    <time>2024-01-22T17:14:28Z</time>
   </trkpt>
   <trkpt lat="51.5717570" lon="-0.0896690">
    <ele>32.2</ele>
    <time>2024-01-22T17:14:33Z</time>
   </trkpt>
   <trkpt lat="51.5717620" lon="-0.0897530">
    <ele>32.2</ele>
    <time>2024-01-22T17:14:39Z</time>
   </trkpt>
   <trkpt lat="51.5716150" lon="-0.0896740">
    <ele>32.2</ele>
    <time>2024-01-22T17:14:45Z</time>
   </trkpt>
   <trkpt lat="51.5716820" lon="-0.0897130">
    <ele>32.2</ele>
    <time>2024-01-22T17:14:51Z</time>
   </trkpt>
   <trkpt lat="51.5717000" lon="-0.0897230">
    <ele>32.2</ele>
    <time>2024-01-22T17:14:52Z</time>
   </trkpt>
   <trkpt lat="51.5716770" lon="-0.0896810">
    <ele>32.2</ele>
    <time>2024-01-22T17:14:57Z</time>
   </trkpt>
   <trkpt lat="51.5716720" lon="-0.0896750">
    <ele>32.2</ele>
    <time>2024-01-22T17:14:58Z</time>
   </trkpt>
   <trkpt lat="51.5717330" lon="-0.0897040">
    <ele>32.2</ele>
    <time>2024-01-22T17:15:03Z</time>
   </trkpt>
   <trkpt lat="51.5717700" lon="-0.0897740">
    <ele>32.2</ele>
    <time>2024-01-22T17:15:09Z</time>
   </trkpt>
   <trkpt lat="51.5717480" lon="-0.0898170">
    <ele>32.2</ele>
    <time>2024-01-22T17:15:10Z</time>
   </trkpt>
   <trkpt lat="51.5716590" lon="-0.0897990">
    <ele>32.2</ele>
    <time>2024-01-22T17:15:15Z</time>
   </trkpt>
   <trkpt lat="51.5716540" lon="-0.0897980">
    <ele>32.2</ele>
    <time>2024-01-22T17:15:16Z</time>
   </trkpt>
   <trkpt lat="51.5717470" lon="-0.0897430">
    <ele>32.2</ele>
    <time>2024-01-22T17:15:22Z</time>
   </trkpt>
   <trkpt lat="51.5717210" lon="-0.0897110">
    <ele>32.2</ele>
    <time>2024-01-22T17:15:28Z</time>
   </trkpt>
   <trkpt lat="51.5717130" lon="-0.0897100">
    <ele>32.2</ele>
    <time>2024-01-22T17:15:29Z</time>
   </trkpt>
   <trkpt lat="51.5716920" lon="-0.0897250">
    <ele>32.2</ele>
    <time>2024-01-22T17:15:34Z</time>
   </trkpt>
   <trkpt lat="51.5716390" lon="-0.0896560">
    <ele>32.2</ele>
    <time>2024-01-22T17:15:40Z</time>
   </trkpt>
   <trkpt lat="51.5716350" lon="-0.0896480">
    <ele>32.2</ele>
    <time>2024-01-22T17:15:41Z</time>
   </trkpt>
   <trkpt lat="51.5716370" lon="-0.0897020">
    <ele>32.2</ele>
    <time>2024-01-22T17:15:46Z</time>
   </trkpt>
   <trkpt lat="51.5716390" lon="-0.0897120">
    <ele>32.2</ele>
    <time>2024-01-22T17:15:47Z</time>
   </trkpt>
   <trkpt lat="51.5717480" lon="-0.0896800">
    <ele>32.2</ele>
    <time>2024-01-22T17:15:52Z</time>
   </trkpt>
   <trkpt lat="51.5717430" lon="-0.0896780">
    <ele>32.2</ele>
    <time>2024-01-22T17:15:58Z</time>
   </trkpt>
   <trkpt lat="51.5717380" lon="-0.0896800">
    <ele>32.2</ele>
    <time>2024-01-22T17:15:59Z</time>
   </trkpt>
   <trkpt lat="51.5717400" lon="-0.0897000">
    <ele>32.2</ele>
    <time>2024-01-22T17:16:04Z</time>
   </trkpt>
   <trkpt lat="51.5717730" lon="-0.0897410">
    <ele>32.2</ele>
    <time>2024-01-22T17:16:10Z</time>
   </trkpt>
   <trkpt lat="51.5716660" lon="-0.0897980">
    <ele>32.2</ele>
    <time>2024-01-22T17:16:16Z</time>
   </trkpt>
   <trkpt lat="51.5717130" lon="-0.0897190">
    <ele>32.2</ele>
    <time>2024-01-22T17:16:22Z</time>
   </trkpt>
   <trkpt lat="51.5717260" lon="-0.0897060">
    <ele>32.2</ele>
    <time>2024-01-22T17:16:23Z</time>
   </trkpt>
   <trkpt lat="51.5717180" lon="-0.0896930">
    <ele>32.2</ele>
    <time>2024-01-22T17:16:28Z</time>
   </trkpt>
   <trkpt lat="51.5717160" lon="-0.0896950">
    <ele>32.2</ele>
    <time>2024-01-22T17:16:29Z</time>
   </trkpt>
   <trkpt lat="51.5717230" lon="-0.0897050">
    <ele>32.2</ele>
    <time>2024-01-22T17:16:34Z</time>
   </trkpt>
   <trkpt lat="51.5717010" lon="-0.0897100">
    <ele>32.2</ele>
    <time>2024-01-22T17:16:40Z</time>
   </trkpt>
   <trkpt lat="51.5717120" lon="-0.0896610">
    <ele>32.2</ele>
    <time>2024-01-22T17:16:46Z</time>
   </trkpt>
   <trkpt lat="51.5717130" lon="-0.0897410">
    <ele>32.2</ele>
    <time>2024-01-22T17:16:52Z</time>
   </trkpt>
   <trkpt lat="51.5717210" lon="-0.0897220">
    <ele>32.2</ele>
    <time>2024-01-22T17:16:58Z</time>
   </trkpt>
   <trkpt lat="51.5717240" lon="-0.0897170">
    <ele>32.2</ele>
    <time>2024-01-22T17:17:04Z</time>
   </trkpt>
   <trkpt lat="51.5717420" lon="-0.0897020">
    <ele>32.2</ele>
    <time>2024-01-22T17:17:10Z</time>
   </trkpt>
   <trkpt lat="51.5717390" lon="-0.0896830">
    <ele>32.2</ele>
    <time>2024-01-22T17:17:16Z</time>
   </trkpt>
   <trkpt lat="51.5717360" lon="-0.0896820">
    <ele>32.2</ele>
    <time>2024-01-22T17:17:28Z</time>
   </trkpt>
   <trkpt lat="51.5717450" lon="-0.0897160">
    <ele>32.2</ele>
    <time>2024-01-22T17:17:34Z</time>
   </trkpt>
   <trkpt lat="51.5717340" lon="-0.0897120">
    <ele>32.2</ele>
    <time>2024-01-22T17:17:40Z</time>
   </trkpt>
   <trkpt lat="51.5717600" lon="-0.0897110">
    <ele>32.2</ele>
    <time>2024-01-22T17:17:46Z</time>
   </trkpt>
   <trkpt lat="51.5717340" lon="-0.0897120">
    <ele>32.2</ele>
    <time>2024-01-22T17:17:52Z</time>
   </trkpt>
   <trkpt lat="51.5717240" lon="-0.0897120">
    <ele>32.2</ele>
    <time>2024-01-22T17:17:53Z</time>
   </trkpt>
   <trkpt lat="51.5717450" lon="-0.0896850">
    <ele>32.2</ele>
    <time>2024-01-22T17:17:58Z</time>
   </trkpt>
   <trkpt lat="51.5717310" lon="-0.0897080">
    <ele>32.2</ele>
    <time>2024-01-22T17:18:04Z</time>
   </trkpt>
   <trkpt lat="51.5716310" lon="-0.0897200">
    <ele>32.2</ele>
    <time>2024-01-22T17:18:10Z</time>
   </trkpt>
   <trkpt lat="51.5716180" lon="-0.0897200">
    <ele>32.2</ele>
    <time>2024-01-22T17:18:11Z</time>
   </trkpt>
   <trkpt lat="51.5716220" lon="-0.0897050">
    <ele>32.2</ele>
    <time>2024-01-22T17:18:16Z</time>
   </trkpt>
   <trkpt lat="51.5716280" lon="-0.0897020">
    <ele>32.2</ele>
    <time>2024-01-22T17:18:17Z</time>
   </trkpt>
   <trkpt lat="51.5717140" lon="-0.0897080">
    <ele>32.2</ele>
    <time>2024-01-22T17:18:22Z</time>
   </trkpt>
   <trkpt lat="51.5717370" lon="-0.0896800">
    <ele>32.2</ele>
    <time>2024-01-22T17:18:28Z</time>
   </trkpt>
   <trkpt lat="51.5717360" lon="-0.0896770">
    <ele>32.2</ele>
    <time>2024-01-22T17:18:29Z</time>
   </trkpt>
   <trkpt lat="51.5717530" lon="-0.0896640">
    <ele>32.2</ele>
    <time>2024-01-22T17:18:34Z</time>
   </trkpt>
   <trkpt lat="51.5717480" lon="-0.0897360">
    <ele>32.2</ele>
    <time>2024-01-22T17:18:40Z</time>
   </trkpt>
   <trkpt lat="51.5717480" lon="-0.0897450">
    <ele>32.2</ele>
    <time>2024-01-22T17:18:41Z</time>
   </trkpt>
   <trkpt lat="51.5716920" lon="-0.0897300">
    <ele>32.2</ele>
    <time>2024-01-22T17:18:46Z</time>
   </trkpt>
   <trkpt lat="51.5716860" lon="-0.0897250">
    <ele>32.2</ele>
    <time>2024-01-22T17:18:47Z</time>
   </trkpt>
   <trkpt lat="51.5717090" lon="-0.0897460">
    <ele>32.2</ele>
    <time>2024-01-22T17:18:53Z</time>
   </trkpt>
   <trkpt lat="51.5717220" lon="-0.0897120">
    <ele>32.2</ele>
    <time>2024-01-22T17:18:59Z</time>
   </trkpt>
   <trkpt lat="51.5716750" lon="-0.0897200">
    <ele>32.2</ele>
    <time>2024-01-22T17:19:05Z</time>
   </trkpt>
   <trkpt lat="51.5717290" lon="-0.0897080">
    <ele>32.2</ele>
    <time>2024-01-22T17:19:11Z</time>
   </trkpt>
   <trkpt lat="51.5716650" lon="-0.0897910">
    <ele>32.2</ele>
    <time>2024-01-22T17:19:17Z</time>
   </trkpt>
   <trkpt lat="51.5717190" lon="-0.0897410">
    <ele>32.2</ele>
    <time>2024-01-22T17:19:23Z</time>
   </trkpt>
   <trkpt lat="51.5717290" lon="-0.0897310">
    <ele>32.2</ele>
    <time>2024-01-22T17:19:24Z</time>
   </trkpt>
   <trkpt lat="51.5716880" lon="-0.0897120">
    <ele>32.2</ele>
    <time>2024-01-22T17:19:29Z</time>
   </trkpt>
   <trkpt lat="51.5716650" lon="-0.0897140">
    <ele>32.2</ele>
    <time>2024-01-22T17:19:30Z</time>
   </trkpt>
   <trkpt lat="51.5716880" lon="-0.0897260">
    <ele>32.2</ele>
    <time>2024-01-22T17:19:41Z</time>
   </trkpt>
   <trkpt lat="51.5717440" lon="-0.0897110">
    <ele>32.2</ele>
    <time>2024-01-22T17:19:47Z</time>
   </trkpt>
   <trkpt lat="51.5717770" lon="-0.0897450">
    <ele>32.2</ele>
    <time>2024-01-22T17:19:53Z</time>
   </trkpt>
   <trkpt lat="51.5717790" lon="-0.0897500">
    <ele>32.2</ele>
    <time>2024-01-22T17:19:54Z</time>
   </trkpt>
   <trkpt lat="51.5717450" lon="-0.0896440">
    <ele>32.2</ele>
    <time>2024-01-22T17:19:59Z</time>
   </trkpt>
   <trkpt lat="51.5717390" lon="-0.0896270">
    <ele>32.2</ele>
    <time>2024-01-22T17:20:05Z</time>
   </trkpt>
   <trkpt lat="51.5716480" lon="-0.0897060">
    <ele>32.2</ele>
    <time>2024-01-22T17:20:11Z</time>
   </trkpt>
   <trkpt lat="51.5716380" lon="-0.0897150">
    <ele>32.2</ele>
    <time>2024-01-22T17:20:12Z</time>
   </trkpt>
   <trkpt lat="51.5716900" lon="-0.0897300">
    <ele>32.2</ele>
    <time>2024-01-22T17:20:17Z</time>
   </trkpt>
   <trkpt lat="51.5717050" lon="-0.0897280">
    <ele>32.2</ele>
    <time>2024-01-22T17:20:18Z</time>
   </trkpt>
   <trkpt lat="51.5717020" lon="-0.0897740">
    <ele>32.2</ele>
    <time>2024-01-22T17:20:23Z</time>
   </trkpt>
   <trkpt lat="51.5717620" lon="-0.0897180">
    <ele>32.2</ele>
    <time>2024-01-22T17:20:29Z</time>
   </trkpt>
   <trkpt lat="51.5718080" lon="-0.0897010">
    <ele>32.2</ele>
    <time>2024-01-22T17:20:35Z</time>
   </trkpt>
   <trkpt lat="51.5717420" lon="-0.0896800">
    <ele>32.2</ele>
    <time>2024-01-22T17:20:41Z</time>
   </trkpt>
   <trkpt lat="51.5717950" lon="-0.0897030">
    <ele>32.2</ele>
    <time>2024-01-22T17:20:47Z</time>
   </trkpt>
   <trkpt lat="51.5717320" lon="-0.0897090">
    <ele>32.2</ele>
    <time>2024-01-22T17:20:53Z</time>
   </trkpt>
   <trkpt lat="51.5717340" lon="-0.0897260">
    <ele>32.2</ele>
    <time>2024-01-22T17:20:59Z</time>
   </trkpt>
   <trkpt lat="51.5718020" lon="-0.0897110">
    <ele>32.2</ele>
    <time>2024-01-22T17:21:05Z</time>
   </trkpt>
   <trkpt lat="51.5717530" lon="-0.0896960">
    <ele>32.2</ele>
    <time>2024-01-22T17:21:11Z</time>
   </trkpt>
   <trkpt lat="51.5717310" lon="-0.0897280">
    <ele>32.2</ele>
    <time>2024-01-22T17:21:17Z</time>
   </trkpt>
   <trkpt lat="51.5717210" lon="-0.0897150">
    <ele>32.2</ele>
    <time>2024-01-22T17:21:23Z</time>
   </trkpt>
   <trkpt lat="51.5717240" lon="-0.0897110">
    <ele>32.2</ele>
    <time>2024-01-22T17:21:30Z</time>
   </trkpt>
   <trkpt lat="51.5717460" lon="-0.0897400">
    <ele>32.2</ele>
    <time>2024-01-22T17:21:36Z</time>
   </trkpt>
   <trkpt lat="51.5716410" lon="-0.0897150">
    <ele>32.2</ele>
    <time>2024-01-22T17:21:42Z</time>
   </trkpt>
   <trkpt lat="51.5717260" lon="-0.0897080">
    <ele>32.2</ele>
    <time>2024-01-22T17:21:48Z</time>
   </trkpt>
   <trkpt lat="51.5717630" lon="-0.0896700">
    <ele>32.2</ele>
    <time>2024-01-22T17:21:54Z</time>
   </trkpt>
   <trkpt lat="51.5717300" lon="-0.0897050">
    <ele>32.2</ele>
    <time>2024-01-22T17:22:00Z</time>
   </trkpt>
   <trkpt lat="51.5717040" lon="-0.0897160">
    <ele>32.2</ele>
    <time>2024-01-22T17:22:06Z</time>
   </trkpt>
   <trkpt lat="51.5717200" lon="-0.0897120">
    <ele>32.2</ele>
    <time>2024-01-22T17:22:12Z</time>
   </trkpt>
   <trkpt lat="51.5717320" lon="-0.0896800">
    <ele>32.2</ele>
    <time>2024-01-22T17:22:18Z</time>
   </trkpt>
   <trkpt lat="51.5717380" lon="-0.0897030">
    <ele>32.2</ele>
    <time>2024-01-22T17:22:24Z</time>
   </trkpt>
   <trkpt lat="51.5717470" lon="-0.0897420">
    <ele>32.2</ele>
    <time>2024-01-22T17:22:30Z</time>
   </trkpt>
   <trkpt lat="51.5717240" lon="-0.0897140">
    <ele>32.2</ele>
    <time>2024-01-22T17:22:36Z</time>
   </trkpt>
   <trkpt lat="51.5716450" lon="-0.0897130">
    <ele>32.2</ele>
    <time>2024-01-22T17:22:42Z</time>
   </trkpt>
   <trkpt lat="51.5717140" lon="-0.0897070">
    <ele>32.2</ele>
    <time>2024-01-22T17:22:48Z</time>
   </trkpt>
   <trkpt lat="51.5717320" lon="-0.0897100">
    <ele>32.2</ele>
    <time>2024-01-22T17:22:54Z</time>
   </trkpt>
   <trkpt lat="51.5717480" lon="-0.0897420">
    <ele>32.2</ele>
    <time>2024-01-22T17:23:00Z</time>
   </trkpt>
   <trkpt lat="51.5717250" lon="-0.0897160">
    <ele>32.2</ele>
    <time>2024-01-22T17:23:06Z</time>
   </trkpt>
   <trkpt lat="51.5717030" lon="-0.0897120">
    <ele>32.2</ele>
    <time>2024-01-22T17:23:12Z</time>
   </trkpt>
   <trkpt lat="51.5717360" lon="-0.0897110">
    <ele>32.2</ele>
    <time>2024-01-22T17:23:18Z</time>
   </trkpt>
   <trkpt lat="51.5717080" lon="-0.0897140">
    <ele>32.2</ele>
    <time>2024-01-22T17:23:24Z</time>
   </trkpt>
   <trkpt lat="51.5717400" lon="-0.0897430">
    <ele>32.2</ele>
    <time>2024-01-22T17:23:30Z</time>
   </trkpt>
   <trkpt lat="51.5717500" lon="-0.0897420">
    <ele>32.2</ele>
    <time>2024-01-22T17:23:36Z</time>
   </trkpt>
   <trkpt lat="51.5717310" lon="-0.0897100">
    <ele>32.2</ele>
    <time>2024-01-22T17:23:41Z</time>
   </trkpt>
   <trkpt lat="51.5717140" lon="-0.0897630">
    <ele>32.2</ele>
    <time>2024-01-22T17:23:47Z</time>
   </trkpt>
   <trkpt lat="51.5717040" lon="-0.0897190">
    <ele>32.2</ele>
    <time>2024-01-22T17:23:53Z</time>
   </trkpt>
   <trkpt lat="51.5717430" lon="-0.0897370">
    <ele>32.2</ele>
    <time>2024-01-22T17:23:59Z</time>
   </trkpt>
   <trkpt lat="51.5717270" lon="-0.0897130">
    <ele>32.2</ele>
    <time>2024-01-22T17:24:05Z</time>
   </trkpt>
   <trkpt lat="51.5717210" lon="-0.0897070">
    <ele>32.2</ele>
    <time>2024-01-22T17:24:11Z</time>
   </trkpt>
   <trkpt lat="51.5717020" lon="-0.0897210">
    <ele>32.2</ele>
    <time>2024-01-22T17:24:17Z</time>
   </trkpt>
   <trkpt lat="51.5716410" lon="-0.0897160">
    <ele>32.2</ele>
    <time>2024-01-22T17:24:23Z</time>
   </trkpt>
   <trkpt lat="51.5717270" lon="-0.0897090">
    <ele>32.2</ele>
    <time>2024-01-22T17:24:29Z</time>
   </trkpt>
   <trkpt lat="51.5717440" lon="-0.0897080">
    <ele>32.2</ele>
    <time>2024-01-22T17:24:30Z</time>
   </trkpt>
   <trkpt lat="51.5717320" lon="-0.0897100">
    <ele>32.2</ele>
    <time>2024-01-22T17:24:35Z</time>
   </trkpt>
   <trkpt lat="51.5717280" lon="-0.0897110">
    <ele>32.2</ele>
    <time>2024-01-22T17:24:36Z</time>
   </trkpt>
   <trkpt lat="51.5717330" lon="-0.0896840">
    <ele>32.2</ele>
    <time>2024-01-22T17:24:41Z</time>
   </trkpt>
   <trkpt lat="51.5717170" lon="-0.0896580">
    <ele>32.2</ele>
    <time>2024-01-22T17:24:47Z</time>
   </trkpt>
   <trkpt lat="51.5717010" lon="-0.0896940">
    <ele>32.2</ele>
    <time>2024-01-22T17:24:53Z</time>
   </trkpt>
   <trkpt lat="51.5717210" lon="-0.0897090">
    <ele>32.2</ele>
    <time>2024-01-22T17:24:59Z</time>
   </trkpt>
   <trkpt lat="51.5717240" lon="-0.0897120">
    <ele>32.2</ele>
    <time>2024-01-22T17:25:05Z</time>
   </trkpt>
   <trkpt lat="51.5717250" lon="-0.0897130">
    <ele>32.2</ele>
    <time>2024-01-22T17:25:11Z</time>
   </trkpt>
   <trkpt lat="51.5717250" lon="-0.0897140">
    <ele>32.2</ele>
    <time>2024-01-22T17:25:17Z</time>
   </trkpt>
   <trkpt lat="51.5717230" lon="-0.0897110">
    <ele>32.2</ele>
    <time>2024-01-22T17:25:22Z</time>
   </trkpt>
   <trkpt lat="51.5717330" lon="-0.0896820">
    <ele>32.2</ele>
    <time>2024-01-22T17:25:28Z</time>
   </trkpt>
   <trkpt lat="51.5717410" lon="-0.0896980">
    <ele>32.2</ele>
    <time>2024-01-22T17:25:34Z</time>
   </trkpt>
   <trkpt lat="51.5717270" lon="-0.0897150">
    <ele>32.2</ele>
    <time>2024-01-22T17:25:40Z</time>
   </trkpt>
   <trkpt lat="51.5717220" lon="-0.0897120">
    <ele>32.2</ele>
    <time>2024-01-22T17:25:46Z</time>
   </trkpt>
   <trkpt lat="51.5717040" lon="-0.0897120">
    <ele>32.2</ele>
    <time>2024-01-22T17:25:52Z</time>
   </trkpt>
   <trkpt lat="51.5717430" lon="-0.0897420">
    <ele>32.2</ele>
    <time>2024-01-22T17:25:58Z</time>
   </trkpt>
   <trkpt lat="51.5717070" lon="-0.0897170">
    <ele>32.2</ele>
    <time>2024-01-22T17:26:04Z</time>
   </trkpt>
   <trkpt lat="51.5717100" lon="-0.0897670">
    <ele>32.2</ele>
    <time>2024-01-22T17:26:10Z</time>
   </trkpt>
   <trkpt lat="51.5717130" lon="-0.0897180">
    <ele>32.2</ele>
    <time>2024-01-22T17:26:16Z</time>
   </trkpt>
   <trkpt lat="51.5717190" lon="-0.0897040">
    <ele>32.2</ele>
    <time>2024-01-22T17:26:22Z</time>
   </trkpt>
   <trkpt lat="51.5717350" lon="-0.0897050">
    <ele>32.2</ele>
    <time>2024-01-22T17:26:28Z</time>
   </trkpt>
   <trkpt lat="51.5717430" lon="-0.0897100">
    <ele>32.2</ele>
    <time>2024-01-22T17:26:34Z</time>
   </trkpt>
   <trkpt lat="51.5716290" lon="-0.0897230">
    <ele>32.2</ele>
    <time>2024-01-22T17:26:40Z</time>
   </trkpt>
   <trkpt lat="51.5717070" lon="-0.0897120">
    <ele>32.2</ele>
    <time>2024-01-22T17:26:46Z</time>
   </trkpt>
   <trkpt lat="51.5717380" lon="-0.0896810">
    <ele>32.2</ele>
    <time>2024-01-22T17:26:52Z</time>
   </trkpt>
   <trkpt lat="51.5717570" lon="-0.0896650">
    <ele>32.2</ele>
    <time>2024-01-22T17:26:58Z</time>
   </trkpt>
   <trkpt lat="51.5717380" lon="-0.0896780">
    <ele>32.2</ele>
    <time>2024-01-22T17:27:04Z</time>
   </trkpt>
   <trkpt lat="51.5717010" lon="-0.0897030">
    <ele>32.2</ele>
    <time>2024-01-22T17:27:10Z</time>
   </trkpt>
   <trkpt lat="51.5717180" lon="-0.0897110">
    <ele>32.2</ele>
    <time>2024-01-22T17:27:16Z</time>
   </trkpt>
   <trkpt lat="51.5717300" lon="-0.0896780">
    <ele>32.2</ele>
    <time>2024-01-22T17:27:22Z</time>
   </trkpt>
   <trkpt lat="51.5717440" lon="-0.0897370">
    <ele>32.2</ele>
    <time>2024-01-22T17:27:28Z</time>
   </trkpt>
   <trkpt lat="51.5717470" lon="-0.0897470">
    <ele>32.2</ele>
    <time>2024-01-22T17:27:34Z</time>
   </trkpt>
   <trkpt lat="51.5717190" lon="-0.0897140">
    <ele>32.2</ele>
    <time>2024-01-22T17:27:40Z</time>
   </trkpt>
   <trkpt lat="51.5717280" lon="-0.0896780">
    <ele>32.2</ele>
    <time>2024-01-22T17:27:46Z</time>
   </trkpt>
   <trkpt lat="51.5717520" lon="-0.0896610">
    <ele>32.2</ele>
    <time>2024-01-22T17:27:52Z</time>
   </trkpt>
   <trkpt lat="51.5717840" lon="-0.0896950">
    <ele>32.2</ele>
    <time>2024-01-22T17:27:58Z</time>
   </trkpt>
   <trkpt lat="51.5717480" lon="-0.0897400">
    <ele>32.2</ele>
    <time>2024-01-22T17:28:04Z</time>
   </trkpt>
   <trkpt lat="51.5717580" lon="-0.0896730">
    <ele>32.2</ele>
    <time>2024-01-22T17:28:10Z</time>
   </trkpt>
   <trkpt lat="51.5717360" lon="-0.0896740">
    <ele>32.2</ele>
    <time>2024-01-22T17:28:16Z</time>
   </trkpt>
   <trkpt lat="51.5717610" lon="-0.0897070">
    <ele>32.2</ele>
    <time>2024-01-22T17:28:22Z</time>
   </trkpt>
   <trkpt lat="51.5717490" lon="-0.0897430">
    <ele>32.2</ele>
    <time>2024-01-22T17:28:28Z</time>
   </trkpt>
   <trkpt lat="51.5717070" lon="-0.0897080">
    <ele>32.2</ele>
    <time>2024-01-22T17:28:34Z</time>
   </trkpt>
   <trkpt lat="51.5717140" lon="-0.0897050">
    <ele>32.2</ele>
    <time>2024-01-22T17:28:40Z</time>
   </trkpt>
   <trkpt lat="51.5717100" lon="-0.0897080">
    <ele>32.2</ele>
    <time>2024-01-22T17:28:46Z</time>
   </trkpt>
   <trkpt lat="51.5716390" lon="-0.0896430">
    <ele>32.2</ele>
    <time>2024-01-22T17:28:52Z</time>
   </trkpt>
   <trkpt lat="51.5717560" lon="-0.0897360">
    <ele>32.2</ele>
    <time>2024-01-22T17:28:58Z</time>
   </trkpt>
   <trkpt lat="51.5717160" lon="-0.0897100">
    <ele>32.2</ele>
    <time>2024-01-22T17:29:04Z</time>
   </trkpt>
   <trkpt lat="51.5717060" lon="-0.0897010">
    <ele>32.2</ele>
    <time>2024-01-22T17:29:05Z</time>
   </trkpt>
   <trkpt lat="51.5717260" lon="-0.0896770">
    <ele>32.2</ele>
    <time>2024-01-22T17:29:10Z</time>
   </trkpt>
   <trkpt lat="51.5717360" lon="-0.0896750">
    <ele>32.2</ele>
    <time>2024-01-22T17:29:12Z</time>
   </trkpt>
   <trkpt lat="51.5716490" lon="-0.0896970">
    <ele>32.2</ele>
    <time>2024-01-22T17:29:16Z</time>
   </trkpt>
   <trkpt lat="51.5717510" lon="-0.0897110">
    <ele>32.2</ele>
    <time>2024-01-22T17:29:22Z</time>
   </trkpt>
   <trkpt lat="51.5717280" lon="-0.0897370">
    <ele>32.2</ele>
    <time>2024-01-22T17:29:28Z</time>
   </trkpt>
   <trkpt lat="51.5717220" lon="-0.0897160">
    <ele>32.2</ele>
    <time>2024-01-22T17:29:34Z</time>
   </trkpt>
   <trkpt lat="51.5717550" lon="-0.0896710">
    <ele>32.2</ele>
    <time>2024-01-22T17:29:40Z</time>
   </trkpt>
   <trkpt lat="51.5717260" lon="-0.0896990">
    <ele>32.2</ele>
    <time>2024-01-22T17:29:46Z</time>
   </trkpt>
   <trkpt lat="51.5717370" lon="-0.0897110">
    <ele>32.2</ele>
    <time>2024-01-22T17:29:52Z</time>
   </trkpt>
   <trkpt lat="51.5717470" lon="-0.0897420">
    <ele>32.2</ele>
    <time>2024-01-22T17:29:58Z</time>
   </trkpt>
   <trkpt lat="51.5717140" lon="-0.0897140">
    <ele>32.2</ele>
    <time>2024-01-22T17:30:04Z</time>
   </trkpt>
   <trkpt lat="51.5717260" lon="-0.0896760">
    <ele>32.2</ele>
    <time>2024-01-22T17:30:10Z</time>
   </trkpt>
   <trkpt lat="51.5716830" lon="-0.0896950">
    <ele>32.2</ele>
    <time>2024-01-22T17:30:16Z</time>
   </trkpt>
   <trkpt lat="51.5717170" lon="-0.0897120">
    <ele>32.2</ele>
    <time>2024-01-22T17:30:22Z</time>
   </trkpt>
   <trkpt lat="51.5717460" lon="-0.0897410">
    <ele>32.2</ele>
    <time>2024-01-22T17:30:28Z</time>
   </trkpt>
   <trkpt lat="51.5717070" lon="-0.0897060">
    <ele>32.2</ele>
    <time>2024-01-22T17:30:34Z</time>
   </trkpt>
   <trkpt lat="51.5716850" lon="-0.0897140">
    <ele>32.2</ele>
    <time>2024-01-22T17:30:40Z</time>
   </trkpt>
   <trkpt lat="51.5717310" lon="-0.0896850">
    <ele>32.2</ele>
    <time>2024-01-22T17:30:46Z</time>
   </trkpt>
   <trkpt lat="51.5717060" lon="-0.0896970">
    <ele>32.2</ele>
    <time>2024-01-22T17:30:52Z</time>
   </trkpt>
   <trkpt lat="51.5717200" lon="-0.0897100">
    <ele>32.2</ele>
    <time>2024-01-22T17:30:58Z</time>
   </trkpt>
   <trkpt lat="51.5717330" lon="-0.0896840">
    <ele>32.2</ele>
    <time>2024-01-22T17:31:04Z</time>
   </trkpt>
   <trkpt lat="51.5717430" lon="-0.0897890">
    <ele>32.2</ele>
    <time>2024-01-22T17:31:10Z</time>
   </trkpt>
   <trkpt lat="51.5716260" lon="-0.0896840">
    <ele>32.2</ele>
    <time>2024-01-22T17:31:16Z</time>
   </trkpt>
   <trkpt lat="51.5716900" lon="-0.0897010">
    <ele>32.2</ele>
    <time>2024-01-22T17:31:22Z</time>
   </trkpt>
   <trkpt lat="51.5717000" lon="-0.0897210">
    <ele>32.2</ele>
    <time>2024-01-22T17:31:28Z</time>
   </trkpt>
   <trkpt lat="51.5717210" lon="-0.0897110">
    <ele>32.2</ele>
    <time>2024-01-22T17:31:34Z</time>
   </trkpt>
   <trkpt lat="51.5717370" lon="-0.0897040">
    <ele>32.2</ele>
    <time>2024-01-22T17:31:40Z</time>
   </trkpt>
   <trkpt lat="51.5717230" lon="-0.0897120">
    <ele>32.2</ele>
    <time>2024-01-22T17:31:46Z</time>
   </trkpt>
   <trkpt lat="51.5717030" lon="-0.0897200">
    <ele>32.2</ele>
    <time>2024-01-22T17:31:52Z</time>
   </trkpt>
   <trkpt lat="51.5717180" lon="-0.0897120">
    <ele>32.2</ele>
    <time>2024-01-22T17:31:58Z</time>
   </trkpt>
   <trkpt lat="51.5717310" lon="-0.0896770">
    <ele>32.2</ele>
    <time>2024-01-22T17:32:04Z</time>
   </trkpt>
   <trkpt lat="51.5717130" lon="-0.0896530">
    <ele>32.2</ele>
    <time>2024-01-22T17:32:10Z</time>
   </trkpt>
   <trkpt lat="51.5717090" lon="-0.0896560">
    <ele>32.2</ele>
    <time>2024-01-22T17:32:16Z</time>
   </trkpt>
   <trkpt lat="51.5716350" lon="-0.0896920">
    <ele>32.2</ele>
    <time>2024-01-22T17:32:22Z</time>
   </trkpt>
   <trkpt lat="51.5717090" lon="-0.0897060">
    <ele>32.2</ele>
    <time>2024-01-22T17:32:28Z</time>
   </trkpt>
   <trkpt lat="51.5717630" lon="-0.0897100">
    <ele>32.2</ele>
    <time>2024-01-22T17:32:34Z</time>
   </trkpt>
   <trkpt lat="51.5717790" lon="-0.0897460">
    <ele>32.2</ele>
    <time>2024-01-22T17:32:40Z</time>
   </trkpt>
   <trkpt lat="51.5717660" lon="-0.0897150">
    <ele>32.2</ele>
    <time>2024-01-22T17:32:46Z</time>
   </trkpt>
   <trkpt lat="51.5717490" lon="-0.0897370">
    <ele>32.2</ele>
    <time>2024-01-22T17:32:52Z</time>
   </trkpt>
   <trkpt lat="51.5717180" lon="-0.0896950">
    <ele>32.2</ele>
    <time>2024-01-22T17:32:58Z</time>
   </trkpt>
   <trkpt lat="51.5717440" lon="-0.0897340">
    <ele>32.2</ele>
    <time>2024-01-22T17:33:04Z</time>
   </trkpt>
   <trkpt lat="51.5717580" lon="-0.0896750">
    <ele>32.2</ele>
    <time>2024-01-22T17:33:10Z</time>
   </trkpt>
   <trkpt lat="51.5717270" lon="-0.0897020">
    <ele>32.2</ele>
    <time>2024-01-22T17:33:16Z</time>
   </trkpt>
   <trkpt lat="51.5717060" lon="-0.0896860">
    <ele>32.2</ele>
    <time>2024-01-22T17:33:22Z</time>
   </trkpt>
   <trkpt lat="51.5717520" lon="-0.0896670">
    <ele>32.2</ele>
    <time>2024-01-22T17:33:28Z</time>
   </trkpt>
   <trkpt lat="51.5717380" lon="-0.0896780">
    <ele>32.2</ele>
    <time>2024-01-22T17:33:34Z</time>
   </trkpt>
   <trkpt lat="51.5717250" lon="-0.0897100">
    <ele>32.2</ele>
    <time>2024-01-22T17:33:40Z</time>
   </trkpt>
   <trkpt lat="51.5716880" lon="-0.0897180">
    <ele>32.2</ele>
    <time>2024-01-22T17:33:46Z</time>
   </trkpt>
   <trkpt lat="51.5717180" lon="-0.0897070">
    <ele>32.2</ele>
    <time>2024-01-22T17:33:52Z</time>
   </trkpt>
   <trkpt lat="51.5717420" lon="-0.0897060">
    <ele>32.2</ele>
    <time>2024-01-22T17:33:58Z</time>
   </trkpt>
   <trkpt lat="51.5717260" lon="-0.0897120">
    <ele>32.2</ele>
    <time>2024-01-22T17:34:04Z</time>
   </trkpt>
   <trkpt lat="51.5716590" lon="-0.0897940">
    <ele>32.2</ele>
    <time>2024-01-22T17:34:10Z</time>
   </trkpt>
   <trkpt lat="51.5716940" lon="-0.0897060">
    <ele>32.3</ele>
    <time>2024-01-22T17:34:16Z</time>
   </trkpt>
   <trkpt lat="51.5717460" lon="-0.0897340">
    <ele>32.3</ele>
    <time>2024-01-22T17:34:22Z</time>
   </trkpt>
   <trkpt lat="51.5717500" lon="-0.0897420">
    <ele>32.3</ele>
    <time>2024-01-22T17:34:28Z</time>
   </trkpt>
   <trkpt lat="51.5717390" lon="-0.0897030">
    <ele>32.3</ele>
    <time>2024-01-22T17:34:34Z</time>
   </trkpt>
   <trkpt lat="51.5717270" lon="-0.0897340">
    <ele>32.3</ele>
    <time>2024-01-22T17:34:40Z</time>
   </trkpt>
   <trkpt lat="51.5717490" lon="-0.0896690">
    <ele>32.3</ele>
    <time>2024-01-22T17:34:46Z</time>
   </trkpt>
   <trkpt lat="51.5717640" lon="-0.0897020">
    <ele>32.3</ele>
    <time>2024-01-22T17:34:52Z</time>
   </trkpt>
   <trkpt lat="51.5717420" lon="-0.0897080">
    <ele>32.3</ele>
    <time>2024-01-22T17:34:58Z</time>
   </trkpt>
   <trkpt lat="51.5716390" lon="-0.0897150">
    <ele>32.3</ele>
    <time>2024-01-22T17:35:04Z</time>
   </trkpt>
   <trkpt lat="51.5717150" lon="-0.0897420">
    <ele>32.3</ele>
    <time>2024-01-22T17:35:10Z</time>
   </trkpt>
   <trkpt lat="51.5717310" lon="-0.0897440">
    <ele>32.3</ele>
    <time>2024-01-22T17:35:11Z</time>
   </trkpt>
   <trkpt lat="51.5717210" lon="-0.0896670">
    <ele>32.3</ele>
    <time>2024-01-22T17:35:16Z</time>
   </trkpt>
   <trkpt lat="51.5717160" lon="-0.0896550">
    <ele>32.3</ele>
    <time>2024-01-22T17:35:17Z</time>
   </trkpt>
   <trkpt lat="51.5717300" lon="-0.0896720">
    <ele>32.3</ele>
    <time>2024-01-22T17:35:22Z</time>
   </trkpt>
   <trkpt lat="51.5716990" lon="-0.0896780">
    <ele>32.3</ele>
    <time>2024-01-22T17:35:28Z</time>
   </trkpt>
   <trkpt lat="51.5717170" lon="-0.0897050">
    <ele>32.3</ele>
    <time>2024-01-22T17:35:34Z</time>
   </trkpt>
   <trkpt lat="51.5716470" lon="-0.0897110">
    <ele>32.3</ele>
    <time>2024-01-22T17:35:40Z</time>
   </trkpt>
   <trkpt lat="51.5716930" lon="-0.0896950">
    <ele>32.3</ele>
    <time>2024-01-22T17:35:46Z</time>
   </trkpt>
   <trkpt lat="51.5717480" lon="-0.0897340">
    <ele>32.3</ele>
    <time>2024-01-22T17:35:52Z</time>
   </trkpt>
   <trkpt lat="51.5717310" lon="-0.0897150">
    <ele>32.3</ele>
    <time>2024-01-22T17:35:58Z</time>
   </trkpt>
   <trkpt lat="51.5717210" lon="-0.0897080">
    <ele>32.3</ele>
    <time>2024-01-22T17:36:04Z</time>
   </trkpt>
   <trkpt lat="51.5717230" lon="-0.0897100">
    <ele>32.3</ele>
    <time>2024-01-22T17:36:10Z</time>
   </trkpt>
   <trkpt lat="51.5717250" lon="-0.0897140">
    <ele>32.3</ele>
    <time>2024-01-22T17:36:16Z</time>
   </trkpt>
   <trkpt lat="51.5717050" lon="-0.0897330">
    <ele>32.3</ele>
    <time>2024-01-22T17:36:22Z</time>
   </trkpt>
   <trkpt lat="51.5717210" lon="-0.0897130">
    <ele>32.3</ele>
    <time>2024-01-22T17:36:28Z</time>
   </trkpt>
   <trkpt lat="51.5717250" lon="-0.0897070">
    <ele>32.3</ele>
    <time>2024-01-22T17:36:34Z</time>
   </trkpt>
   <trkpt lat="51.5717220" lon="-0.0897060">
    <ele>32.3</ele>
    <time>2024-01-22T17:36:40Z</time>
   </trkpt>
   <trkpt lat="51.5717290" lon="-0.0896770">
    <ele>32.3</ele>
    <time>2024-01-22T17:36:46Z</time>
   </trkpt>
   <trkpt lat="51.5717370" lon="-0.0897020">
    <ele>32.3</ele>
    <time>2024-01-22T17:36:52Z</time>
   </trkpt>
   <trkpt lat="51.5717240" lon="-0.0897060">
    <ele>32.3</ele>
    <time>2024-01-22T17:36:58Z</time>
   </trkpt>
   <trkpt lat="51.5717250" lon="-0.0897120">
    <ele>32.3</ele>
    <time>2024-01-22T17:37:04Z</time>
   </trkpt>
   <trkpt lat="51.5717520" lon="-0.0896670">
    <ele>32.3</ele>
    <time>2024-01-22T17:37:10Z</time>
   </trkpt>
   <trkpt lat="51.5717290" lon="-0.0897050">
    <ele>32.3</ele>
    <time>2024-01-22T17:37:16Z</time>
   </trkpt>
   <trkpt lat="51.5717360" lon="-0.0897080">
    <ele>32.3</ele>
    <time>2024-01-22T17:37:22Z</time>
   </trkpt>
   <trkpt lat="51.5717260" lon="-0.0897110">
    <ele>32.3</ele>
    <time>2024-01-22T17:37:28Z</time>
   </trkpt>
   <trkpt lat="51.5717220" lon="-0.0897100">
    <ele>32.3</ele>
    <time>2024-01-22T17:37:34Z</time>
   </trkpt>
   <trkpt lat="51.5717030" lon="-0.0897010">
    <ele>32.3</ele>
    <time>2024-01-22T17:37:40Z</time>
   </trkpt>
   <trkpt lat="51.5717670" lon="-0.0897440">
    <ele>32.3</ele>
    <time>2024-01-22T17:37:46Z</time>
   </trkpt>
   <trkpt lat="51.5717090" lon="-0.0897170">
    <ele>32.3</ele>
    <time>2024-01-22T17:37:52Z</time>
   </trkpt>
   <trkpt lat="51.5717180" lon="-0.0897030">
    <ele>32.3</ele>
    <time>2024-01-22T17:37:58Z</time>
   </trkpt>
   <trkpt lat="51.5716970" lon="-0.0897250">
    <ele>32.3</ele>
    <time>2024-01-22T17:38:04Z</time>
   </trkpt>
   <trkpt lat="51.5717210" lon="-0.0897100">
    <ele>32.3</ele>
    <time>2024-01-22T17:38:10Z</time>
   </trkpt>
   <trkpt lat="51.5717050" lon="-0.0896990">
    <ele>32.3</ele>
    <time>2024-01-22T17:38:16Z</time>
   </trkpt>
   <trkpt lat="51.5717210" lon="-0.0897020">
    <ele>32.3</ele>
    <time>2024-01-22T17:38:22Z</time>
   </trkpt>
   <trkpt lat="51.5717580" lon="-0.0896720">
    <ele>32.3</ele>
    <time>2024-01-22T17:38:28Z</time>
   </trkpt>
   <trkpt lat="51.5716990" lon="-0.0897140">
    <ele>32.3</ele>
    <time>2024-01-22T17:38:34Z</time>
   </trkpt>
   <trkpt lat="51.5717180" lon="-0.0897120">
    <ele>32.3</ele>
    <time>2024-01-22T17:38:40Z</time>
   </trkpt>
   <trkpt lat="51.5717240" lon="-0.0897090">
    <ele>32.3</ele>
    <time>2024-01-22T17:38:46Z</time>
   </trkpt>
   <trkpt lat="51.5717340" lon="-0.0896830">
    <ele>32.3</ele>
    <time>2024-01-22T17:38:51Z</time>
   </trkpt>
   <trkpt lat="51.5717400" lon="-0.0897020">
    <ele>32.3</ele>
    <time>2024-01-22T17:38:57Z</time>
   </trkpt>
   <trkpt lat="51.5717050" lon="-0.0897000">
    <ele>32.3</ele>
    <time>2024-01-22T17:39:03Z</time>
   </trkpt>
   <trkpt lat="51.5717340" lon="-0.0897060">
    <ele>32.3</ele>
    <time>2024-01-22T17:39:09Z</time>
   </trkpt>
   <trkpt lat="51.5717450" lon="-0.0897410">
    <ele>32.3</ele>
    <time>2024-01-22T17:39:15Z</time>
   </trkpt>
   <trkpt lat="51.5717250" lon="-0.0897140">
    <ele>32.3</ele>
    <time>2024-01-22T17:39:21Z</time>
   </trkpt>
   <trkpt lat="51.5717190" lon="-0.0896930">
    <ele>32.3</ele>
    <time>2024-01-22T17:39:27Z</time>
   </trkpt>
   <trkpt lat="51.5717190" lon="-0.0897040">
    <ele>32.3</ele>
    <time>2024-01-22T17:39:33Z</time>
   </trkpt>
   <trkpt lat="51.5717430" lon="-0.0897420">
    <ele>32.3</ele>
    <time>2024-01-22T17:39:39Z</time>
   </trkpt>
   <trkpt lat="51.5717450" lon="-0.0897480">
    <ele>32.3</ele>
    <time>2024-01-22T17:39:45Z</time>
   </trkpt>
   <trkpt lat="51.5717090" lon="-0.0897200">
    <ele>32.3</ele>
    <time>2024-01-22T17:39:51Z</time>
   </trkpt>
   <trkpt lat="51.5717210" lon="-0.0897100">
    <ele>32.3</ele>
    <time>2024-01-22T17:39:57Z</time>
   </trkpt>
   <trkpt lat="51.5717240" lon="-0.0897140">
    <ele>32.3</ele>
    <time>2024-01-22T17:40:03Z</time>
   </trkpt>
   <trkpt lat="51.5716470" lon="-0.0897100">
    <ele>32.3</ele>
    <time>2024-01-22T17:40:09Z</time>
   </trkpt>
   <trkpt lat="51.5717150" lon="-0.0897130">
    <ele>32.3</ele>
    <time>2024-01-22T17:40:15Z</time>
   </trkpt>
   <trkpt lat="51.5717360" lon="-0.0896800">
    <ele>32.3</ele>
    <time>2024-01-22T17:40:21Z</time>
   </trkpt>
   <trkpt lat="51.5717400" lon="-0.0896810">
    <ele>32.3</ele>
    <time>2024-01-22T17:40:27Z</time>
   </trkpt>
   <trkpt lat="51.5717330" lon="-0.0896800">
    <ele>32.3</ele>
    <time>2024-01-22T17:40:33Z</time>
   </trkpt>
   <trkpt lat="51.5717030" lon="-0.0896960">
    <ele>32.3</ele>
    <time>2024-01-22T17:40:39Z</time>
   </trkpt>
   <trkpt lat="51.5717170" lon="-0.0897080">
    <ele>32.3</ele>
    <time>2024-01-22T17:40:45Z</time>
   </trkpt>
   <trkpt lat="51.5717700" lon="-0.0897480">
    <ele>32.3</ele>
    <time>2024-01-22T17:40:51Z</time>
   </trkpt>
   <trkpt lat="51.5717320" lon="-0.0897160">
    <ele>32.3</ele>
    <time>2024-01-22T17:40:57Z</time>
   </trkpt>
   <trkpt lat="51.5717190" lon="-0.0897030">
    <ele>32.3</ele>
    <time>2024-01-22T17:41:03Z</time>
   </trkpt>
   <trkpt lat="51.5717220" lon="-0.0897070">
    <ele>32.3</ele>
    <time>2024-01-22T17:41:09Z</time>
   </trkpt>
   <trkpt lat="51.5717250" lon="-0.0897080">
    <ele>32.3</ele>
    <time>2024-01-22T17:41:10Z</time>
   </trkpt>
   <trkpt lat="51.5717240" lon="-0.0897080">
    <ele>32.3</ele>
    <time>2024-01-22T17:41:15Z</time>
   </trkpt>
   <trkpt lat="51.5717250" lon="-0.0897090">
    <ele>32.3</ele>
    <time>2024-01-22T17:41:20Z</time>
   </trkpt>
   <trkpt lat="51.5717230" lon="-0.0897100">
    <ele>32.3</ele>
    <time>2024-01-22T17:41:26Z</time>
   </trkpt>
   <trkpt lat="51.5717130" lon="-0.0897690">
    <ele>32.3</ele>
    <time>2024-01-22T17:41:32Z</time>
   </trkpt>
   <trkpt lat="51.5717500" lon="-0.0896750">
    <ele>32.3</ele>
    <time>2024-01-22T17:41:38Z</time>
   </trkpt>
   <trkpt lat="51.5717190" lon="-0.0896520">
    <ele>32.3</ele>
    <time>2024-01-22T17:41:44Z</time>
   </trkpt>
   <trkpt lat="51.5716660" lon="-0.0896120">
    <ele>32.3</ele>
    <time>2024-01-22T17:41:50Z</time>
   </trkpt>
   <trkpt lat="51.5717180" lon="-0.0897000">
    <ele>32.3</ele>
    <time>2024-01-22T17:41:56Z</time>
   </trkpt>
   <trkpt lat="51.5717230" lon="-0.0897060">
    <ele>32.3</ele>
    <time>2024-01-22T17:41:57Z</time>
   </trkpt>
   <trkpt lat="51.5717020" lon="-0.0896880">
    <ele>32.3</ele>
    <time>2024-01-22T17:42:02Z</time>
   </trkpt>
   <trkpt lat="51.5717210" lon="-0.0897060">
    <ele>32.3</ele>
    <time>2024-01-22T17:42:08Z</time>
   </trkpt>
   <trkpt lat="51.5717450" lon="-0.0897400">
    <ele>32.3</ele>
    <time>2024-01-22T17:42:14Z</time>
   </trkpt>
   <trkpt lat="51.5717080" lon="-0.0896980">
    <ele>32.3</ele>
    <time>2024-01-22T17:42:20Z</time>
   </trkpt>
   <trkpt lat="51.5716810" lon="-0.0897040">
    <ele>32.3</ele>
    <time>2024-01-22T17:42:26Z</time>
   </trkpt>
   <trkpt lat="51.5717290" lon="-0.0896840">
    <ele>32.3</ele>
    <time>2024-01-22T17:42:32Z</time>
   </trkpt>
   <trkpt lat="51.5717160" lon="-0.0896570">
    <ele>32.3</ele>
    <time>2024-01-22T17:42:38Z</time>
   </trkpt>
   <trkpt lat="51.5717310" lon="-0.0896760">
    <ele>32.3</ele>
    <time>2024-01-22T17:42:44Z</time>
   </trkpt>
   <trkpt lat="51.5717320" lon="-0.0896790">
    <ele>32.3</ele>
    <time>2024-01-22T17:42:50Z</time>
   </trkpt>
   <trkpt lat="51.5717180" lon="-0.0896910">
    <ele>32.3</ele>
    <time>2024-01-22T17:42:56Z</time>
   </trkpt>
   <trkpt lat="51.5717300" lon="-0.0896810">
    <ele>32.3</ele>
    <time>2024-01-22T17:43:02Z</time>
   </trkpt>
   <trkpt lat="51.5717250" lon="-0.0897060">
    <ele>32.3</ele>
    <time>2024-01-22T17:43:08Z</time>
   </trkpt>
   <trkpt lat="51.5716850" lon="-0.0897290">
    <ele>32.3</ele>
    <time>2024-01-22T17:43:14Z</time>
   </trkpt>
   <trkpt lat="51.5717180" lon="-0.0897140">
    <ele>32.3</ele>
    <time>2024-01-22T17:43:20Z</time>
   </trkpt>
   <trkpt lat="51.5717050" lon="-0.0896980">
    <ele>32.3</ele>
    <time>2024-01-22T17:43:26Z</time>
   </trkpt>
   <trkpt lat="51.5717220" lon="-0.0897090">
    <ele>32.3</ele>
    <time>2024-01-22T17:43:32Z</time>
   </trkpt>
   <trkpt lat="51.5717480" lon="-0.0897380">
    <ele>32.3</ele>
    <time>2024-01-22T17:43:38Z</time>
   </trkpt>
   <trkpt lat="51.5718030" lon="-0.0897120">
    <ele>32.3</ele>
    <time>2024-01-22T17:43:44Z</time>
   </trkpt>
   <trkpt lat="51.5717300" lon="-0.0897050">
    <ele>32.3</ele>
    <time>2024-01-22T17:43:50Z</time>
   </trkpt>
   <trkpt lat="51.5716870" lon="-0.0897170">
    <ele>32.3</ele>
    <time>2024-01-22T17:43:56Z</time>
   </trkpt>
   <trkpt lat="51.5717560" lon="-0.0897120">
    <ele>32.3</ele>
    <time>2024-01-22T17:44:02Z</time>
   </trkpt>
   <trkpt lat="51.5716600" lon="-0.0899740">
    <ele>32.3</ele>
    <time>2024-01-22T17:44:21Z</time>
   </trkpt>
   <trkpt lat="51.5717270" lon="-0.0897630">
    <ele>32.3</ele>
    <time>2024-01-22T17:44:27Z</time>
   </trkpt>
   <trkpt lat="51.5717200" lon="-0.0895950">
    <ele>32.3</ele>
    <time>2024-01-22T17:44:33Z</time>
   </trkpt>
   <trkpt lat="51.5717350" lon="-0.0897290">
    <ele>32.3</ele>
    <time>2024-01-22T17:44:39Z</time>
   </trkpt>
   <trkpt lat="51.5717340" lon="-0.0896860">
    <ele>32.3</ele>
    <time>2024-01-22T17:44:45Z</time>
   </trkpt>
   <trkpt lat="51.5717300" lon="-0.0897250">
    <ele>32.3</ele>
    <time>2024-01-22T17:44:51Z</time>
   </trkpt>
   <trkpt lat="51.5717200" lon="-0.0896290">
    <ele>32.3</ele>
    <time>2024-01-22T17:44:57Z</time>
   </trkpt>
   <trkpt lat="51.5717200" lon="-0.0896870">
    <ele>32.3</ele>
    <time>2024-01-22T17:45:03Z</time>
   </trkpt>
   <trkpt lat="51.5717370" lon="-0.0898020">
    <ele>32.3</ele>
    <time>2024-01-22T17:45:09Z</time>
   </trkpt>
   <trkpt lat="51.5717640" lon="-0.0897690">
    <ele>32.3</ele>
    <time>2024-01-22T17:45:15Z</time>
   </trkpt>
   <trkpt lat="51.5717090" lon="-0.0896990">
    <ele>32.3</ele>
    <time>2024-01-22T17:45:21Z</time>
   </trkpt>
   <trkpt lat="51.5717910" lon="-0.0896690">
    <ele>32.3</ele>
    <time>2024-01-22T17:45:27Z</time>
   </trkpt>
   <trkpt lat="51.5718280" lon="-0.0896970">
    <ele>32.3</ele>
    <time>2024-01-22T17:45:33Z</time>
   </trkpt>
   <trkpt lat="51.5716790" lon="-0.0897210">
    <ele>32.3</ele>
    <time>2024-01-22T17:45:39Z</time>
   </trkpt>
   <trkpt lat="51.5716770" lon="-0.0897080">
    <ele>32.3</ele>
    <time>2024-01-22T17:45:45Z</time>
   </trkpt>
   <trkpt lat="51.5717430" lon="-0.0897400">
    <ele>32.3</ele>
    <time>2024-01-22T17:45:51Z</time>
   </trkpt>
   <trkpt lat="51.5717310" lon="-0.0897170">
    <ele>32.3</ele>
    <time>2024-01-22T17:45:57Z</time>
   </trkpt>
   <trkpt lat="51.5717230" lon="-0.0897090">
    <ele>32.3</ele>
    <time>2024-01-22T17:46:03Z</time>
   </trkpt>
   <trkpt lat="51.5717400" lon="-0.0896360">
    <ele>32.3</ele>
    <time>2024-01-22T17:46:09Z</time>
   </trkpt>
   <trkpt lat="51.5717350" lon="-0.0896700">
    <ele>32.3</ele>
    <time>2024-01-22T17:46:15Z</time>
   </trkpt>
   <trkpt lat="51.5717190" lon="-0.0896980">
    <ele>32.3</ele>
    <time>2024-01-22T17:46:21Z</time>
   </trkpt>
   <trkpt lat="51.5717270" lon="-0.0896780">
    <ele>32.3</ele>
    <time>2024-01-22T17:46:33Z</time>
   </trkpt>
   <trkpt lat="51.5717470" lon="-0.0897340">
    <ele>32.3</ele>
    <time>2024-01-22T17:46:39Z</time>
   </trkpt>
   <trkpt lat="51.5717350" lon="-0.0896870">
    <ele>32.3</ele>
    <time>2024-01-22T17:46:45Z</time>
   </trkpt>
   <trkpt lat="51.5717040" lon="-0.0896870">
    <ele>32.3</ele>
    <time>2024-01-22T17:46:51Z</time>
   </trkpt>
   <trkpt lat="51.5716910" lon="-0.0896800">
    <ele>32.3</ele>
    <time>2024-01-22T17:46:57Z</time>
   </trkpt>
   <trkpt lat="51.5717320" lon="-0.0897380">
    <ele>32.3</ele>
    <time>2024-01-22T17:47:03Z</time>
   </trkpt>
   <trkpt lat="51.5717480" lon="-0.0897460">
    <ele>32.3</ele>
    <time>2024-01-22T17:47:09Z</time>
   </trkpt>
   <trkpt lat="51.5717410" lon="-0.0897120">
    <ele>32.3</ele>
    <time>2024-01-22T17:47:15Z</time>
   </trkpt>
   <trkpt lat="51.5717400" lon="-0.0897080">
    <ele>32.3</ele>
    <time>2024-01-22T17:47:16Z</time>
   </trkpt>
   <trkpt lat="51.5717350" lon="-0.0896830">
    <ele>32.3</ele>
    <time>2024-01-22T17:47:21Z</time>
   </trkpt>
   <trkpt lat="51.5717470" lon="-0.0896930">
    <ele>32.3</ele>
    <time>2024-01-22T17:47:27Z</time>
   </trkpt>
   <trkpt lat="51.5717380" lon="-0.0896840">
    <ele>32.3</ele>
    <time>2024-01-22T17:47:33Z</time>
   </trkpt>
   <trkpt lat="51.5717610" lon="-0.0897080">
    <ele>32.3</ele>
    <time>2024-01-22T17:47:39Z</time>
   </trkpt>
   <trkpt lat="51.5717660" lon="-0.0897090">
    <ele>32.3</ele>
    <time>2024-01-22T17:47:45Z</time>
   </trkpt>
   <trkpt lat="51.5717600" lon="-0.0896690">
    <ele>32.3</ele>
    <time>2024-01-22T17:47:51Z</time>
   </trkpt>
   <trkpt lat="51.5717240" lon="-0.0897000">
    <ele>32.3</ele>
    <time>2024-01-22T17:47:57Z</time>
   </trkpt>
   <trkpt lat="51.5717210" lon="-0.0897060">
    <ele>32.3</ele>
    <time>2024-01-22T17:47:58Z</time>
   </trkpt>
   <trkpt lat="51.5717500" lon="-0.0896730">
    <ele>32.3</ele>
    <time>2024-01-22T17:48:03Z</time>
   </trkpt>
   <trkpt lat="51.5718120" lon="-0.0896690">
    <ele>32.3</ele>
    <time>2024-01-22T17:48:09Z</time>
   </trkpt>
   <trkpt lat="51.5717400" lon="-0.0896780">
    <ele>32.3</ele>
    <time>2024-01-22T17:48:15Z</time>
   </trkpt>
   <trkpt lat="51.5717240" lon="-0.0897280">
    <ele>32.3</ele>
    <time>2024-01-22T17:48:21Z</time>
   </trkpt>
   <trkpt lat="51.5717400" lon="-0.0897990">
    <ele>32.3</ele>
    <time>2024-01-22T17:48:27Z</time>
   </trkpt>
   <trkpt lat="51.5717180" lon="-0.0896730">
    <ele>32.3</ele>
    <time>2024-01-22T17:48:33Z</time>
   </trkpt>
   <trkpt lat="51.5716330" lon="-0.0896760">
    <ele>32.3</ele>
    <time>2024-01-22T17:48:39Z</time>
   </trkpt>
   <trkpt lat="51.5717080" lon="-0.0896940">
    <ele>32.3</ele>
    <time>2024-01-22T17:48:45Z</time>
   </trkpt>
   <trkpt lat="51.5717650" lon="-0.0897100">
    <ele>32.3</ele>
    <time>2024-01-22T17:48:51Z</time>
   </trkpt>
   <trkpt lat="51.5717480" lon="-0.0896380">
    <ele>32.3</ele>
    <time>2024-01-22T17:48:57Z</time>
   </trkpt>
   <trkpt lat="51.5717200" lon="-0.0896980">
    <ele>32.3</ele>
    <time>2024-01-22T17:49:03Z</time>
   </trkpt>
   <trkpt lat="51.5717960" lon="-0.0897120">
    <ele>32.3</ele>
    <time>2024-01-22T17:49:09Z</time>
   </trkpt>
   <trkpt lat="51.5717580" lon="-0.0897370">
    <ele>32.3</ele>
    <time>2024-01-22T17:49:15Z</time>
   </trkpt>
   <trkpt lat="51.5717420" lon="-0.0897150">
    <ele>32.3</ele>
    <time>2024-01-22T17:49:21Z</time>
   </trkpt>
   <trkpt lat="51.5717350" lon="-0.0896820">
    <ele>32.3</ele>
    <time>2024-01-22T17:49:27Z</time>
   </trkpt>
   <trkpt lat="51.5717350" lon="-0.0897330">
    <ele>32.3</ele>
    <time>2024-01-22T17:49:33Z</time>
   </trkpt>
   <trkpt lat="51.5716990" lon="-0.0897160">
    <ele>32.3</ele>
    <time>2024-01-22T17:49:39Z</time>
   </trkpt>
   <trkpt lat="51.5717210" lon="-0.0897090">
    <ele>32.3</ele>
    <time>2024-01-22T17:49:45Z</time>
   </trkpt>
   <trkpt lat="51.5716890" lon="-0.0897180">
    <ele>32.3</ele>
    <time>2024-01-22T17:49:51Z</time>
   </trkpt>
   <trkpt lat="51.5717260" lon="-0.0896790">
    <ele>32.3</ele>
    <time>2024-01-22T17:49:57Z</time>
   </trkpt>
   <trkpt lat="51.5717290" lon="-0.0896790">
    <ele>32.3</ele>
    <time>2024-01-22T17:50:03Z</time>
   </trkpt>
   <trkpt lat="51.5717480" lon="-0.0896940">
    <ele>32.3</ele>
    <time>2024-01-22T17:50:08Z</time>
   </trkpt>
   <trkpt lat="51.5717180" lon="-0.0896610">
    <ele>32.3</ele>
    <time>2024-01-22T17:50:14Z</time>
   </trkpt>
   <trkpt lat="51.5717280" lon="-0.0897330">
    <ele>32.3</ele>
    <time>2024-01-22T17:50:20Z</time>
   </trkpt>
   <trkpt lat="51.5717180" lon="-0.0896730">
    <ele>32.3</ele>
    <time>2024-01-22T17:50:26Z</time>
   </trkpt>
   <trkpt lat="51.5717340" lon="-0.0896760">
    <ele>32.3</ele>
    <time>2024-01-22T17:50:32Z</time>
   </trkpt>
   <trkpt lat="51.5717320" lon="-0.0897280">
    <ele>32.3</ele>
    <time>2024-01-22T17:50:38Z</time>
   </trkpt>
   <trkpt lat="51.5717370" lon="-0.0897100">
    <ele>32.3</ele>
    <time>2024-01-22T17:50:44Z</time>
   </trkpt>
   <trkpt lat="51.5717050" lon="-0.0897230">
    <ele>32.3</ele>
    <time>2024-01-22T17:50:50Z</time>
   </trkpt>
   <trkpt lat="51.5717330" lon="-0.0896850">
    <ele>32.3</ele>
    <time>2024-01-22T17:50:56Z</time>
   </trkpt>
   <trkpt lat="51.5717120" lon="-0.0897680">
    <ele>32.3</ele>
    <time>2024-01-22T17:51:02Z</time>
   </trkpt>
   <trkpt lat="51.5717390" lon="-0.0896470">
    <ele>32.3</ele>
    <time>2024-01-22T17:51:08Z</time>
   </trkpt>
   <trkpt lat="51.5717290" lon="-0.0897150">
    <ele>32.3</ele>
    <time>2024-01-22T17:51:14Z</time>
   </trkpt>
   <trkpt lat="51.5717600" lon="-0.0897150">
    <ele>32.3</ele>
    <time>2024-01-22T17:51:20Z</time>
   </trkpt>
   <trkpt lat="51.5716650" lon="-0.0897890">
    <ele>32.3</ele>
    <time>2024-01-22T17:51:26Z</time>
   </trkpt>
   <trkpt lat="51.5716250" lon="-0.0897760">
    <ele>32.3</ele>
    <time>2024-01-22T17:51:32Z</time>
   </trkpt>
   <trkpt lat="51.5716500" lon="-0.0897830">
    <ele>32.3</ele>
    <time>2024-01-22T17:51:38Z</time>
   </trkpt>
   <trkpt lat="51.5717400" lon="-0.0897480">
    <ele>32.3</ele>
    <time>2024-01-22T17:51:44Z</time>
   </trkpt>
   <trkpt lat="51.5717650" lon="-0.0896740">
    <ele>32.3</ele>
    <time>2024-01-22T17:51:50Z</time>
   </trkpt>
   <trkpt lat="51.5717490" lon="-0.0897320">
    <ele>32.3</ele>
    <time>2024-01-22T17:51:56Z</time>
   </trkpt>
   <trkpt lat="51.5717180" lon="-0.0896710">
    <ele>32.3</ele>
    <time>2024-01-22T17:52:02Z</time>
   </trkpt>
   <trkpt lat="51.5717230" lon="-0.0897030">
    <ele>32.3</ele>
    <time>2024-01-22T17:52:08Z</time>
   </trkpt>
   <trkpt lat="51.5716970" lon="-0.0896860">
    <ele>32.3</ele>
    <time>2024-01-22T17:52:14Z</time>
   </trkpt>
   <trkpt lat="51.5717570" lon="-0.0897470">
    <ele>32.3</ele>
    <time>2024-01-22T17:52:20Z</time>
   </trkpt>
   <trkpt lat="51.5717650" lon="-0.0897170">
    <ele>32.3</ele>
    <time>2024-01-22T17:52:26Z</time>
   </trkpt>
   <trkpt lat="51.5717640" lon="-0.0897070">
    <ele>32.3</ele>
    <time>2024-01-22T17:52:32Z</time>
   </trkpt>
   <trkpt lat="51.5717130" lon="-0.0896590">
    <ele>32.3</ele>
    <time>2024-01-22T17:52:38Z</time>
   </trkpt>
   <trkpt lat="51.5717220" lon="-0.0897070">
    <ele>32.3</ele>
    <time>2024-01-22T17:52:44Z</time>
   </trkpt>
   <trkpt lat="51.5717580" lon="-0.0896770">
    <ele>32.3</ele>
    <time>2024-01-22T17:52:50Z</time>
   </trkpt>
   <trkpt lat="51.5717440" lon="-0.0897020">
    <ele>32.3</ele>
    <time>2024-01-22T17:52:56Z</time>
   </trkpt>
   <trkpt lat="51.5718000" lon="-0.0897080">
    <ele>32.3</ele>
    <time>2024-01-22T17:53:02Z</time>
   </trkpt>
   <trkpt lat="51.5718110" lon="-0.0897070">
    <ele>32.3</ele>
    <time>2024-01-22T17:53:08Z</time>
   </trkpt>
   <trkpt lat="51.5718090" lon="-0.0897070">
    <ele>32.3</ele>
    <time>2024-01-22T17:53:09Z</time>
   </trkpt>
   <trkpt lat="51.5717450" lon="-0.0897000">
    <ele>32.3</ele>
    <time>2024-01-22T17:53:14Z</time>
   </trkpt>
   <trkpt lat="51.5717590" lon="-0.0897080">
    <ele>32.3</ele>
    <time>2024-01-22T17:53:20Z</time>
   </trkpt>
   <trkpt lat="51.5717660" lon="-0.0897090">
    <ele>32.3</ele>
    <time>2024-01-22T17:53:21Z</time>
   </trkpt>
   <trkpt lat="51.5717080" lon="-0.0897300">
    <ele>32.3</ele>
    <time>2024-01-22T17:53:26Z</time>
   </trkpt>
   <trkpt lat="51.5717930" lon="-0.0897100">
    <ele>32.3</ele>
    <time>2024-01-22T17:53:32Z</time>
   </trkpt>
   <trkpt lat="51.5717270" lon="-0.0896630">
    <ele>32.3</ele>
    <time>2024-01-22T17:53:38Z</time>
   </trkpt>
   <trkpt lat="51.5716470" lon="-0.0896020">
    <ele>32.3</ele>
    <time>2024-01-22T17:53:44Z</time>
   </trkpt>
   <trkpt lat="51.5717630" lon="-0.0897360">
    <ele>32.3</ele>
    <time>2024-01-22T17:53:50Z</time>
   </trkpt>
   <trkpt lat="51.5717440" lon="-0.0896670">
    <ele>32.3</ele>
    <time>2024-01-22T17:53:56Z</time>
   </trkpt>
   <trkpt lat="51.5717310" lon="-0.0896930">
    <ele>32.3</ele>
    <time>2024-01-22T17:54:02Z</time>
   </trkpt>
   <trkpt lat="51.5717340" lon="-0.0896990">
    <ele>32.3</ele>
    <time>2024-01-22T17:54:08Z</time>
   </trkpt>
   <trkpt lat="51.5717270" lon="-0.0897040">
    <ele>32.3</ele>
    <time>2024-01-22T17:54:14Z</time>
   </trkpt>
   <trkpt lat="51.5717500" lon="-0.0897080">
    <ele>32.3</ele>
    <time>2024-01-22T17:54:20Z</time>
   </trkpt>
   <trkpt lat="51.5717440" lon="-0.0897050">
    <ele>32.3</ele>
    <time>2024-01-22T17:54:26Z</time>
   </trkpt>
   <trkpt lat="51.5717290" lon="-0.0897040">
    <ele>32.3</ele>
    <time>2024-01-22T17:54:32Z</time>
   </trkpt>
   <trkpt lat="51.5717230" lon="-0.0897060">
    <ele>32.3</ele>
    <time>2024-01-22T17:54:38Z</time>
   </trkpt>
   <trkpt lat="51.5717210" lon="-0.0897060">
    <ele>32.3</ele>
    <time>2024-01-22T17:54:44Z</time>
   </trkpt>
   <trkpt lat="51.5717190" lon="-0.0897070">
    <ele>32.3</ele>
    <time>2024-01-22T17:54:51Z</time>
   </trkpt>
   <trkpt lat="51.5716970" lon="-0.0897130">
    <ele>32.3</ele>
    <time>2024-01-22T17:54:57Z</time>
   </trkpt>
   <trkpt lat="51.5717220" lon="-0.0897050">
    <ele>32.3</ele>
    <time>2024-01-22T17:55:03Z</time>
   </trkpt>
   <trkpt lat="51.5717710" lon="-0.0897050">
    <ele>32.3</ele>
    <time>2024-01-22T17:55:09Z</time>
   </trkpt>
   <trkpt lat="51.5717450" lon="-0.0896880">
    <ele>32.3</ele>
    <time>2024-01-22T17:55:15Z</time>
   </trkpt>
   <trkpt lat="51.5717560" lon="-0.0897020">
    <ele>32.3</ele>
    <time>2024-01-22T17:55:21Z</time>
   </trkpt>
   <trkpt lat="51.5717130" lon="-0.0897120">
    <ele>32.3</ele>
    <time>2024-01-22T17:55:27Z</time>
   </trkpt>
   <trkpt lat="51.5717190" lon="-0.0896820">
    <ele>32.3</ele>
    <time>2024-01-22T17:55:39Z</time>
   </trkpt>
   <trkpt lat="51.5717570" lon="-0.0896710">
    <ele>32.3</ele>
    <time>2024-01-22T17:55:45Z</time>
   </trkpt>
  </trkseg>
 </trk>
</gpx>
