<?xml version="1.0" encoding="UTF-8"?>
<gpx creator="StravaGPX" version="1.1" xmlns="http://www.topografix.com/GPX/1/1" xmlns:xsi="http://www.w3.org/2001/XMLSchema-instance" xsi:schemaLocation="http://www.topografix.com/GPX/1/1 http://www.topografix.com/GPX/1/1/gpx.xsd">
 <metadata>
  <time>2019-09-15T18:35:02Z</time>
 </metadata>
 <trk>
  <name>Evening Run</name>
  <type>running</type>
  <trkseg>
   <trkpt lat="51.4972420" lon="-0.1078170">
    <ele>4.1</ele>
    <time>2019-09-15T18:35:02Z</time>
   </trkpt>
   <trkpt lat="51.4974660" lon="-0.1076600">
    <ele>4.1</ele>
    <time>2019-09-15T18:35:20Z</time>
   </trkpt>
   <trkpt lat="51.4974830" lon="-0.1075960">
    <ele>4.1</ele>
    <time>2019-09-15T18:35:22Z</time>
   </trkpt>
   <trkpt lat="51.4974910" lon="-0.1075300">
    <ele>4.1</ele>
    <time>2019-09-15T18:35:24Z</time>
   </trkpt>
   <trkpt lat="51.4975050" lon="-0.1074800">
    <ele>4.3</ele>
    <time>2019-09-15T18:35:26Z</time>
   </trkpt>
   <trkpt lat="51.4975190" lon="-0.1074310">
    <ele>4.2</ele>
    <time>2019-09-15T18:35:28Z</time>
   </trkpt>
   <trkpt lat="51.4975430" lon="-0.1073810">
    <ele>4.2</ele>
    <time>2019-09-15T18:35:31Z</time>
   </trkpt>
   <trkpt lat="51.4975500" lon="-0.1073390">
    <ele>4.2</ele>
    <time>2019-09-15T18:35:33Z</time>
   </trkpt>
   <trkpt lat="51.4975560" lon="-0.1072960">
    <ele>4.2</ele>
    <time>2019-09-15T18:35:35Z</time>
   </trkpt>
   <trkpt lat="51.4975650" lon="-0.1072520">
    <ele>4.2</ele>
    <time>2019-09-15T18:35:37Z</time>
   </trkpt>
   <trkpt lat="51.4975860" lon="-0.1071850">
    <ele>4.2</ele>
    <time>2019-09-15T18:35:39Z</time>
   </trkpt>
   <trkpt lat="51.4976000" lon="-0.1071150">
    <ele>4.1</ele>
    <time>2019-09-15T18:35:41Z</time>
   </trkpt>
   <trkpt lat="51.4976120" lon="-0.1070660">
    <ele>4.1</ele>
    <time>2019-09-15T18:35:43Z</time>
   </trkpt>
   <trkpt lat="51.4976260" lon="-0.1070200">
    <ele>4.1</ele>
    <time>2019-09-15T18:35:44Z</time>
   </trkpt>
   <trkpt lat="51.4976380" lon="-0.1069730">
    <ele>4.1</ele>
    <time>2019-09-15T18:35:46Z</time>
   </trkpt>
   <trkpt lat="51.4976350" lon="-0.1069210">
    <ele>4.1</ele>
    <time>2019-09-15T18:35:48Z</time>
   </trkpt>
   <trkpt lat="51.4976470" lon="-0.1068680">
    <ele>4.1</ele>
    <time>2019-09-15T18:35:50Z</time>
   </trkpt>
   <trkpt lat="51.4976630" lon="-0.1068250">
    <ele>4.1</ele>
    <time>2019-09-15T18:35:53Z</time>
   </trkpt>
   <trkpt lat="51.4976850" lon="-0.1067740">
    <ele>4.0</ele>
    <time>2019-09-15T18:35:56Z</time>
   </trkpt>
   <trkpt lat="51.4976970" lon="-0.1067290">
    <ele>4.0</ele>
    <time>2019-09-15T18:35:59Z</time>
   </trkpt>
   <trkpt lat="51.4977130" lon="-0.1066750">
    <ele>3.9</ele>
    <time>2019-09-15T18:36:02Z</time>
   </trkpt>
   <trkpt lat="51.4977300" lon="-0.1066350">
    <ele>3.9</ele>
    <time>2019-09-15T18:36:04Z</time>
   </trkpt>
   <trkpt lat="51.4977590" lon="-0.1065740">
    <ele>3.7</ele>
    <time>2019-09-15T18:36:06Z</time>
   </trkpt>
   <trkpt lat="51.4977870" lon="-0.1064670">
    <ele>3.4</ele>
    <time>2019-09-15T18:36:08Z</time>
   </trkpt>
   <trkpt lat="51.4978000" lon="-0.1064060">
    <ele>3.3</ele>
    <time>2019-09-15T18:36:09Z</time>
   </trkpt>
   <trkpt lat="51.4978100" lon="-0.1063580">
    <ele>3.2</ele>
    <time>2019-09-15T18:36:10Z</time>
   </trkpt>
   <trkpt lat="51.4978300" lon="-0.1063090">
    <ele>3.1</ele>
    <time>2019-09-15T18:36:11Z</time>
   </trkpt>
   <trkpt lat="51.4978580" lon="-0.1062400">
    <ele>3.0</ele>
    <time>2019-09-15T18:36:13Z</time>
   </trkpt>
   <trkpt lat="51.4978780" lon="-0.1061950">
    <ele>3.0</ele>
    <time>2019-09-15T18:36:14Z</time>
   </trkpt>
   <trkpt lat="51.4978980" lon="-0.1061620">
    <ele>3.0</ele>
    <time>2019-09-15T18:36:15Z</time>
   </trkpt>
   <trkpt lat="51.4979290" lon="-0.1060990">
    <ele>2.9</ele>
    <time>2019-09-15T18:36:17Z</time>
   </trkpt>
   <trkpt lat="51.4979670" lon="-0.1060400">
    <ele>2.9</ele>
    <time>2019-09-15T18:36:19Z</time>
   </trkpt>
   <trkpt lat="51.4979890" lon="-0.1060060">
    <ele>2.9</ele>
    <time>2019-09-15T18:36:20Z</time>
   </trkpt>
   <trkpt lat="51.4980090" lon="-0.1059740">
    <ele>2.9</ele>
    <time>2019-09-15T18:36:21Z</time>
   </trkpt>
   <trkpt lat="51.4980370" lon="-0.1059140">
    <ele>2.9</ele>
    <time>2019-09-15T18:36:23Z</time>
   </trkpt>
   <trkpt lat="51.4980700" lon="-0.1058530">
    <ele>2.9</ele>
    <time>2019-09-15T18:36:25Z</time>
   </trkpt>
   <trkpt lat="51.4981070" lon="-0.1057950">
    <ele>2.9</ele>
    <time>2019-09-15T18:36:27Z</time>
   </trkpt>
   <trkpt lat="51.4981290" lon="-0.1057350">
    <ele>2.9</ele>
    <time>2019-09-15T18:36:29Z</time>
   </trkpt>
   <trkpt lat="51.4981520" lon="-0.1057040">
    <ele>2.9</ele>
    <time>2019-09-15T18:36:30Z</time>
   </trkpt>
   <trkpt lat="51.4981890" lon="-0.1056480">
    <ele>2.9</ele>
    <time>2019-09-15T18:36:32Z</time>
   </trkpt>
   <trkpt lat="51.4982270" lon="-0.1056030">
    <ele>2.9</ele>
    <time>2019-09-15T18:36:34Z</time>
   </trkpt>
   <trkpt lat="51.4982630" lon="-0.1055610">
    <ele>2.9</ele>
    <time>2019-09-15T18:36:36Z</time>
   </trkpt>
   <trkpt lat="51.4982920" lon="-0.1054920">
    <ele>2.9</ele>
    <time>2019-09-15T18:36:38Z</time>
   </trkpt>
   <trkpt lat="51.4983090" lon="-0.1054550">
    <ele>2.9</ele>
    <time>2019-09-15T18:36:39Z</time>
   </trkpt>
   <trkpt lat="51.4983300" lon="-0.1053960">
    <ele>2.9</ele>
    <time>2019-09-15T18:36:41Z</time>
   </trkpt>
   <trkpt lat="51.4983640" lon="-0.1053510">
    <ele>2.9</ele>
    <time>2019-09-15T18:36:43Z</time>
   </trkpt>
   <trkpt lat="51.4984010" lon="-0.1052990">
    <ele>2.9</ele>
    <time>2019-09-15T18:36:45Z</time>
   </trkpt>
   <trkpt lat="51.4984220" lon="-0.1052600">
    <ele>2.9</ele>
    <time>2019-09-15T18:36:46Z</time>
   </trkpt>
   <trkpt lat="51.4984610" lon="-0.1052150">
    <ele>3.2</ele>
    <time>2019-09-15T18:36:48Z</time>
   </trkpt>
   <trkpt lat="51.4984970" lon="-0.1051520">
    <ele>3.6</ele>
    <time>2019-09-15T18:36:50Z</time>
   </trkpt>
   <trkpt lat="51.4985180" lon="-0.1051180">
    <ele>3.8</ele>
    <time>2019-09-15T18:36:51Z</time>
   </trkpt>
   <trkpt lat="51.4985490" lon="-0.1050810">
    <ele>4.0</ele>
    <time>2019-09-15T18:36:53Z</time>
   </trkpt>
   <trkpt lat="51.4985710" lon="-0.1050410">
    <ele>4.2</ele>
    <time>2019-09-15T18:36:56Z</time>
   </trkpt>
   <trkpt lat="51.4986020" lon="-0.1050180">
    <ele>4.2</ele>
    <time>2019-09-15T18:36:59Z</time>
   </trkpt>
   <trkpt lat="51.4986390" lon="-0.1050240">
    <ele>4.2</ele>
    <time>2019-09-15T18:37:03Z</time>
   </trkpt>
   <trkpt lat="51.4986670" lon="-0.1050550">
    <ele>4.2</ele>
    <time>2019-09-15T18:37:05Z</time>
   </trkpt>
   <trkpt lat="51.4986980" lon="-0.1051080">
    <ele>4.2</ele>
    <time>2019-09-15T18:37:07Z</time>
   </trkpt>
   <trkpt lat="51.4987430" lon="-0.1050890">
    <ele>4.2</ele>
    <time>2019-09-15T18:37:09Z</time>
   </trkpt>
   <trkpt lat="51.4987720" lon="-0.1050630">
    <ele>4.2</ele>
    <time>2019-09-15T18:37:10Z</time>
   </trkpt>
   <trkpt lat="51.4988180" lon="-0.1050280">
    <ele>4.3</ele>
    <time>2019-09-15T18:37:12Z</time>
   </trkpt>
   <trkpt lat="51.4988440" lon="-0.1050030">
    <ele>4.3</ele>
    <time>2019-09-15T18:37:13Z</time>
   </trkpt>
   <trkpt lat="51.4988920" lon="-0.1049640">
    <ele>4.3</ele>
    <time>2019-09-15T18:37:15Z</time>
   </trkpt>
   <trkpt lat="51.4989370" lon="-0.1049410">
    <ele>4.3</ele>
    <time>2019-09-15T18:37:18Z</time>
   </trkpt>
   <trkpt lat="51.4989730" lon="-0.1049200">
    <ele>4.3</ele>
    <time>2019-09-15T18:37:19Z</time>
   </trkpt>
   <trkpt lat="51.4990000" lon="-0.1049080">
    <ele>4.2</ele>
    <time>2019-09-15T18:37:20Z</time>
   </trkpt>
   <trkpt lat="51.4990380" lon="-0.1049120">
    <ele>4.2</ele>
    <time>2019-09-15T18:37:22Z</time>
   </trkpt>
   <trkpt lat="51.4990630" lon="-0.1048840">
    <ele>4.2</ele>
    <time>2019-09-15T18:37:23Z</time>
   </trkpt>
   <trkpt lat="51.4990920" lon="-0.1048240">
    <ele>4.2</ele>
    <time>2019-09-15T18:37:25Z</time>
   </trkpt>
   <trkpt lat="51.4991300" lon="-0.1047870">
    <ele>4.0</ele>
    <time>2019-09-15T18:37:27Z</time>
   </trkpt>
   <trkpt lat="51.4991710" lon="-0.1047600">
    <ele>4.0</ele>
    <time>2019-09-15T18:37:29Z</time>
   </trkpt>
   <trkpt lat="51.4991970" lon="-0.1047420">
    <ele>4.0</ele>
    <time>2019-09-15T18:37:30Z</time>
   </trkpt>
   <trkpt lat="51.4992300" lon="-0.1047030">
    <ele>3.9</ele>
    <time>2019-09-15T18:37:32Z</time>
   </trkpt>
   <trkpt lat="51.4992560" lon="-0.1046680">
    <ele>3.9</ele>
    <time>2019-09-15T18:37:34Z</time>
   </trkpt>
   <trkpt lat="51.4992830" lon="-0.1046230">
    <ele>3.9</ele>
    <time>2019-09-15T18:37:36Z</time>
   </trkpt>
   <trkpt lat="51.4993340" lon="-0.1045790">
    <ele>3.8</ele>
    <time>2019-09-15T18:37:38Z</time>
   </trkpt>
   <trkpt lat="51.4993820" lon="-0.1045380">
    <ele>3.8</ele>
    <time>2019-09-15T18:37:40Z</time>
   </trkpt>
   <trkpt lat="51.4994150" lon="-0.1044960">
    <ele>3.7</ele>
    <time>2019-09-15T18:37:41Z</time>
   </trkpt>
   <trkpt lat="51.4994760" lon="-0.1045020">
    <ele>3.7</ele>
    <time>2019-09-15T18:37:43Z</time>
   </trkpt>
   <trkpt lat="51.4994990" lon="-0.1045300">
    <ele>3.7</ele>
    <time>2019-09-15T18:37:44Z</time>
   </trkpt>
   <trkpt lat="51.4995330" lon="-0.1045430">
    <ele>3.7</ele>
    <time>2019-09-15T18:37:45Z</time>
   </trkpt>
   <trkpt lat="51.4995650" lon="-0.1045590">
    <ele>3.7</ele>
    <time>2019-09-15T18:37:46Z</time>
   </trkpt>
   <trkpt lat="51.4995950" lon="-0.1045600">
    <ele>3.7</ele>
    <time>2019-09-15T18:37:47Z</time>
   </trkpt>
   <trkpt lat="51.4996310" lon="-0.1045350">
    <ele>3.6</ele>
    <time>2019-09-15T18:37:48Z</time>
   </trkpt>
   <trkpt lat="51.4996700" lon="-0.1045110">
    <ele>3.6</ele>
    <time>2019-09-15T18:37:50Z</time>
   </trkpt>
   <trkpt lat="51.4997020" lon="-0.1044920">
    <ele>3.6</ele>
    <time>2019-09-15T18:37:51Z</time>
   </trkpt>
   <trkpt lat="51.4997570" lon="-0.1044900">
    <ele>3.6</ele>
    <time>2019-09-15T18:37:53Z</time>
   </trkpt>
   <trkpt lat="51.4997940" lon="-0.1045050">
    <ele>3.6</ele>
    <time>2019-09-15T18:37:55Z</time>
   </trkpt>
   <trkpt lat="51.4998300" lon="-0.1045200">
    <ele>3.6</ele>
    <time>2019-09-15T18:37:56Z</time>
   </trkpt>
   <trkpt lat="51.4998610" lon="-0.1045200">
    <ele>3.6</ele>
    <time>2019-09-15T18:37:57Z</time>
   </trkpt>
   <trkpt lat="51.4998940" lon="-0.1045450">
    <ele>3.6</ele>
    <time>2019-09-15T18:37:58Z</time>
   </trkpt>
   <trkpt lat="51.4999240" lon="-0.1045630">
    <ele>3.6</ele>
    <time>2019-09-15T18:37:59Z</time>
   </trkpt>
   <trkpt lat="51.4999540" lon="-0.1045840">
    <ele>3.6</ele>
    <time>2019-09-15T18:38:00Z</time>
   </trkpt>
   <trkpt lat="51.4999860" lon="-0.1045970">
    <ele>3.6</ele>
    <time>2019-09-15T18:38:01Z</time>
   </trkpt>
   <trkpt lat="51.5000210" lon="-0.1045930">
    <ele>3.6</ele>
    <time>2019-09-15T18:38:02Z</time>
   </trkpt>
   <trkpt lat="51.5000490" lon="-0.1045860">
    <ele>3.6</ele>
    <time>2019-09-15T18:38:03Z</time>
   </trkpt>
   <trkpt lat="51.5001000" lon="-0.1045790">
    <ele>3.6</ele>
    <time>2019-09-15T18:38:05Z</time>
   </trkpt>
   <trkpt lat="51.5001400" lon="-0.1045600">
    <ele>3.6</ele>
    <time>2019-09-15T18:38:07Z</time>
   </trkpt>
   <trkpt lat="51.5001760" lon="-0.1045740">
    <ele>3.6</ele>
    <time>2019-09-15T18:38:09Z</time>
   </trkpt>
   <trkpt lat="51.5001870" lon="-0.1045340">
    <ele>3.6</ele>
    <time>2019-09-15T18:38:14Z</time>
   </trkpt>
   <trkpt lat="51.5005000" lon="-0.1044730">
    <ele>3.7</ele>
    <time>2019-09-15T18:40:18Z</time>
   </trkpt>
   <trkpt lat="51.5005440" lon="-0.1044820">
    <ele>3.8</ele>
    <time>2019-09-15T18:40:21Z</time>
   </trkpt>
   <trkpt lat="51.5005820" lon="-0.1044860">
    <ele>3.8</ele>
    <time>2019-09-15T18:40:23Z</time>
   </trkpt>
   <trkpt lat="51.5006190" lon="-0.1044520">
    <ele>3.8</ele>
    <time>2019-09-15T18:40:25Z</time>
   </trkpt>
   <trkpt lat="51.5006490" lon="-0.1044340">
    <ele>3.8</ele>
    <time>2019-09-15T18:40:27Z</time>
   </trkpt>
   <trkpt lat="51.5006850" lon="-0.1044390">
    <ele>3.8</ele>
    <time>2019-09-15T18:40:30Z</time>
   </trkpt>
   <trkpt lat="51.5007140" lon="-0.1044510">
    <ele>3.8</ele>
    <time>2019-09-15T18:40:34Z</time>
   </trkpt>
   <trkpt lat="51.5007450" lon="-0.1044440">
    <ele>3.8</ele>
    <time>2019-09-15T18:40:40Z</time>
   </trkpt>
   <trkpt lat="51.5007720" lon="-0.1044310">
    <ele>3.8</ele>
    <time>2019-09-15T18:40:42Z</time>
   </trkpt>
   <trkpt lat="51.5008160" lon="-0.1044220">
    <ele>3.8</ele>
    <time>2019-09-15T18:40:46Z</time>
   </trkpt>
   <trkpt lat="51.5008540" lon="-0.1043900">
    <ele>3.7</ele>
    <time>2019-09-15T18:40:49Z</time>
   </trkpt>
   <trkpt lat="51.5008890" lon="-0.1043940">
    <ele>3.7</ele>
    <time>2019-09-15T18:40:51Z</time>
   </trkpt>
   <trkpt lat="51.5009190" lon="-0.1044030">
    <ele>3.7</ele>
    <time>2019-09-15T18:40:52Z</time>
   </trkpt>
   <trkpt lat="51.5009620" lon="-0.1044310">
    <ele>3.6</ele>
    <time>2019-09-15T18:40:54Z</time>
   </trkpt>
   <trkpt lat="51.5009920" lon="-0.1044420">
    <ele>3.6</ele>
    <time>2019-09-15T18:40:55Z</time>
   </trkpt>
   <trkpt lat="51.5010230" lon="-0.1044400">
    <ele>3.7</ele>
    <time>2019-09-15T18:40:57Z</time>
   </trkpt>
   <trkpt lat="51.5010610" lon="-0.1044490">
    <ele>3.7</ele>
    <time>2019-09-15T18:40:59Z</time>
   </trkpt>
   <trkpt lat="51.5010980" lon="-0.1044870">
    <ele>3.7</ele>
    <time>2019-09-15T18:41:02Z</time>
   </trkpt>
   <trkpt lat="51.5011370" lon="-0.1045130">
    <ele>3.7</ele>
    <time>2019-09-15T18:41:04Z</time>
   </trkpt>
   <trkpt lat="51.5011810" lon="-0.1045390">
    <ele>3.7</ele>
    <time>2019-09-15T18:41:06Z</time>
   </trkpt>
   <trkpt lat="51.5012110" lon="-0.1045460">
    <ele>3.8</ele>
    <time>2019-09-15T18:41:07Z</time>
   </trkpt>
   <trkpt lat="51.5012490" lon="-0.1045550">
    <ele>3.8</ele>
    <time>2019-09-15T18:41:09Z</time>
   </trkpt>
   <trkpt lat="51.5012860" lon="-0.1045490">
    <ele>3.8</ele>
    <time>2019-09-15T18:41:11Z</time>
   </trkpt>
   <trkpt lat="51.5013230" lon="-0.1045390">
    <ele>3.8</ele>
    <time>2019-09-15T18:41:13Z</time>
   </trkpt>
   <trkpt lat="51.5013560" lon="-0.1045610">
    <ele>3.8</ele>
    <time>2019-09-15T18:41:15Z</time>
   </trkpt>
   <trkpt lat="51.5013890" lon="-0.1045460">
    <ele>3.8</ele>
    <time>2019-09-15T18:41:17Z</time>
   </trkpt>
   <trkpt lat="51.5014160" lon="-0.1045540">
    <ele>3.8</ele>
    <time>2019-09-15T18:41:18Z</time>
   </trkpt>
   <trkpt lat="51.5014570" lon="-0.1045650">
    <ele>3.8</ele>
    <time>2019-09-15T18:41:20Z</time>
   </trkpt>
   <trkpt lat="51.5015010" lon="-0.1045730">
    <ele>3.8</ele>
    <time>2019-09-15T18:41:22Z</time>
   </trkpt>
   <trkpt lat="51.5015290" lon="-0.1046040">
    <ele>3.8</ele>
    <time>2019-09-15T18:41:23Z</time>
   </trkpt>
   <trkpt lat="51.5015470" lon="-0.1046470">
    <ele>3.7</ele>
    <time>2019-09-15T18:41:24Z</time>
   </trkpt>
   <trkpt lat="51.5015750" lon="-0.1046530">
    <ele>3.7</ele>
    <time>2019-09-15T18:41:25Z</time>
   </trkpt>
   <trkpt lat="51.5016130" lon="-0.1046090">
    <ele>3.7</ele>
    <time>2019-09-15T18:41:26Z</time>
   </trkpt>
   <trkpt lat="51.5016460" lon="-0.1045390">
    <ele>3.7</ele>
    <time>2019-09-15T18:41:27Z</time>
   </trkpt>
   <trkpt lat="51.5016720" lon="-0.1044910">
    <ele>3.8</ele>
    <time>2019-09-15T18:41:28Z</time>
   </trkpt>
   <trkpt lat="51.5017110" lon="-0.1044500">
    <ele>3.8</ele>
    <time>2019-09-15T18:41:29Z</time>
   </trkpt>
   <trkpt lat="51.5017600" lon="-0.1044460">
    <ele>3.8</ele>
    <time>2019-09-15T18:41:30Z</time>
   </trkpt>
   <trkpt lat="51.5018120" lon="-0.1044360">
    <ele>3.8</ele>
    <time>2019-09-15T18:41:32Z</time>
   </trkpt>
   <trkpt lat="51.5018560" lon="-0.1044690">
    <ele>3.8</ele>
    <time>2019-09-15T18:41:34Z</time>
   </trkpt>
   <trkpt lat="51.5018980" lon="-0.1044910">
    <ele>3.8</ele>
    <time>2019-09-15T18:41:36Z</time>
   </trkpt>
   <trkpt lat="51.5019400" lon="-0.1044980">
    <ele>3.8</ele>
    <time>2019-09-15T18:41:38Z</time>
   </trkpt>
   <trkpt lat="51.5019760" lon="-0.1045050">
    <ele>3.8</ele>
    <time>2019-09-15T18:41:40Z</time>
   </trkpt>
   <trkpt lat="51.5019970" lon="-0.1045360">
    <ele>3.8</ele>
    <time>2019-09-15T18:41:41Z</time>
   </trkpt>
   <trkpt lat="51.5020210" lon="-0.1044860">
    <ele>3.8</ele>
    <time>2019-09-15T18:41:42Z</time>
   </trkpt>
   <trkpt lat="51.5020490" lon="-0.1044320">
    <ele>3.8</ele>
    <time>2019-09-15T18:41:43Z</time>
   </trkpt>
   <trkpt lat="51.5020780" lon="-0.1043860">
    <ele>3.8</ele>
    <time>2019-09-15T18:41:44Z</time>
   </trkpt>
   <trkpt lat="51.5021070" lon="-0.1043290">
    <ele>3.8</ele>
    <time>2019-09-15T18:41:45Z</time>
   </trkpt>
   <trkpt lat="51.5021340" lon="-0.1043010">
    <ele>3.8</ele>
    <time>2019-09-15T18:41:46Z</time>
   </trkpt>
   <trkpt lat="51.5021730" lon="-0.1042850">
    <ele>3.8</ele>
    <time>2019-09-15T18:41:47Z</time>
   </trkpt>
   <trkpt lat="51.5022150" lon="-0.1042640">
    <ele>3.8</ele>
    <time>2019-09-15T18:41:48Z</time>
   </trkpt>
   <trkpt lat="51.5022460" lon="-0.1042430">
    <ele>3.8</ele>
    <time>2019-09-15T18:41:49Z</time>
   </trkpt>
   <trkpt lat="51.5022730" lon="-0.1042270">
    <ele>3.8</ele>
    <time>2019-09-15T18:41:50Z</time>
   </trkpt>
   <trkpt lat="51.5023000" lon="-0.1042530">
    <ele>3.8</ele>
    <time>2019-09-15T18:41:52Z</time>
   </trkpt>
   <trkpt lat="51.5023320" lon="-0.1043000">
    <ele>3.8</ele>
    <time>2019-09-15T18:41:54Z</time>
   </trkpt>
   <trkpt lat="51.5023530" lon="-0.1043400">
    <ele>3.8</ele>
    <time>2019-09-15T18:41:55Z</time>
   </trkpt>
   <trkpt lat="51.5024030" lon="-0.1043470">
    <ele>3.8</ele>
    <time>2019-09-15T18:41:57Z</time>
   </trkpt>
   <trkpt lat="51.5024320" lon="-0.1043360">
    <ele>3.8</ele>
    <time>2019-09-15T18:41:58Z</time>
   </trkpt>
   <trkpt lat="51.5024620" lon="-0.1043390">
    <ele>3.8</ele>
    <time>2019-09-15T18:41:59Z</time>
   </trkpt>
   <trkpt lat="51.5025110" lon="-0.1042840">
    <ele>3.7</ele>
    <time>2019-09-15T18:42:00Z</time>
   </trkpt>
   <trkpt lat="51.5025570" lon="-0.1043000">
    <ele>3.7</ele>
    <time>2019-09-15T18:42:02Z</time>
   </trkpt>
   <trkpt lat="51.5025840" lon="-0.1043220">
    <ele>3.7</ele>
    <time>2019-09-15T18:42:04Z</time>
   </trkpt>
   <trkpt lat="51.5026010" lon="-0.1043700">
    <ele>3.7</ele>
    <time>2019-09-15T18:42:06Z</time>
   </trkpt>
   <trkpt lat="51.5026260" lon="-0.1043900">
    <ele>3.7</ele>
    <time>2019-09-15T18:42:08Z</time>
   </trkpt>
   <trkpt lat="51.5026510" lon="-0.1044050">
    <ele>3.7</ele>
    <time>2019-09-15T18:42:10Z</time>
   </trkpt>
   <trkpt lat="51.5026850" lon="-0.1044320">
    <ele>3.8</ele>
    <time>2019-09-15T18:42:12Z</time>
   </trkpt>
   <trkpt lat="51.5027290" lon="-0.1044470">
    <ele>3.8</ele>
    <time>2019-09-15T18:42:14Z</time>
   </trkpt>
   <trkpt lat="51.5027810" lon="-0.1044410">
    <ele>3.8</ele>
    <time>2019-09-15T18:42:16Z</time>
   </trkpt>
   <trkpt lat="51.5028080" lon="-0.1044350">
    <ele>3.8</ele>
    <time>2019-09-15T18:42:17Z</time>
   </trkpt>
   <trkpt lat="51.5028360" lon="-0.1044290">
    <ele>3.8</ele>
    <time>2019-09-15T18:42:18Z</time>
   </trkpt>
   <trkpt lat="51.5028770" lon="-0.1044570">
    <ele>3.8</ele>
    <time>2019-09-15T18:42:20Z</time>
   </trkpt>
   <trkpt lat="51.5029090" lon="-0.1044760">
    <ele>3.8</ele>
    <time>2019-09-15T18:42:21Z</time>
   </trkpt>
   <trkpt lat="51.5029390" lon="-0.1044960">
    <ele>3.8</ele>
    <time>2019-09-15T18:42:22Z</time>
   </trkpt>
   <trkpt lat="51.5029650" lon="-0.1045040">
    <ele>3.8</ele>
    <time>2019-09-15T18:42:23Z</time>
   </trkpt>
   <trkpt lat="51.5030160" lon="-0.1044990">
    <ele>3.8</ele>
    <time>2019-09-15T18:42:25Z</time>
   </trkpt>
   <trkpt lat="51.5030450" lon="-0.1044920">
    <ele>3.8</ele>
    <time>2019-09-15T18:42:26Z</time>
   </trkpt>
   <trkpt lat="51.5030720" lon="-0.1044840">
    <ele>3.8</ele>
    <time>2019-09-15T18:42:27Z</time>
   </trkpt>
   <trkpt lat="51.5031280" lon="-0.1044170">
    <ele>3.8</ele>
    <time>2019-09-15T18:42:28Z</time>
   </trkpt>
   <trkpt lat="51.5031730" lon="-0.1043370">
    <ele>3.8</ele>
    <time>2019-09-15T18:42:30Z</time>
   </trkpt>
   <trkpt lat="51.5032130" lon="-0.1043180">
    <ele>3.8</ele>
    <time>2019-09-15T18:42:32Z</time>
   </trkpt>
   <trkpt lat="51.5032430" lon="-0.1043250">
    <ele>3.8</ele>
    <time>2019-09-15T18:42:33Z</time>
   </trkpt>
   <trkpt lat="51.5032950" lon="-0.1042980">
    <ele>3.7</ele>
    <time>2019-09-15T18:42:34Z</time>
   </trkpt>
   <trkpt lat="51.5033400" lon="-0.1042700">
    <ele>3.7</ele>
    <time>2019-09-15T18:42:35Z</time>
   </trkpt>
   <trkpt lat="51.5033710" lon="-0.1042630">
    <ele>3.7</ele>
    <time>2019-09-15T18:42:36Z</time>
   </trkpt>
   <trkpt lat="51.5034080" lon="-0.1042470">
    <ele>3.7</ele>
    <time>2019-09-15T18:42:37Z</time>
   </trkpt>
   <trkpt lat="51.5034400" lon="-0.1042140">
    <ele>3.7</ele>
    <time>2019-09-15T18:42:38Z</time>
   </trkpt>
   <trkpt lat="51.5034760" lon="-0.1041850">
    <ele>3.7</ele>
    <time>2019-09-15T18:42:39Z</time>
   </trkpt>
   <trkpt lat="51.5035100" lon="-0.1041840">
    <ele>3.7</ele>
    <time>2019-09-15T18:42:40Z</time>
   </trkpt>
   <trkpt lat="51.5035430" lon="-0.1041930">
    <ele>3.7</ele>
    <time>2019-09-15T18:42:41Z</time>
   </trkpt>
   <trkpt lat="51.5035710" lon="-0.1042070">
    <ele>3.7</ele>
    <time>2019-09-15T18:42:42Z</time>
   </trkpt>
   <trkpt lat="51.5035940" lon="-0.1042300">
    <ele>3.7</ele>
    <time>2019-09-15T18:42:43Z</time>
   </trkpt>
   <trkpt lat="51.5036210" lon="-0.1042390">
    <ele>3.6</ele>
    <time>2019-09-15T18:42:44Z</time>
   </trkpt>
   <trkpt lat="51.5036500" lon="-0.1042450">
    <ele>3.6</ele>
    <time>2019-09-15T18:42:45Z</time>
   </trkpt>
   <trkpt lat="51.5036910" lon="-0.1042520">
    <ele>3.6</ele>
    <time>2019-09-15T18:42:47Z</time>
   </trkpt>
   <trkpt lat="51.5037280" lon="-0.1042980">
    <ele>3.6</ele>
    <time>2019-09-15T18:42:50Z</time>
   </trkpt>
   <trkpt lat="51.5037590" lon="-0.1043390">
    <ele>3.6</ele>
    <time>2019-09-15T18:42:52Z</time>
   </trkpt>
   <trkpt lat="51.5037870" lon="-0.1043550">
    <ele>3.6</ele>
    <time>2019-09-15T18:42:54Z</time>
   </trkpt>
   <trkpt lat="51.5038190" lon="-0.1043540">
    <ele>3.5</ele>
    <time>2019-09-15T18:42:56Z</time>
   </trkpt>
   <trkpt lat="51.5038530" lon="-0.1043480">
    <ele>3.5</ele>
    <time>2019-09-15T18:42:58Z</time>
   </trkpt>
   <trkpt lat="51.5038980" lon="-0.1043130">
    <ele>3.5</ele>
    <time>2019-09-15T18:43:00Z</time>
   </trkpt>
   <trkpt lat="51.5039330" lon="-0.1043220">
    <ele>3.4</ele>
    <time>2019-09-15T18:43:02Z</time>
   </trkpt>
   <trkpt lat="51.5039660" lon="-0.1043160">
    <ele>3.4</ele>
    <time>2019-09-15T18:43:04Z</time>
   </trkpt>
   <trkpt lat="51.5039980" lon="-0.1043250">
    <ele>3.4</ele>
    <time>2019-09-15T18:43:06Z</time>
   </trkpt>
   <trkpt lat="51.5040390" lon="-0.1043060">
    <ele>3.3</ele>
    <time>2019-09-15T18:43:08Z</time>
   </trkpt>
   <trkpt lat="51.5041390" lon="-0.1042550">
    <ele>3.3</ele>
    <time>2019-09-15T18:43:10Z</time>
   </trkpt>
   <trkpt lat="51.5041860" lon="-0.1042740">
    <ele>3.3</ele>
    <time>2019-09-15T18:43:11Z</time>
   </trkpt>
   <trkpt lat="51.5042410" lon="-0.1043300">
    <ele>3.3</ele>
    <time>2019-09-15T18:43:13Z</time>
   </trkpt>
   <trkpt lat="51.5042660" lon="-0.1043460">
    <ele>3.3</ele>
    <time>2019-09-15T18:43:14Z</time>
   </trkpt>
   <trkpt lat="51.5043050" lon="-0.1043750">
    <ele>3.3</ele>
    <time>2019-09-15T18:43:16Z</time>
   </trkpt>
   <trkpt lat="51.5043470" lon="-0.1043920">
    <ele>3.3</ele>
    <time>2019-09-15T18:43:18Z</time>
   </trkpt>
   <trkpt lat="51.5043760" lon="-0.1044090">
    <ele>3.3</ele>
    <time>2019-09-15T18:43:19Z</time>
   </trkpt>
   <trkpt lat="51.5044190" lon="-0.1044260">
    <ele>3.4</ele>
    <time>2019-09-15T18:43:21Z</time>
   </trkpt>
   <trkpt lat="51.5044540" lon="-0.1044340">
    <ele>3.4</ele>
    <time>2019-09-15T18:43:24Z</time>
   </trkpt>
   <trkpt lat="51.5045070" lon="-0.1044380">
    <ele>3.4</ele>
    <time>2019-09-15T18:43:26Z</time>
   </trkpt>
   <trkpt lat="51.5045490" lon="-0.1044080">
    <ele>3.4</ele>
    <time>2019-09-15T18:43:27Z</time>
   </trkpt>
   <trkpt lat="51.5045950" lon="-0.1043270">
    <ele>3.5</ele>
    <time>2019-09-15T18:43:28Z</time>
   </trkpt>
   <trkpt lat="51.5046410" lon="-0.1043280">
    <ele>3.5</ele>
    <time>2019-09-15T18:43:30Z</time>
   </trkpt>
   <trkpt lat="51.5046880" lon="-0.1043380">
    <ele>3.5</ele>
    <time>2019-09-15T18:43:32Z</time>
   </trkpt>
   <trkpt lat="51.5047320" lon="-0.1043590">
    <ele>3.5</ele>
    <time>2019-09-15T18:43:34Z</time>
   </trkpt>
   <trkpt lat="51.5047750" lon="-0.1043810">
    <ele>3.6</ele>
    <time>2019-09-15T18:43:36Z</time>
   </trkpt>
   <trkpt lat="51.5048030" lon="-0.1044210">
    <ele>3.6</ele>
    <time>2019-09-15T18:43:38Z</time>
   </trkpt>
   <trkpt lat="51.5048390" lon="-0.1044380">
    <ele>3.6</ele>
    <time>2019-09-15T18:43:40Z</time>
   </trkpt>
   <trkpt lat="51.5048890" lon="-0.1044130">
    <ele>3.5</ele>
    <time>2019-09-15T18:43:41Z</time>
   </trkpt>
   <trkpt lat="51.5049430" lon="-0.1043900">
    <ele>3.5</ele>
    <time>2019-09-15T18:43:42Z</time>
   </trkpt>
   <trkpt lat="51.5050010" lon="-0.1043610">
    <ele>3.5</ele>
    <time>2019-09-15T18:43:43Z</time>
   </trkpt>
   <trkpt lat="51.5050420" lon="-0.1043360">
    <ele>3.5</ele>
    <time>2019-09-15T18:43:44Z</time>
   </trkpt>
   <trkpt lat="51.5050900" lon="-0.1042810">
    <ele>3.5</ele>
    <time>2019-09-15T18:43:45Z</time>
   </trkpt>
   <trkpt lat="51.5051330" lon="-0.1042660">
    <ele>3.5</ele>
    <time>2019-09-15T18:43:46Z</time>
   </trkpt>
   <trkpt lat="51.5051790" lon="-0.1042520">
    <ele>3.5</ele>
    <time>2019-09-15T18:43:47Z</time>
   </trkpt>
   <trkpt lat="51.5052180" lon="-0.1042320">
    <ele>3.5</ele>
    <time>2019-09-15T18:43:48Z</time>
   </trkpt>
   <trkpt lat="51.5052690" lon="-0.1042140">
    <ele>3.5</ele>
    <time>2019-09-15T18:43:50Z</time>
   </trkpt>
   <trkpt lat="51.5053170" lon="-0.1041860">
    <ele>3.6</ele>
    <time>2019-09-15T18:43:52Z</time>
   </trkpt>
   <trkpt lat="51.5053610" lon="-0.1041760">
    <ele>3.6</ele>
    <time>2019-09-15T18:43:54Z</time>
   </trkpt>
   <trkpt lat="51.5053990" lon="-0.1041550">
    <ele>3.6</ele>
    <time>2019-09-15T18:43:55Z</time>
   </trkpt>
   <trkpt lat="51.5054400" lon="-0.1041610">
    <ele>3.6</ele>
    <time>2019-09-15T18:43:57Z</time>
   </trkpt>
   <trkpt lat="51.5054770" lon="-0.1041320">
    <ele>3.6</ele>
    <time>2019-09-15T18:43:59Z</time>
   </trkpt>
   <trkpt lat="51.5055190" lon="-0.1041470">
    <ele>3.6</ele>
    <time>2019-09-15T18:44:03Z</time>
   </trkpt>
   <trkpt lat="51.5055500" lon="-0.1041810">
    <ele>3.7</ele>
    <time>2019-09-15T18:44:05Z</time>
   </trkpt>
   <trkpt lat="51.5055820" lon="-0.1042130">
    <ele>3.7</ele>
    <time>2019-09-15T18:44:07Z</time>
   </trkpt>
   <trkpt lat="51.5056130" lon="-0.1042480">
    <ele>3.7</ele>
    <time>2019-09-15T18:44:09Z</time>
   </trkpt>
   <trkpt lat="51.5056400" lon="-0.1042660">
    <ele>3.8</ele>
    <time>2019-09-15T18:44:11Z</time>
   </trkpt>
   <trkpt lat="51.5056840" lon="-0.1043270">
    <ele>3.8</ele>
    <time>2019-09-15T18:44:13Z</time>
   </trkpt>
   <trkpt lat="51.5057020" lon="-0.1043710">
    <ele>3.8</ele>
    <time>2019-09-15T18:44:16Z</time>
   </trkpt>
   <trkpt lat="51.5057440" lon="-0.1044220">
    <ele>3.8</ele>
    <time>2019-09-15T18:44:18Z</time>
   </trkpt>
   <trkpt lat="51.5057730" lon="-0.1044370">
    <ele>3.9</ele>
    <time>2019-09-15T18:44:19Z</time>
   </trkpt>
   <trkpt lat="51.5058330" lon="-0.1043840">
    <ele>3.9</ele>
    <time>2019-09-15T18:44:21Z</time>
   </trkpt>
   <trkpt lat="51.5058710" lon="-0.1043360">
    <ele>3.9</ele>
    <time>2019-09-15T18:44:22Z</time>
   </trkpt>
   <trkpt lat="51.5059040" lon="-0.1043050">
    <ele>3.9</ele>
    <time>2019-09-15T18:44:23Z</time>
   </trkpt>
   <trkpt lat="51.5059320" lon="-0.1043000">
    <ele>3.9</ele>
    <time>2019-09-15T18:44:25Z</time>
   </trkpt>
   <trkpt lat="51.5059610" lon="-0.1043310">
    <ele>3.9</ele>
    <time>2019-09-15T18:44:27Z</time>
   </trkpt>
   <trkpt lat="51.5059900" lon="-0.1043680">
    <ele>3.9</ele>
    <time>2019-09-15T18:44:29Z</time>
   </trkpt>
   <trkpt lat="51.5060180" lon="-0.1043860">
    <ele>3.9</ele>
    <time>2019-09-15T18:44:31Z</time>
   </trkpt>
   <trkpt lat="51.5060630" lon="-0.1043690">
    <ele>3.9</ele>
    <time>2019-09-15T18:44:35Z</time>
   </trkpt>
   <trkpt lat="51.5060960" lon="-0.1044000">
    <ele>3.9</ele>
    <time>2019-09-15T18:44:36Z</time>
   </trkpt>
   <trkpt lat="51.5061290" lon="-0.1044160">
    <ele>4.0</ele>
    <time>2019-09-15T18:44:37Z</time>
   </trkpt>
   <trkpt lat="51.5061710" lon="-0.1044460">
    <ele>4.0</ele>
    <time>2019-09-15T18:44:39Z</time>
   </trkpt>
   <trkpt lat="51.5062160" lon="-0.1044730">
    <ele>4.0</ele>
    <time>2019-09-15T18:44:41Z</time>
   </trkpt>
   <trkpt lat="51.5062540" lon="-0.1044720">
    <ele>4.0</ele>
    <time>2019-09-15T18:44:43Z</time>
   </trkpt>
   <trkpt lat="51.5062970" lon="-0.1044750">
    <ele>4.1</ele>
    <time>2019-09-15T18:44:45Z</time>
   </trkpt>
   <trkpt lat="51.5063310" lon="-0.1044690">
    <ele>4.1</ele>
    <time>2019-09-15T18:44:47Z</time>
   </trkpt>
   <trkpt lat="51.5063710" lon="-0.1045050">
    <ele>4.1</ele>
    <time>2019-09-15T18:44:49Z</time>
   </trkpt>
   <trkpt lat="51.5064090" lon="-0.1045220">
    <ele>4.1</ele>
    <time>2019-09-15T18:44:51Z</time>
   </trkpt>
   <trkpt lat="51.5064470" lon="-0.1045210">
    <ele>4.2</ele>
    <time>2019-09-15T18:44:53Z</time>
   </trkpt>
   <trkpt lat="51.5064950" lon="-0.1045360">
    <ele>4.2</ele>
    <time>2019-09-15T18:44:55Z</time>
   </trkpt>
   <trkpt lat="51.5065250" lon="-0.1045360">
    <ele>4.2</ele>
    <time>2019-09-15T18:44:56Z</time>
   </trkpt>
   <trkpt lat="51.5065720" lon="-0.1045480">
    <ele>4.2</ele>
    <time>2019-09-15T18:44:58Z</time>
   </trkpt>
   <trkpt lat="51.5066010" lon="-0.1045540">
    <ele>4.2</ele>
    <time>2019-09-15T18:45:00Z</time>
   </trkpt>
   <trkpt lat="51.5066340" lon="-0.1045510">
    <ele>4.3</ele>
    <time>2019-09-15T18:45:02Z</time>
   </trkpt>
   <trkpt lat="51.5066600" lon="-0.1045270">
    <ele>4.3</ele>
    <time>2019-09-15T18:45:05Z</time>
   </trkpt>
   <trkpt lat="51.5067010" lon="-0.1044000">
    <ele>4.3</ele>
    <time>2019-09-15T18:45:07Z</time>
   </trkpt>
   <trkpt lat="51.5067300" lon="-0.1043070">
    <ele>4.3</ele>
    <time>2019-09-15T18:45:08Z</time>
   </trkpt>
   <trkpt lat="51.5067360" lon="-0.1042600">
    <ele>4.4</ele>
    <time>2019-09-15T18:45:10Z</time>
   </trkpt>
   <trkpt lat="51.5067740" lon="-0.1042140">
    <ele>4.5</ele>
    <time>2019-09-15T18:45:13Z</time>
   </trkpt>
   <trkpt lat="51.5068230" lon="-0.1041920">
    <ele>4.6</ele>
    <time>2019-09-15T18:45:15Z</time>
   </trkpt>
   <trkpt lat="51.5068610" lon="-0.1041760">
    <ele>4.6</ele>
    <time>2019-09-15T18:45:16Z</time>
   </trkpt>
   <trkpt lat="51.5069050" lon="-0.1041450">
    <ele>4.7</ele>
    <time>2019-09-15T18:45:17Z</time>
   </trkpt>
   <trkpt lat="51.5069420" lon="-0.1041300">
    <ele>4.8</ele>
    <time>2019-09-15T18:45:18Z</time>
   </trkpt>
   <trkpt lat="51.5069800" lon="-0.1041230">
    <ele>4.8</ele>
    <time>2019-09-15T18:45:19Z</time>
   </trkpt>
   <trkpt lat="51.5070380" lon="-0.1041290">
    <ele>4.9</ele>
    <time>2019-09-15T18:45:21Z</time>
   </trkpt>
   <trkpt lat="51.5070680" lon="-0.1041300">
    <ele>5.0</ele>
    <time>2019-09-15T18:45:22Z</time>
   </trkpt>
   <trkpt lat="51.5070970" lon="-0.1041310">
    <ele>5.0</ele>
    <time>2019-09-15T18:45:23Z</time>
   </trkpt>
   <trkpt lat="51.5071320" lon="-0.1041320">
    <ele>5.1</ele>
    <time>2019-09-15T18:45:24Z</time>
   </trkpt>
   <trkpt lat="51.5071700" lon="-0.1041360">
    <ele>5.1</ele>
    <time>2019-09-15T18:45:25Z</time>
   </trkpt>
   <trkpt lat="51.5072070" lon="-0.1041370">
    <ele>5.2</ele>
    <time>2019-09-15T18:45:26Z</time>
   </trkpt>
   <trkpt lat="51.5072410" lon="-0.1041310">
    <ele>5.2</ele>
    <time>2019-09-15T18:45:27Z</time>
   </trkpt>
   <trkpt lat="51.5072740" lon="-0.1041260">
    <ele>5.2</ele>
    <time>2019-09-15T18:45:28Z</time>
   </trkpt>
   <trkpt lat="51.5073050" lon="-0.1041290">
    <ele>5.4</ele>
    <time>2019-09-15T18:45:29Z</time>
   </trkpt>
   <trkpt lat="51.5073350" lon="-0.1041290">
    <ele>5.5</ele>
    <time>2019-09-15T18:45:30Z</time>
   </trkpt>
   <trkpt lat="51.5073850" lon="-0.1041350">
    <ele>5.6</ele>
    <time>2019-09-15T18:45:32Z</time>
   </trkpt>
   <trkpt lat="51.5074330" lon="-0.1041350">
    <ele>5.7</ele>
    <time>2019-09-15T18:45:34Z</time>
   </trkpt>
   <trkpt lat="51.5074870" lon="-0.1041210">
    <ele>5.7</ele>
    <time>2019-09-15T18:45:36Z</time>
   </trkpt>
   <trkpt lat="51.5075170" lon="-0.1041200">
    <ele>5.7</ele>
    <time>2019-09-15T18:45:37Z</time>
   </trkpt>
   <trkpt lat="51.5075440" lon="-0.1041210">
    <ele>5.7</ele>
    <time>2019-09-15T18:45:38Z</time>
   </trkpt>
   <trkpt lat="51.5075710" lon="-0.1041240">
    <ele>5.7</ele>
    <time>2019-09-15T18:45:39Z</time>
   </trkpt>
   <trkpt lat="51.5075990" lon="-0.1041200">
    <ele>5.7</ele>
    <time>2019-09-15T18:45:40Z</time>
   </trkpt>
   <trkpt lat="51.5076260" lon="-0.1041160">
    <ele>5.7</ele>
    <time>2019-09-15T18:45:41Z</time>
   </trkpt>
   <trkpt lat="51.5076680" lon="-0.1041100">
    <ele>5.7</ele>
    <time>2019-09-15T18:45:43Z</time>
   </trkpt>
   <trkpt lat="51.5076980" lon="-0.1041010">
    <ele>5.8</ele>
    <time>2019-09-15T18:45:44Z</time>
   </trkpt>
   <trkpt lat="51.5077350" lon="-0.1040930">
    <ele>5.9</ele>
    <time>2019-09-15T18:45:46Z</time>
   </trkpt>
   <trkpt lat="51.5077870" lon="-0.1040900">
    <ele>6.0</ele>
    <time>2019-09-15T18:45:48Z</time>
   </trkpt>
   <trkpt lat="51.5078320" lon="-0.1040840">
    <ele>6.2</ele>
    <time>2019-09-15T18:45:50Z</time>
   </trkpt>
   <trkpt lat="51.5078610" lon="-0.1040860">
    <ele>6.4</ele>
    <time>2019-09-15T18:45:51Z</time>
   </trkpt>
   <trkpt lat="51.5078880" lon="-0.1040890">
    <ele>6.7</ele>
    <time>2019-09-15T18:45:52Z</time>
   </trkpt>
   <trkpt lat="51.5079350" lon="-0.1040880">
    <ele>6.9</ele>
    <time>2019-09-15T18:45:53Z</time>
   </trkpt>
   <trkpt lat="51.5079730" lon="-0.1040860">
    <ele>7.0</ele>
    <time>2019-09-15T18:45:54Z</time>
   </trkpt>
   <trkpt lat="51.5080040" lon="-0.1041000">
    <ele>7.1</ele>
    <time>2019-09-15T18:45:55Z</time>
   </trkpt>
   <trkpt lat="51.5080390" lon="-0.1041130">
    <ele>7.3</ele>
    <time>2019-09-15T18:45:56Z</time>
   </trkpt>
   <trkpt lat="51.5080730" lon="-0.1041100">
    <ele>7.5</ele>
    <time>2019-09-15T18:45:57Z</time>
   </trkpt>
   <trkpt lat="51.5081270" lon="-0.1041400">
    <ele>7.6</ele>
    <time>2019-09-15T18:45:59Z</time>
   </trkpt>
   <trkpt lat="51.5081760" lon="-0.1041440">
    <ele>7.9</ele>
    <time>2019-09-15T18:46:01Z</time>
   </trkpt>
   <trkpt lat="51.5082150" lon="-0.1041640">
    <ele>7.9</ele>
    <time>2019-09-15T18:46:03Z</time>
   </trkpt>
   <trkpt lat="51.5082410" lon="-0.1041760">
    <ele>7.9</ele>
    <time>2019-09-15T18:46:04Z</time>
   </trkpt>
   <trkpt lat="51.5082760" lon="-0.1042060">
    <ele>8.0</ele>
    <time>2019-09-15T18:46:06Z</time>
   </trkpt>
   <trkpt lat="51.5083040" lon="-0.1042330">
    <ele>7.9</ele>
    <time>2019-09-15T18:46:08Z</time>
   </trkpt>
   <trkpt lat="51.5083320" lon="-0.1042540">
    <ele>7.9</ele>
    <time>2019-09-15T18:46:11Z</time>
   </trkpt>
   <trkpt lat="51.5083420" lon="-0.1042010">
    <ele>7.8</ele>
    <time>2019-09-15T18:46:12Z</time>
   </trkpt>
   <trkpt lat="51.5083460" lon="-0.1041530">
    <ele>7.8</ele>
    <time>2019-09-15T18:46:16Z</time>
   </trkpt>
   <trkpt lat="51.5083750" lon="-0.1041460">
    <ele>7.7</ele>
    <time>2019-09-15T18:46:18Z</time>
   </trkpt>
   <trkpt lat="51.5084020" lon="-0.1041390">
    <ele>7.6</ele>
    <time>2019-09-15T18:46:21Z</time>
   </trkpt>
   <trkpt lat="51.5084260" lon="-0.1041150">
    <ele>7.6</ele>
    <time>2019-09-15T18:46:24Z</time>
   </trkpt>
   <trkpt lat="51.5084490" lon="-0.1040910">
    <ele>7.6</ele>
    <time>2019-09-15T18:46:27Z</time>
   </trkpt>
   <trkpt lat="51.5084780" lon="-0.1040770">
    <ele>4.4</ele>
    <time>2019-09-15T18:46:32Z</time>
   </trkpt>
   <trkpt lat="51.5084900" lon="-0.1040290">
    <ele>4.5</ele>
    <time>2019-09-15T18:46:34Z</time>
   </trkpt>
   <trkpt lat="51.5085020" lon="-0.1039810">
    <ele>4.6</ele>
    <time>2019-09-15T18:46:36Z</time>
   </trkpt>
   <trkpt lat="51.5084990" lon="-0.1039170">
    <ele>4.7</ele>
    <time>2019-09-15T18:46:38Z</time>
   </trkpt>
   <trkpt lat="51.5084900" lon="-0.1038530">
    <ele>4.7</ele>
    <time>2019-09-15T18:46:40Z</time>
   </trkpt>
   <trkpt lat="51.5084950" lon="-0.1038030">
    <ele>4.8</ele>
    <time>2019-09-15T18:46:41Z</time>
   </trkpt>
   <trkpt lat="51.5084880" lon="-0.1037450">
    <ele>4.8</ele>
    <time>2019-09-15T18:46:42Z</time>
   </trkpt>
   <trkpt lat="51.5084800" lon="-0.1036960">
    <ele>4.7</ele>
    <time>2019-09-15T18:46:44Z</time>
   </trkpt>
   <trkpt lat="51.5084880" lon="-0.1036500">
    <ele>4.5</ele>
    <time>2019-09-15T18:46:50Z</time>
   </trkpt>
   <trkpt lat="51.5085030" lon="-0.1036030">
    <ele>4.4</ele>
    <time>2019-09-15T18:46:53Z</time>
   </trkpt>
   <trkpt lat="51.5085120" lon="-0.1035400">
    <ele>4.3</ele>
    <time>2019-09-15T18:46:55Z</time>
   </trkpt>
   <trkpt lat="51.5085160" lon="-0.1034930">
    <ele>4.2</ele>
    <time>2019-09-15T18:46:56Z</time>
   </trkpt>
   <trkpt lat="51.5085190" lon="-0.1034230">
    <ele>4.2</ele>
    <time>2019-09-15T18:46:57Z</time>
   </trkpt>
   <trkpt lat="51.5085220" lon="-0.1033610">
    <ele>4.1</ele>
    <time>2019-09-15T18:46:58Z</time>
   </trkpt>
   <trkpt lat="51.5085210" lon="-0.1032950">
    <ele>4.1</ele>
    <time>2019-09-15T18:46:59Z</time>
   </trkpt>
   <trkpt lat="51.5085280" lon="-0.1032120">
    <ele>4.1</ele>
    <time>2019-09-15T18:47:00Z</time>
   </trkpt>
   <trkpt lat="51.5085460" lon="-0.1031150">
    <ele>4.2</ele>
    <time>2019-09-15T18:47:01Z</time>
   </trkpt>
   <trkpt lat="51.5085540" lon="-0.1030660">
    <ele>4.3</ele>
    <time>2019-09-15T18:47:02Z</time>
   </trkpt>
   <trkpt lat="51.5085880" lon="-0.1030120">
    <ele>4.3</ele>
    <time>2019-09-15T18:47:04Z</time>
   </trkpt>
   <trkpt lat="51.5085760" lon="-0.1029700">
    <ele>4.4</ele>
    <time>2019-09-15T18:47:07Z</time>
   </trkpt>
   <trkpt lat="51.5085620" lon="-0.1028650">
    <ele>4.6</ele>
    <time>2019-09-15T18:47:09Z</time>
   </trkpt>
   <trkpt lat="51.5085480" lon="-0.1028150">
    <ele>4.7</ele>
    <time>2019-09-15T18:47:10Z</time>
   </trkpt>
   <trkpt lat="51.5085260" lon="-0.1027760">
    <ele>4.9</ele>
    <time>2019-09-15T18:47:11Z</time>
   </trkpt>
   <trkpt lat="51.5084920" lon="-0.1027440">
    <ele>4.9</ele>
    <time>2019-09-15T18:47:13Z</time>
   </trkpt>
   <trkpt lat="51.5084470" lon="-0.1026860">
    <ele>4.7</ele>
    <time>2019-09-15T18:47:15Z</time>
   </trkpt>
   <trkpt lat="51.5084410" lon="-0.1026260">
    <ele>4.6</ele>
    <time>2019-09-15T18:47:17Z</time>
   </trkpt>
   <trkpt lat="51.5084400" lon="-0.1025490">
    <ele>4.6</ele>
    <time>2019-09-15T18:47:19Z</time>
   </trkpt>
   <trkpt lat="51.5084400" lon="-0.1025020">
    <ele>4.6</ele>
    <time>2019-09-15T18:47:20Z</time>
   </trkpt>
   <trkpt lat="51.5084480" lon="-0.1024120">
    <ele>4.6</ele>
    <time>2019-09-15T18:47:22Z</time>
   </trkpt>
   <trkpt lat="51.5084430" lon="-0.1023340">
    <ele>4.7</ele>
    <time>2019-09-15T18:47:24Z</time>
   </trkpt>
   <trkpt lat="51.5084430" lon="-0.1022810">
    <ele>4.7</ele>
    <time>2019-09-15T18:47:25Z</time>
   </trkpt>
   <trkpt lat="51.5084430" lon="-0.1022270">
    <ele>4.7</ele>
    <time>2019-09-15T18:47:26Z</time>
   </trkpt>
   <trkpt lat="51.5084460" lon="-0.1021780">
    <ele>4.7</ele>
    <time>2019-09-15T18:47:27Z</time>
   </trkpt>
   <trkpt lat="51.5084470" lon="-0.1021340">
    <ele>4.7</ele>
    <time>2019-09-15T18:47:28Z</time>
   </trkpt>
   <trkpt lat="51.5084380" lon="-0.1020580">
    <ele>4.7</ele>
    <time>2019-09-15T18:47:30Z</time>
   </trkpt>
   <trkpt lat="51.5084220" lon="-0.1020220">
    <ele>4.7</ele>
    <time>2019-09-15T18:47:32Z</time>
   </trkpt>
   <trkpt lat="51.5084020" lon="-0.1019530">
    <ele>4.8</ele>
    <time>2019-09-15T18:47:34Z</time>
   </trkpt>
   <trkpt lat="51.5083900" lon="-0.1019020">
    <ele>4.9</ele>
    <time>2019-09-15T18:47:36Z</time>
   </trkpt>
   <trkpt lat="51.5083630" lon="-0.1018560">
    <ele>4.9</ele>
    <time>2019-09-15T18:47:38Z</time>
   </trkpt>
   <trkpt lat="51.5083400" lon="-0.1018230">
    <ele>4.9</ele>
    <time>2019-09-15T18:47:39Z</time>
   </trkpt>
   <trkpt lat="51.5083220" lon="-0.1017800">
    <ele>4.9</ele>
    <time>2019-09-15T18:47:40Z</time>
   </trkpt>
   <trkpt lat="51.5083080" lon="-0.1017430">
    <ele>4.9</ele>
    <time>2019-09-15T18:47:41Z</time>
   </trkpt>
   <trkpt lat="51.5082990" lon="-0.1017020">
    <ele>4.9</ele>
    <time>2019-09-15T18:47:42Z</time>
   </trkpt>
   <trkpt lat="51.5082800" lon="-0.1016260">
    <ele>5.0</ele>
    <time>2019-09-15T18:47:44Z</time>
   </trkpt>
   <trkpt lat="51.5082720" lon="-0.1015800">
    <ele>5.0</ele>
    <time>2019-09-15T18:47:45Z</time>
   </trkpt>
   <trkpt lat="51.5082660" lon="-0.1014990">
    <ele>5.0</ele>
    <time>2019-09-15T18:47:47Z</time>
   </trkpt>
   <trkpt lat="51.5082650" lon="-0.1014550">
    <ele>5.0</ele>
    <time>2019-09-15T18:47:48Z</time>
   </trkpt>
   <trkpt lat="51.5082680" lon="-0.1013640">
    <ele>5.0</ele>
    <time>2019-09-15T18:47:50Z</time>
   </trkpt>
   <trkpt lat="51.5082610" lon="-0.1013140">
    <ele>5.1</ele>
    <time>2019-09-15T18:47:51Z</time>
   </trkpt>
   <trkpt lat="51.5082610" lon="-0.1012400">
    <ele>5.1</ele>
    <time>2019-09-15T18:47:53Z</time>
   </trkpt>
   <trkpt lat="51.5082660" lon="-0.1011790">
    <ele>5.0</ele>
    <time>2019-09-15T18:47:55Z</time>
   </trkpt>
   <trkpt lat="51.5082650" lon="-0.1010970">
    <ele>4.9</ele>
    <time>2019-09-15T18:47:57Z</time>
   </trkpt>
   <trkpt lat="51.5082610" lon="-0.1010200">
    <ele>4.9</ele>
    <time>2019-09-15T18:47:59Z</time>
   </trkpt>
   <trkpt lat="51.5082510" lon="-0.1009540">
    <ele>4.8</ele>
    <time>2019-09-15T18:48:01Z</time>
   </trkpt>
   <trkpt lat="51.5082500" lon="-0.1008770">
    <ele>4.8</ele>
    <time>2019-09-15T18:48:03Z</time>
   </trkpt>
   <trkpt lat="51.5082570" lon="-0.1008270">
    <ele>4.7</ele>
    <time>2019-09-15T18:48:04Z</time>
   </trkpt>
   <trkpt lat="51.5082720" lon="-0.1007850">
    <ele>4.7</ele>
    <time>2019-09-15T18:48:05Z</time>
   </trkpt>
   <trkpt lat="51.5082830" lon="-0.1007410">
    <ele>4.7</ele>
    <time>2019-09-15T18:48:06Z</time>
   </trkpt>
   <trkpt lat="51.5083000" lon="-0.1006950">
    <ele>4.6</ele>
    <time>2019-09-15T18:48:07Z</time>
   </trkpt>
   <trkpt lat="51.5083200" lon="-0.1006560">
    <ele>4.7</ele>
    <time>2019-09-15T18:48:08Z</time>
   </trkpt>
   <trkpt lat="51.5083390" lon="-0.1006110">
    <ele>4.7</ele>
    <time>2019-09-15T18:48:09Z</time>
   </trkpt>
   <trkpt lat="51.5083520" lon="-0.1005700">
    <ele>4.8</ele>
    <time>2019-09-15T18:48:10Z</time>
   </trkpt>
   <trkpt lat="51.5083690" lon="-0.1005090">
    <ele>4.9</ele>
    <time>2019-09-15T18:48:12Z</time>
   </trkpt>
   <trkpt lat="51.5083740" lon="-0.1004240">
    <ele>4.8</ele>
    <time>2019-09-15T18:48:14Z</time>
   </trkpt>
   <trkpt lat="51.5083870" lon="-0.1003530">
    <ele>4.8</ele>
    <time>2019-09-15T18:48:16Z</time>
   </trkpt>
   <trkpt lat="51.5083950" lon="-0.1003100">
    <ele>4.7</ele>
    <time>2019-09-15T18:48:17Z</time>
   </trkpt>
   <trkpt lat="51.5084000" lon="-0.1002370">
    <ele>4.7</ele>
    <time>2019-09-15T18:48:19Z</time>
   </trkpt>
   <trkpt lat="51.5084000" lon="-0.1001940">
    <ele>4.7</ele>
    <time>2019-09-15T18:48:20Z</time>
   </trkpt>
   <trkpt lat="51.5084050" lon="-0.1001480">
    <ele>4.7</ele>
    <time>2019-09-15T18:48:21Z</time>
   </trkpt>
   <trkpt lat="51.5084070" lon="-0.1000720">
    <ele>4.7</ele>
    <time>2019-09-15T18:48:23Z</time>
   </trkpt>
   <trkpt lat="51.5084050" lon="-0.1000290">
    <ele>4.7</ele>
    <time>2019-09-15T18:48:24Z</time>
   </trkpt>
   <trkpt lat="51.5084060" lon="-0.0999780">
    <ele>4.7</ele>
    <time>2019-09-15T18:48:25Z</time>
   </trkpt>
   <trkpt lat="51.5084020" lon="-0.0999160">
    <ele>4.7</ele>
    <time>2019-09-15T18:48:27Z</time>
   </trkpt>
   <trkpt lat="51.5083940" lon="-0.0998400">
    <ele>4.7</ele>
    <time>2019-09-15T18:48:29Z</time>
   </trkpt>
   <trkpt lat="51.5083920" lon="-0.0997580">
    <ele>4.7</ele>
    <time>2019-09-15T18:48:31Z</time>
   </trkpt>
   <trkpt lat="51.5084030" lon="-0.0996910">
    <ele>4.6</ele>
    <time>2019-09-15T18:48:33Z</time>
   </trkpt>
   <trkpt lat="51.5083940" lon="-0.0996180">
    <ele>4.6</ele>
    <time>2019-09-15T18:48:35Z</time>
   </trkpt>
   <trkpt lat="51.5083880" lon="-0.0995390">
    <ele>4.5</ele>
    <time>2019-09-15T18:48:37Z</time>
   </trkpt>
   <trkpt lat="51.5083770" lon="-0.0994670">
    <ele>4.5</ele>
    <time>2019-09-15T18:48:39Z</time>
   </trkpt>
   <trkpt lat="51.5083700" lon="-0.0993930">
    <ele>4.4</ele>
    <time>2019-09-15T18:48:41Z</time>
   </trkpt>
   <trkpt lat="51.5083650" lon="-0.0993250">
    <ele>4.2</ele>
    <time>2019-09-15T18:48:43Z</time>
   </trkpt>
   <trkpt lat="51.5083600" lon="-0.0992460">
    <ele>4.0</ele>
    <time>2019-09-15T18:48:45Z</time>
   </trkpt>
   <trkpt lat="51.5083570" lon="-0.0991600">
    <ele>3.8</ele>
    <time>2019-09-15T18:48:47Z</time>
   </trkpt>
   <trkpt lat="51.5083510" lon="-0.0991160">
    <ele>3.8</ele>
    <time>2019-09-15T18:48:48Z</time>
   </trkpt>
   <trkpt lat="51.5083680" lon="-0.0990400">
    <ele>3.8</ele>
    <time>2019-09-15T18:48:50Z</time>
   </trkpt>
   <trkpt lat="51.5083770" lon="-0.0989710">
    <ele>3.7</ele>
    <time>2019-09-15T18:48:52Z</time>
   </trkpt>
   <trkpt lat="51.5083900" lon="-0.0988890">
    <ele>3.6</ele>
    <time>2019-09-15T18:48:54Z</time>
   </trkpt>
   <trkpt lat="51.5083950" lon="-0.0988160">
    <ele>3.6</ele>
    <time>2019-09-15T18:48:56Z</time>
   </trkpt>
   <trkpt lat="51.5083900" lon="-0.0987480">
    <ele>3.5</ele>
    <time>2019-09-15T18:48:58Z</time>
   </trkpt>
   <trkpt lat="51.5083980" lon="-0.0986880">
    <ele>3.6</ele>
    <time>2019-09-15T18:49:00Z</time>
   </trkpt>
   <trkpt lat="51.5083940" lon="-0.0986420">
    <ele>3.7</ele>
    <time>2019-09-15T18:49:02Z</time>
   </trkpt>
   <trkpt lat="51.5083920" lon="-0.0985740">
    <ele>5.1</ele>
    <time>2019-09-15T18:49:04Z</time>
   </trkpt>
   <trkpt lat="51.5083530" lon="-0.0985250">
    <ele>5.1</ele>
    <time>2019-09-15T18:49:06Z</time>
   </trkpt>
   <trkpt lat="51.5083350" lon="-0.0984410">
    <ele>5.3</ele>
    <time>2019-09-15T18:49:08Z</time>
   </trkpt>
   <trkpt lat="51.5083440" lon="-0.0983660">
    <ele>4.9</ele>
    <time>2019-09-15T18:49:10Z</time>
   </trkpt>
   <trkpt lat="51.5083580" lon="-0.0983270">
    <ele>4.7</ele>
    <time>2019-09-15T18:49:11Z</time>
   </trkpt>
   <trkpt lat="51.5083590" lon="-0.0982810">
    <ele>4.4</ele>
    <time>2019-09-15T18:49:12Z</time>
   </trkpt>
   <trkpt lat="51.5083510" lon="-0.0981990">
    <ele>4.3</ele>
    <time>2019-09-15T18:49:14Z</time>
   </trkpt>
   <trkpt lat="51.5083570" lon="-0.0981320">
    <ele>4.2</ele>
    <time>2019-09-15T18:49:16Z</time>
   </trkpt>
   <trkpt lat="51.5083570" lon="-0.0980630">
    <ele>4.0</ele>
    <time>2019-09-15T18:49:18Z</time>
   </trkpt>
   <trkpt lat="51.5083480" lon="-0.0979730">
    <ele>3.9</ele>
    <time>2019-09-15T18:49:20Z</time>
   </trkpt>
   <trkpt lat="51.5083350" lon="-0.0978990">
    <ele>3.9</ele>
    <time>2019-09-15T18:49:22Z</time>
   </trkpt>
   <trkpt lat="51.5083180" lon="-0.0978290">
    <ele>3.9</ele>
    <time>2019-09-15T18:49:24Z</time>
   </trkpt>
   <trkpt lat="51.5083030" lon="-0.0977540">
    <ele>3.9</ele>
    <time>2019-09-15T18:49:26Z</time>
   </trkpt>
   <trkpt lat="51.5083020" lon="-0.0976960">
    <ele>3.8</ele>
    <time>2019-09-15T18:49:28Z</time>
   </trkpt>
   <trkpt lat="51.5083040" lon="-0.0976150">
    <ele>3.8</ele>
    <time>2019-09-15T18:49:30Z</time>
   </trkpt>
   <trkpt lat="51.5083020" lon="-0.0975670">
    <ele>3.8</ele>
    <time>2019-09-15T18:49:31Z</time>
   </trkpt>
   <trkpt lat="51.5082990" lon="-0.0975210">
    <ele>3.8</ele>
    <time>2019-09-15T18:49:32Z</time>
   </trkpt>
   <trkpt lat="51.5082930" lon="-0.0974790">
    <ele>3.9</ele>
    <time>2019-09-15T18:49:33Z</time>
   </trkpt>
   <trkpt lat="51.5082890" lon="-0.0974360">
    <ele>4.0</ele>
    <time>2019-09-15T18:49:34Z</time>
   </trkpt>
   <trkpt lat="51.5082780" lon="-0.0973900">
    <ele>4.1</ele>
    <time>2019-09-15T18:49:35Z</time>
   </trkpt>
   <trkpt lat="51.5082690" lon="-0.0973130">
    <ele>4.3</ele>
    <time>2019-09-15T18:49:37Z</time>
   </trkpt>
   <trkpt lat="51.5082670" lon="-0.0972390">
    <ele>4.3</ele>
    <time>2019-09-15T18:49:39Z</time>
   </trkpt>
   <trkpt lat="51.5082770" lon="-0.0971650">
    <ele>4.3</ele>
    <time>2019-09-15T18:49:41Z</time>
   </trkpt>
   <trkpt lat="51.5082760" lon="-0.0971120">
    <ele>4.3</ele>
    <time>2019-09-15T18:49:42Z</time>
   </trkpt>
   <trkpt lat="51.5082810" lon="-0.0970460">
    <ele>4.3</ele>
    <time>2019-09-15T18:49:44Z</time>
   </trkpt>
   <trkpt lat="51.5082820" lon="-0.0969780">
    <ele>4.3</ele>
    <time>2019-09-15T18:49:46Z</time>
   </trkpt>
   <trkpt lat="51.5082830" lon="-0.0969270">
    <ele>4.3</ele>
    <time>2019-09-15T18:49:47Z</time>
   </trkpt>
   <trkpt lat="51.5082850" lon="-0.0968420">
    <ele>4.3</ele>
    <time>2019-09-15T18:49:49Z</time>
   </trkpt>
   <trkpt lat="51.5082750" lon="-0.0967670">
    <ele>4.3</ele>
    <time>2019-09-15T18:49:51Z</time>
   </trkpt>
   <trkpt lat="51.5082570" lon="-0.0966920">
    <ele>4.3</ele>
    <time>2019-09-15T18:49:53Z</time>
   </trkpt>
   <trkpt lat="51.5082450" lon="-0.0966100">
    <ele>4.3</ele>
    <time>2019-09-15T18:49:55Z</time>
   </trkpt>
   <trkpt lat="51.5082400" lon="-0.0965320">
    <ele>4.3</ele>
    <time>2019-09-15T18:49:57Z</time>
   </trkpt>
   <trkpt lat="51.5082320" lon="-0.0964590">
    <ele>4.2</ele>
    <time>2019-09-15T18:49:59Z</time>
   </trkpt>
   <trkpt lat="51.5082190" lon="-0.0963910">
    <ele>4.2</ele>
    <time>2019-09-15T18:50:01Z</time>
   </trkpt>
   <trkpt lat="51.5082270" lon="-0.0963380">
    <ele>4.2</ele>
    <time>2019-09-15T18:50:03Z</time>
   </trkpt>
   <trkpt lat="51.5082260" lon="-0.0962770">
    <ele>4.2</ele>
    <time>2019-09-15T18:50:05Z</time>
   </trkpt>
   <trkpt lat="51.5082070" lon="-0.0962300">
    <ele>4.2</ele>
    <time>2019-09-15T18:50:07Z</time>
   </trkpt>
   <trkpt lat="51.5081950" lon="-0.0961750">
    <ele>4.2</ele>
    <time>2019-09-15T18:50:09Z</time>
   </trkpt>
   <trkpt lat="51.5081960" lon="-0.0961160">
    <ele>4.2</ele>
    <time>2019-09-15T18:50:11Z</time>
   </trkpt>
   <trkpt lat="51.5081990" lon="-0.0960260">
    <ele>4.1</ele>
    <time>2019-09-15T18:50:13Z</time>
   </trkpt>
   <trkpt lat="51.5082010" lon="-0.0959400">
    <ele>4.1</ele>
    <time>2019-09-15T18:50:15Z</time>
   </trkpt>
   <trkpt lat="51.5082070" lon="-0.0958640">
    <ele>4.1</ele>
    <time>2019-09-15T18:50:17Z</time>
   </trkpt>
   <trkpt lat="51.5082070" lon="-0.0957990">
    <ele>4.1</ele>
    <time>2019-09-15T18:50:19Z</time>
   </trkpt>
   <trkpt lat="51.5082030" lon="-0.0957340">
    <ele>4.1</ele>
    <time>2019-09-15T18:50:20Z</time>
   </trkpt>
   <trkpt lat="51.5081970" lon="-0.0956870">
    <ele>4.1</ele>
    <time>2019-09-15T18:50:21Z</time>
   </trkpt>
   <trkpt lat="51.5081930" lon="-0.0956320">
    <ele>4.0</ele>
    <time>2019-09-15T18:50:22Z</time>
   </trkpt>
   <trkpt lat="51.5081810" lon="-0.0955570">
    <ele>4.0</ele>
    <time>2019-09-15T18:50:24Z</time>
   </trkpt>
   <trkpt lat="51.5081740" lon="-0.0954930">
    <ele>4.0</ele>
    <time>2019-09-15T18:50:26Z</time>
   </trkpt>
   <trkpt lat="51.5081710" lon="-0.0954360">
    <ele>3.9</ele>
    <time>2019-09-15T18:50:28Z</time>
   </trkpt>
   <trkpt lat="51.5081650" lon="-0.0953550">
    <ele>3.8</ele>
    <time>2019-09-15T18:50:30Z</time>
   </trkpt>
   <trkpt lat="51.5081660" lon="-0.0953120">
    <ele>3.8</ele>
    <time>2019-09-15T18:50:31Z</time>
   </trkpt>
   <trkpt lat="51.5081640" lon="-0.0952590">
    <ele>3.8</ele>
    <time>2019-09-15T18:50:33Z</time>
   </trkpt>
   <trkpt lat="51.5081590" lon="-0.0952060">
    <ele>3.7</ele>
    <time>2019-09-15T18:50:35Z</time>
   </trkpt>
   <trkpt lat="51.5081610" lon="-0.0951610">
    <ele>3.7</ele>
    <time>2019-09-15T18:50:36Z</time>
   </trkpt>
   <trkpt lat="51.5081610" lon="-0.0950870">
    <ele>3.6</ele>
    <time>2019-09-15T18:50:39Z</time>
   </trkpt>
   <trkpt lat="51.5081510" lon="-0.0950250">
    <ele>3.6</ele>
    <time>2019-09-15T18:50:41Z</time>
   </trkpt>
   <trkpt lat="51.5081440" lon="-0.0949740">
    <ele>3.5</ele>
    <time>2019-09-15T18:50:42Z</time>
   </trkpt>
   <trkpt lat="51.5081520" lon="-0.0949120">
    <ele>3.5</ele>
    <time>2019-09-15T18:50:44Z</time>
   </trkpt>
   <trkpt lat="51.5081000" lon="-0.0948440">
    <ele>3.4</ele>
    <time>2019-09-15T18:50:57Z</time>
   </trkpt>
   <trkpt lat="51.5081050" lon="-0.0947130">
    <ele>2.8</ele>
    <time>2019-09-15T18:50:59Z</time>
   </trkpt>
   <trkpt lat="51.5080640" lon="-0.0946220">
    <ele>2.9</ele>
    <time>2019-09-15T18:51:00Z</time>
   </trkpt>
   <trkpt lat="51.5080440" lon="-0.0945830">
    <ele>3.0</ele>
    <time>2019-09-15T18:51:01Z</time>
   </trkpt>
   <trkpt lat="51.5080390" lon="-0.0945180">
    <ele>3.8</ele>
    <time>2019-09-15T18:51:02Z</time>
   </trkpt>
   <trkpt lat="51.5080510" lon="-0.0944690">
    <ele>3.7</ele>
    <time>2019-09-15T18:51:03Z</time>
   </trkpt>
   <trkpt lat="51.5080570" lon="-0.0944140">
    <ele>3.6</ele>
    <time>2019-09-15T18:51:04Z</time>
   </trkpt>
   <trkpt lat="51.5080670" lon="-0.0943530">
    <ele>3.4</ele>
    <time>2019-09-15T18:51:05Z</time>
   </trkpt>
   <trkpt lat="51.5080650" lon="-0.0943060">
    <ele>3.4</ele>
    <time>2019-09-15T18:51:06Z</time>
   </trkpt>
   <trkpt lat="51.5080210" lon="-0.0943020">
    <ele>3.3</ele>
    <time>2019-09-15T18:51:08Z</time>
   </trkpt>
   <trkpt lat="51.5079890" lon="-0.0942560">
    <ele>3.2</ele>
    <time>2019-09-15T18:51:10Z</time>
   </trkpt>
   <trkpt lat="51.5079680" lon="-0.0942190">
    <ele>3.2</ele>
    <time>2019-09-15T18:51:12Z</time>
   </trkpt>
   <trkpt lat="51.5079770" lon="-0.0941620">
    <ele>3.3</ele>
    <time>2019-09-15T18:51:14Z</time>
   </trkpt>
   <trkpt lat="51.5079690" lon="-0.0940650">
    <ele>3.4</ele>
    <time>2019-09-15T18:51:16Z</time>
   </trkpt>
   <trkpt lat="51.5079500" lon="-0.0939920">
    <ele>3.4</ele>
    <time>2019-09-15T18:51:18Z</time>
   </trkpt>
   <trkpt lat="51.5079340" lon="-0.0939490">
    <ele>3.4</ele>
    <time>2019-09-15T18:51:19Z</time>
   </trkpt>
   <trkpt lat="51.5079170" lon="-0.0938950">
    <ele>3.5</ele>
    <time>2019-09-15T18:51:21Z</time>
   </trkpt>
   <trkpt lat="51.5079090" lon="-0.0938480">
    <ele>3.5</ele>
    <time>2019-09-15T18:51:22Z</time>
   </trkpt>
   <trkpt lat="51.5079100" lon="-0.0937750">
    <ele>3.6</ele>
    <time>2019-09-15T18:51:24Z</time>
   </trkpt>
   <trkpt lat="51.5079100" lon="-0.0937140">
    <ele>3.7</ele>
    <time>2019-09-15T18:51:26Z</time>
   </trkpt>
   <trkpt lat="51.5079090" lon="-0.0936430">
    <ele>3.8</ele>
    <time>2019-09-15T18:51:28Z</time>
   </trkpt>
   <trkpt lat="51.5079040" lon="-0.0935990">
    <ele>3.8</ele>
    <time>2019-09-15T18:51:29Z</time>
   </trkpt>
   <trkpt lat="51.5079040" lon="-0.0935420">
    <ele>3.9</ele>
    <time>2019-09-15T18:51:31Z</time>
   </trkpt>
   <trkpt lat="51.5079000" lon="-0.0934610">
    <ele>4.0</ele>
    <time>2019-09-15T18:51:33Z</time>
   </trkpt>
   <trkpt lat="51.5078850" lon="-0.0933890">
    <ele>4.1</ele>
    <time>2019-09-15T18:51:35Z</time>
   </trkpt>
   <trkpt lat="51.5078650" lon="-0.0933530">
    <ele>4.1</ele>
    <time>2019-09-15T18:51:36Z</time>
   </trkpt>
   <trkpt lat="51.5078470" lon="-0.0933180">
    <ele>4.2</ele>
    <time>2019-09-15T18:51:37Z</time>
   </trkpt>
   <trkpt lat="51.5078300" lon="-0.0932750">
    <ele>4.2</ele>
    <time>2019-09-15T18:51:38Z</time>
   </trkpt>
   <trkpt lat="51.5078130" lon="-0.0932370">
    <ele>4.3</ele>
    <time>2019-09-15T18:51:39Z</time>
   </trkpt>
   <trkpt lat="51.5077660" lon="-0.0931980">
    <ele>4.3</ele>
    <time>2019-09-15T18:51:41Z</time>
   </trkpt>
   <trkpt lat="51.5077250" lon="-0.0931770">
    <ele>4.4</ele>
    <time>2019-09-15T18:51:43Z</time>
   </trkpt>
   <trkpt lat="51.5076980" lon="-0.0931830">
    <ele>4.4</ele>
    <time>2019-09-15T18:51:45Z</time>
   </trkpt>
   <trkpt lat="51.5076640" lon="-0.0932020">
    <ele>4.4</ele>
    <time>2019-09-15T18:51:46Z</time>
   </trkpt>
   <trkpt lat="51.5076270" lon="-0.0931970">
    <ele>4.5</ele>
    <time>2019-09-15T18:51:48Z</time>
   </trkpt>
   <trkpt lat="51.5075990" lon="-0.0931750">
    <ele>4.5</ele>
    <time>2019-09-15T18:51:49Z</time>
   </trkpt>
   <trkpt lat="51.5075810" lon="-0.0931420">
    <ele>4.5</ele>
    <time>2019-09-15T18:51:50Z</time>
   </trkpt>
   <trkpt lat="51.5075510" lon="-0.0930930">
    <ele>4.5</ele>
    <time>2019-09-15T18:51:52Z</time>
   </trkpt>
   <trkpt lat="51.5075180" lon="-0.0930780">
    <ele>4.6</ele>
    <time>2019-09-15T18:51:53Z</time>
   </trkpt>
   <trkpt lat="51.5074910" lon="-0.0930490">
    <ele>4.3</ele>
    <time>2019-09-15T18:51:54Z</time>
   </trkpt>
   <trkpt lat="51.5074690" lon="-0.0930120">
    <ele>4.2</ele>
    <time>2019-09-15T18:51:55Z</time>
   </trkpt>
   <trkpt lat="51.5074490" lon="-0.0929690">
    <ele>4.2</ele>
    <time>2019-09-15T18:51:56Z</time>
   </trkpt>
   <trkpt lat="51.5074280" lon="-0.0929010">
    <ele>4.1</ele>
    <time>2019-09-15T18:51:58Z</time>
   </trkpt>
   <trkpt lat="51.5074140" lon="-0.0928390">
    <ele>4.0</ele>
    <time>2019-09-15T18:52:00Z</time>
   </trkpt>
   <trkpt lat="51.5073750" lon="-0.0928080">
    <ele>3.9</ele>
    <time>2019-09-15T18:52:02Z</time>
   </trkpt>
   <trkpt lat="51.5073470" lon="-0.0928030">
    <ele>3.9</ele>
    <time>2019-09-15T18:52:03Z</time>
   </trkpt>
   <trkpt lat="51.5073190" lon="-0.0927980">
    <ele>3.8</ele>
    <time>2019-09-15T18:52:04Z</time>
   </trkpt>
   <trkpt lat="51.5072900" lon="-0.0927720">
    <ele>3.8</ele>
    <time>2019-09-15T18:52:05Z</time>
   </trkpt>
   <trkpt lat="51.5072510" lon="-0.0927530">
    <ele>3.7</ele>
    <time>2019-09-15T18:52:06Z</time>
   </trkpt>
   <trkpt lat="51.5072020" lon="-0.0927470">
    <ele>3.6</ele>
    <time>2019-09-15T18:52:07Z</time>
   </trkpt>
   <trkpt lat="51.5071480" lon="-0.0927280">
    <ele>3.5</ele>
    <time>2019-09-15T18:52:09Z</time>
   </trkpt>
   <trkpt lat="51.5071170" lon="-0.0926910">
    <ele>3.5</ele>
    <time>2019-09-15T18:52:11Z</time>
   </trkpt>
   <trkpt lat="51.5070840" lon="-0.0928000">
    <ele>3.5</ele>
    <time>2019-09-15T18:52:15Z</time>
   </trkpt>
   <trkpt lat="51.5070830" lon="-0.0927510">
    <ele>3.5</ele>
    <time>2019-09-15T18:52:19Z</time>
   </trkpt>
   <trkpt lat="51.5070850" lon="-0.0927050">
    <ele>3.5</ele>
    <time>2019-09-15T18:52:23Z</time>
   </trkpt>
   <trkpt lat="51.5070890" lon="-0.0926200">
    <ele>3.5</ele>
    <time>2019-09-15T18:52:25Z</time>
   </trkpt>
   <trkpt lat="51.5070840" lon="-0.0925380">
    <ele>3.5</ele>
    <time>2019-09-15T18:52:26Z</time>
   </trkpt>
   <trkpt lat="51.5070860" lon="-0.0924260">
    <ele>3.5</ele>
    <time>2019-09-15T18:52:27Z</time>
   </trkpt>
   <trkpt lat="51.5070900" lon="-0.0923550">
    <ele>3.5</ele>
    <time>2019-09-15T18:52:28Z</time>
   </trkpt>
   <trkpt lat="51.5070940" lon="-0.0923010">
    <ele>3.5</ele>
    <time>2019-09-15T18:52:29Z</time>
   </trkpt>
   <trkpt lat="51.5070990" lon="-0.0922410">
    <ele>3.5</ele>
    <time>2019-09-15T18:52:30Z</time>
   </trkpt>
   <trkpt lat="51.5070960" lon="-0.0921620">
    <ele>3.6</ele>
    <time>2019-09-15T18:52:31Z</time>
   </trkpt>
   <trkpt lat="51.5070750" lon="-0.0920890">
    <ele>3.6</ele>
    <time>2019-09-15T18:52:32Z</time>
   </trkpt>
   <trkpt lat="51.5070590" lon="-0.0920060">
    <ele>3.6</ele>
    <time>2019-09-15T18:52:33Z</time>
   </trkpt>
   <trkpt lat="51.5070390" lon="-0.0919210">
    <ele>3.7</ele>
    <time>2019-09-15T18:52:34Z</time>
   </trkpt>
   <trkpt lat="51.5070220" lon="-0.0918480">
    <ele>3.7</ele>
    <time>2019-09-15T18:52:35Z</time>
   </trkpt>
   <trkpt lat="51.5070240" lon="-0.0917730">
    <ele>3.8</ele>
    <time>2019-09-15T18:52:36Z</time>
   </trkpt>
   <trkpt lat="51.5070050" lon="-0.0917090">
    <ele>3.8</ele>
    <time>2019-09-15T18:52:37Z</time>
   </trkpt>
   <trkpt lat="51.5069980" lon="-0.0916530">
    <ele>3.8</ele>
    <time>2019-09-15T18:52:38Z</time>
   </trkpt>
   <trkpt lat="51.5069790" lon="-0.0916120">
    <ele>3.8</ele>
    <time>2019-09-15T18:52:39Z</time>
   </trkpt>
   <trkpt lat="51.5069610" lon="-0.0915770">
    <ele>3.8</ele>
    <time>2019-09-15T18:52:40Z</time>
   </trkpt>
   <trkpt lat="51.5069300" lon="-0.0915100">
    <ele>3.8</ele>
    <time>2019-09-15T18:52:42Z</time>
   </trkpt>
   <trkpt lat="51.5068810" lon="-0.0914770">
    <ele>3.8</ele>
    <time>2019-09-15T18:52:44Z</time>
   </trkpt>
   <trkpt lat="51.5068370" lon="-0.0914550">
    <ele>3.7</ele>
    <time>2019-09-15T18:52:46Z</time>
   </trkpt>
   <trkpt lat="51.5068110" lon="-0.0914080">
    <ele>3.7</ele>
    <time>2019-09-15T18:52:48Z</time>
   </trkpt>
   <trkpt lat="51.5067930" lon="-0.0913700">
    <ele>3.8</ele>
    <time>2019-09-15T18:52:49Z</time>
   </trkpt>
   <trkpt lat="51.5067670" lon="-0.0913580">
    <ele>3.8</ele>
    <time>2019-09-15T18:52:50Z</time>
   </trkpt>
   <trkpt lat="51.5067390" lon="-0.0913420">
    <ele>3.8</ele>
    <time>2019-09-15T18:52:51Z</time>
   </trkpt>
   <trkpt lat="51.5067160" lon="-0.0913130">
    <ele>3.8</ele>
    <time>2019-09-15T18:52:52Z</time>
   </trkpt>
   <trkpt lat="51.5066780" lon="-0.0912630">
    <ele>3.8</ele>
    <time>2019-09-15T18:52:54Z</time>
   </trkpt>
   <trkpt lat="51.5066690" lon="-0.0912170">
    <ele>3.8</ele>
    <time>2019-09-15T18:52:55Z</time>
   </trkpt>
   <trkpt lat="51.5066340" lon="-0.0911740">
    <ele>3.9</ele>
    <time>2019-09-15T18:52:57Z</time>
   </trkpt>
   <trkpt lat="51.5066030" lon="-0.0911340">
    <ele>3.9</ele>
    <time>2019-09-15T18:52:59Z</time>
   </trkpt>
   <trkpt lat="51.5065980" lon="-0.0910880">
    <ele>4.1</ele>
    <time>2019-09-15T18:53:01Z</time>
   </trkpt>
   <trkpt lat="51.5065550" lon="-0.0910720">
    <ele>4.1</ele>
    <time>2019-09-15T18:53:03Z</time>
   </trkpt>
   <trkpt lat="51.5065290" lon="-0.0910560">
    <ele>4.1</ele>
    <time>2019-09-15T18:53:05Z</time>
   </trkpt>
   <trkpt lat="51.5065020" lon="-0.0910420">
    <ele>4.1</ele>
    <time>2019-09-15T18:53:06Z</time>
   </trkpt>
   <trkpt lat="51.5064720" lon="-0.0910240">
    <ele>4.3</ele>
    <time>2019-09-15T18:53:07Z</time>
   </trkpt>
   <trkpt lat="51.5064550" lon="-0.0909870">
    <ele>4.3</ele>
    <time>2019-09-15T18:53:08Z</time>
   </trkpt>
   <trkpt lat="51.5064240" lon="-0.0909300">
    <ele>4.3</ele>
    <time>2019-09-15T18:53:10Z</time>
   </trkpt>
   <trkpt lat="51.5064470" lon="-0.0908030">
    <ele>4.3</ele>
    <time>2019-09-15T18:53:12Z</time>
   </trkpt>
   <trkpt lat="51.5064400" lon="-0.0907290">
    <ele>4.2</ele>
    <time>2019-09-15T18:53:14Z</time>
   </trkpt>
   <trkpt lat="51.5064740" lon="-0.0906460">
    <ele>4.2</ele>
    <time>2019-09-15T18:53:16Z</time>
   </trkpt>
   <trkpt lat="51.5064860" lon="-0.0906030">
    <ele>4.2</ele>
    <time>2019-09-15T18:53:17Z</time>
   </trkpt>
   <trkpt lat="51.5064640" lon="-0.0905760">
    <ele>4.3</ele>
    <time>2019-09-15T18:53:22Z</time>
   </trkpt>
   <trkpt lat="51.5064380" lon="-0.0905500">
    <ele>4.3</ele>
    <time>2019-09-15T18:53:24Z</time>
   </trkpt>
   <trkpt lat="51.5064110" lon="-0.0905260">
    <ele>4.3</ele>
    <time>2019-09-15T18:53:26Z</time>
   </trkpt>
   <trkpt lat="51.5063860" lon="-0.0905520">
    <ele>4.4</ele>
    <time>2019-09-15T18:53:28Z</time>
   </trkpt>
   <trkpt lat="51.5063470" lon="-0.0905060">
    <ele>4.4</ele>
    <time>2019-09-15T18:53:30Z</time>
   </trkpt>
   <trkpt lat="51.5063360" lon="-0.0904510">
    <ele>4.4</ele>
    <time>2019-09-15T18:53:31Z</time>
   </trkpt>
   <trkpt lat="51.5063070" lon="-0.0903930">
    <ele>4.5</ele>
    <time>2019-09-15T18:53:32Z</time>
   </trkpt>
   <trkpt lat="51.5063010" lon="-0.0903170">
    <ele>4.8</ele>
    <time>2019-09-15T18:53:34Z</time>
   </trkpt>
   <trkpt lat="51.5063250" lon="-0.0902420">
    <ele>4.7</ele>
    <time>2019-09-15T18:53:36Z</time>
   </trkpt>
   <trkpt lat="51.5063160" lon="-0.0902960">
    <ele>4.7</ele>
    <time>2019-09-15T18:53:39Z</time>
   </trkpt>
   <trkpt lat="51.5063000" lon="-0.0903360">
    <ele>4.7</ele>
    <time>2019-09-15T18:53:41Z</time>
   </trkpt>
   <trkpt lat="51.5062800" lon="-0.0903760">
    <ele>4.7</ele>
    <time>2019-09-15T18:53:43Z</time>
   </trkpt>
   <trkpt lat="51.5062660" lon="-0.0904140">
    <ele>4.6</ele>
    <time>2019-09-15T18:53:44Z</time>
   </trkpt>
   <trkpt lat="51.5062370" lon="-0.0904240">
    <ele>4.6</ele>
    <time>2019-09-15T18:53:45Z</time>
   </trkpt>
   <trkpt lat="51.5062020" lon="-0.0904400">
    <ele>4.6</ele>
    <time>2019-09-15T18:53:46Z</time>
   </trkpt>
   <trkpt lat="51.5061730" lon="-0.0904520">
    <ele>4.6</ele>
    <time>2019-09-15T18:53:47Z</time>
   </trkpt>
   <trkpt lat="51.5061200" lon="-0.0904560">
    <ele>4.6</ele>
    <time>2019-09-15T18:53:49Z</time>
   </trkpt>
   <trkpt lat="51.5060680" lon="-0.0904580">
    <ele>4.6</ele>
    <time>2019-09-15T18:53:51Z</time>
   </trkpt>
   <trkpt lat="51.5060400" lon="-0.0904380">
    <ele>4.6</ele>
    <time>2019-09-15T18:53:52Z</time>
   </trkpt>
   <trkpt lat="51.5060060" lon="-0.0904150">
    <ele>4.8</ele>
    <time>2019-09-15T18:53:55Z</time>
   </trkpt>
   <trkpt lat="51.5059720" lon="-0.0904140">
    <ele>4.8</ele>
    <time>2019-09-15T18:53:57Z</time>
   </trkpt>
   <trkpt lat="51.5059330" lon="-0.0904240">
    <ele>4.9</ele>
    <time>2019-09-15T18:53:59Z</time>
   </trkpt>
   <trkpt lat="51.5059060" lon="-0.0904380">
    <ele>4.9</ele>
    <time>2019-09-15T18:54:00Z</time>
   </trkpt>
   <trkpt lat="51.5058610" lon="-0.0904580">
    <ele>5.0</ele>
    <time>2019-09-15T18:54:02Z</time>
   </trkpt>
   <trkpt lat="51.5058320" lon="-0.0904860">
    <ele>5.0</ele>
    <time>2019-09-15T18:54:05Z</time>
   </trkpt>
   <trkpt lat="51.5057930" lon="-0.0905040">
    <ele>5.1</ele>
    <time>2019-09-15T18:54:10Z</time>
   </trkpt>
   <trkpt lat="51.5057640" lon="-0.0904970">
    <ele>5.1</ele>
    <time>2019-09-15T18:54:12Z</time>
   </trkpt>
   <trkpt lat="51.5057360" lon="-0.0904820">
    <ele>5.1</ele>
    <time>2019-09-15T18:54:14Z</time>
   </trkpt>
   <trkpt lat="51.5057060" lon="-0.0904170">
    <ele>5.2</ele>
    <time>2019-09-15T18:54:15Z</time>
   </trkpt>
   <trkpt lat="51.5056890" lon="-0.0903600">
    <ele>5.2</ele>
    <time>2019-09-15T18:54:16Z</time>
   </trkpt>
   <trkpt lat="51.5056560" lon="-0.0902850">
    <ele>5.3</ele>
    <time>2019-09-15T18:54:17Z</time>
   </trkpt>
   <trkpt lat="51.5056340" lon="-0.0902200">
    <ele>5.3</ele>
    <time>2019-09-15T18:54:18Z</time>
   </trkpt>
   <trkpt lat="51.5056080" lon="-0.0901860">
    <ele>5.4</ele>
    <time>2019-09-15T18:54:19Z</time>
   </trkpt>
   <trkpt lat="51.5055760" lon="-0.0901390">
    <ele>5.4</ele>
    <time>2019-09-15T18:54:21Z</time>
   </trkpt>
   <trkpt lat="51.5055520" lon="-0.0900940">
    <ele>5.5</ele>
    <time>2019-09-15T18:54:23Z</time>
   </trkpt>
   <trkpt lat="51.5055010" lon="-0.0900090">
    <ele>5.5</ele>
    <time>2019-09-15T18:54:25Z</time>
   </trkpt>
   <trkpt lat="51.5054730" lon="-0.0899410">
    <ele>5.5</ele>
    <time>2019-09-15T18:54:27Z</time>
   </trkpt>
   <trkpt lat="51.5054460" lon="-0.0899120">
    <ele>5.6</ele>
    <time>2019-09-15T18:54:28Z</time>
   </trkpt>
   <trkpt lat="51.5054040" lon="-0.0898350">
    <ele>5.6</ele>
    <time>2019-09-15T18:54:30Z</time>
   </trkpt>
   <trkpt lat="51.5053750" lon="-0.0897850">
    <ele>5.6</ele>
    <time>2019-09-15T18:54:31Z</time>
   </trkpt>
   <trkpt lat="51.5053410" lon="-0.0897220">
    <ele>5.6</ele>
    <time>2019-09-15T18:54:32Z</time>
   </trkpt>
   <trkpt lat="51.5053270" lon="-0.0896780">
    <ele>5.5</ele>
    <time>2019-09-15T18:54:33Z</time>
   </trkpt>
   <trkpt lat="51.5053070" lon="-0.0896180">
    <ele>5.5</ele>
    <time>2019-09-15T18:54:35Z</time>
   </trkpt>
   <trkpt lat="51.5052810" lon="-0.0896000">
    <ele>5.5</ele>
    <time>2019-09-15T18:54:36Z</time>
   </trkpt>
   <trkpt lat="51.5052490" lon="-0.0895670">
    <ele>5.4</ele>
    <time>2019-09-15T18:54:37Z</time>
   </trkpt>
   <trkpt lat="51.5052130" lon="-0.0895280">
    <ele>5.4</ele>
    <time>2019-09-15T18:54:38Z</time>
   </trkpt>
   <trkpt lat="51.5051830" lon="-0.0894700">
    <ele>5.4</ele>
    <time>2019-09-15T18:54:39Z</time>
   </trkpt>
   <trkpt lat="51.5051460" lon="-0.0893920">
    <ele>5.4</ele>
    <time>2019-09-15T18:54:41Z</time>
   </trkpt>
   <trkpt lat="51.5051150" lon="-0.0893250">
    <ele>5.4</ele>
    <time>2019-09-15T18:54:43Z</time>
   </trkpt>
   <trkpt lat="51.5050980" lon="-0.0892880">
    <ele>5.4</ele>
    <time>2019-09-15T18:54:44Z</time>
   </trkpt>
   <trkpt lat="51.5050750" lon="-0.0892480">
    <ele>5.4</ele>
    <time>2019-09-15T18:54:45Z</time>
   </trkpt>
   <trkpt lat="51.5050570" lon="-0.0892100">
    <ele>5.4</ele>
    <time>2019-09-15T18:54:46Z</time>
   </trkpt>
   <trkpt lat="51.5050380" lon="-0.0891740">
    <ele>5.4</ele>
    <time>2019-09-15T18:54:47Z</time>
   </trkpt>
   <trkpt lat="51.5049990" lon="-0.0891000">
    <ele>5.4</ele>
    <time>2019-09-15T18:54:49Z</time>
   </trkpt>
   <trkpt lat="51.5049770" lon="-0.0890560">
    <ele>5.4</ele>
    <time>2019-09-15T18:54:50Z</time>
   </trkpt>
   <trkpt lat="51.5049430" lon="-0.0890090">
    <ele>5.4</ele>
    <time>2019-09-15T18:54:52Z</time>
   </trkpt>
   <trkpt lat="51.5049040" lon="-0.0889470">
    <ele>5.4</ele>
    <time>2019-09-15T18:54:54Z</time>
   </trkpt>
   <trkpt lat="51.5048840" lon="-0.0889140">
    <ele>5.4</ele>
    <time>2019-09-15T18:54:55Z</time>
   </trkpt>
   <trkpt lat="51.5048630" lon="-0.0888080">
    <ele>5.4</ele>
    <time>2019-09-15T18:54:57Z</time>
   </trkpt>
   <trkpt lat="51.5048550" lon="-0.0887650">
    <ele>5.4</ele>
    <time>2019-09-15T18:54:58Z</time>
   </trkpt>
   <trkpt lat="51.5048460" lon="-0.0887160">
    <ele>5.4</ele>
    <time>2019-09-15T18:54:59Z</time>
   </trkpt>
   <trkpt lat="51.5048390" lon="-0.0886660">
    <ele>5.3</ele>
    <time>2019-09-15T18:55:00Z</time>
   </trkpt>
   <trkpt lat="51.5048270" lon="-0.0886220">
    <ele>5.3</ele>
    <time>2019-09-15T18:55:01Z</time>
   </trkpt>
   <trkpt lat="51.5048230" lon="-0.0885670">
    <ele>5.3</ele>
    <time>2019-09-15T18:55:02Z</time>
   </trkpt>
   <trkpt lat="51.5048070" lon="-0.0885230">
    <ele>5.3</ele>
    <time>2019-09-15T18:55:03Z</time>
   </trkpt>
   <trkpt lat="51.5047900" lon="-0.0884820">
    <ele>5.2</ele>
    <time>2019-09-15T18:55:04Z</time>
   </trkpt>
   <trkpt lat="51.5047610" lon="-0.0884230">
    <ele>5.2</ele>
    <time>2019-09-15T18:55:06Z</time>
   </trkpt>
   <trkpt lat="51.5047370" lon="-0.0883630">
    <ele>5.2</ele>
    <time>2019-09-15T18:55:08Z</time>
   </trkpt>
   <trkpt lat="51.5047090" lon="-0.0883260">
    <ele>5.1</ele>
    <time>2019-09-15T18:55:10Z</time>
   </trkpt>
   <trkpt lat="51.5046810" lon="-0.0882750">
    <ele>5.1</ele>
    <time>2019-09-15T18:55:12Z</time>
   </trkpt>
   <trkpt lat="51.5046680" lon="-0.0882220">
    <ele>5.0</ele>
    <time>2019-09-15T18:55:13Z</time>
   </trkpt>
   <trkpt lat="51.5046520" lon="-0.0881700">
    <ele>5.0</ele>
    <time>2019-09-15T18:55:14Z</time>
   </trkpt>
   <trkpt lat="51.5046400" lon="-0.0881160">
    <ele>4.9</ele>
    <time>2019-09-15T18:55:15Z</time>
   </trkpt>
   <trkpt lat="51.5046070" lon="-0.0880320">
    <ele>4.8</ele>
    <time>2019-09-15T18:55:17Z</time>
   </trkpt>
   <trkpt lat="51.5045680" lon="-0.0879880">
    <ele>4.7</ele>
    <time>2019-09-15T18:55:19Z</time>
   </trkpt>
   <trkpt lat="51.5045460" lon="-0.0879400">
    <ele>4.7</ele>
    <time>2019-09-15T18:55:21Z</time>
   </trkpt>
   <trkpt lat="51.5045180" lon="-0.0879220">
    <ele>4.6</ele>
    <time>2019-09-15T18:55:22Z</time>
   </trkpt>
   <trkpt lat="51.5044970" lon="-0.0878890">
    <ele>4.6</ele>
    <time>2019-09-15T18:55:23Z</time>
   </trkpt>
   <trkpt lat="51.5044590" lon="-0.0878450">
    <ele>4.5</ele>
    <time>2019-09-15T18:55:25Z</time>
   </trkpt>
   <trkpt lat="51.5044550" lon="-0.0877860">
    <ele>4.4</ele>
    <time>2019-09-15T18:55:26Z</time>
   </trkpt>
   <trkpt lat="51.5044490" lon="-0.0877370">
    <ele>4.4</ele>
    <time>2019-09-15T18:55:27Z</time>
   </trkpt>
   <trkpt lat="51.5044260" lon="-0.0876950">
    <ele>4.3</ele>
    <time>2019-09-15T18:55:28Z</time>
   </trkpt>
   <trkpt lat="51.5043960" lon="-0.0876180">
    <ele>4.2</ele>
    <time>2019-09-15T18:55:30Z</time>
   </trkpt>
   <trkpt lat="51.5043670" lon="-0.0875740">
    <ele>4.2</ele>
    <time>2019-09-15T18:55:32Z</time>
   </trkpt>
   <trkpt lat="51.5043570" lon="-0.0875310">
    <ele>4.2</ele>
    <time>2019-09-15T18:55:33Z</time>
   </trkpt>
   <trkpt lat="51.5043370" lon="-0.0874620">
    <ele>4.1</ele>
    <time>2019-09-15T18:55:35Z</time>
   </trkpt>
   <trkpt lat="51.5043280" lon="-0.0874140">
    <ele>4.1</ele>
    <time>2019-09-15T18:55:36Z</time>
   </trkpt>
   <trkpt lat="51.5042930" lon="-0.0873340">
    <ele>4.1</ele>
    <time>2019-09-15T18:55:38Z</time>
   </trkpt>
   <trkpt lat="51.5042700" lon="-0.0872930">
    <ele>4.0</ele>
    <time>2019-09-15T18:55:39Z</time>
   </trkpt>
   <trkpt lat="51.5042550" lon="-0.0872530">
    <ele>4.0</ele>
    <time>2019-09-15T18:55:40Z</time>
   </trkpt>
   <trkpt lat="51.5042380" lon="-0.0872140">
    <ele>4.0</ele>
    <time>2019-09-15T18:55:41Z</time>
   </trkpt>
   <trkpt lat="51.5042050" lon="-0.0871530">
    <ele>4.0</ele>
    <time>2019-09-15T18:55:43Z</time>
   </trkpt>
   <trkpt lat="51.5041870" lon="-0.0871060">
    <ele>4.0</ele>
    <time>2019-09-15T18:55:44Z</time>
   </trkpt>
   <trkpt lat="51.5041690" lon="-0.0870460">
    <ele>4.0</ele>
    <time>2019-09-15T18:55:46Z</time>
   </trkpt>
   <trkpt lat="51.5041410" lon="-0.0870240">
    <ele>3.9</ele>
    <time>2019-09-15T18:55:48Z</time>
   </trkpt>
   <trkpt lat="51.5041240" lon="-0.0869630">
    <ele>3.9</ele>
    <time>2019-09-15T18:55:50Z</time>
   </trkpt>
   <trkpt lat="51.5041140" lon="-0.0869190">
    <ele>3.9</ele>
    <time>2019-09-15T18:55:52Z</time>
   </trkpt>
   <trkpt lat="51.5041000" lon="-0.0868810">
    <ele>3.9</ele>
    <time>2019-09-15T18:55:53Z</time>
   </trkpt>
   <trkpt lat="51.5040670" lon="-0.0868390">
    <ele>3.9</ele>
    <time>2019-09-15T18:55:55Z</time>
   </trkpt>
   <trkpt lat="51.5040470" lon="-0.0867850">
    <ele>3.9</ele>
    <time>2019-09-15T18:55:57Z</time>
   </trkpt>
   <trkpt lat="51.5040420" lon="-0.0867370">
    <ele>3.9</ele>
    <time>2019-09-15T18:55:58Z</time>
   </trkpt>
   <trkpt lat="51.5040220" lon="-0.0866890">
    <ele>3.9</ele>
    <time>2019-09-15T18:55:59Z</time>
   </trkpt>
   <trkpt lat="51.5039950" lon="-0.0866750">
    <ele>3.9</ele>
    <time>2019-09-15T18:56:00Z</time>
   </trkpt>
   <trkpt lat="51.5039780" lon="-0.0866100">
    <ele>3.9</ele>
    <time>2019-09-15T18:56:02Z</time>
   </trkpt>
   <trkpt lat="51.5039660" lon="-0.0865630">
    <ele>4.0</ele>
    <time>2019-09-15T18:56:03Z</time>
   </trkpt>
   <trkpt lat="51.5039610" lon="-0.0865150">
    <ele>4.0</ele>
    <time>2019-09-15T18:56:04Z</time>
   </trkpt>
   <trkpt lat="51.5039600" lon="-0.0864600">
    <ele>4.0</ele>
    <time>2019-09-15T18:56:06Z</time>
   </trkpt>
   <trkpt lat="51.5039620" lon="-0.0864160">
    <ele>4.1</ele>
    <time>2019-09-15T18:56:08Z</time>
   </trkpt>
   <trkpt lat="51.5039380" lon="-0.0863460">
    <ele>4.1</ele>
    <time>2019-09-15T18:56:10Z</time>
   </trkpt>
   <trkpt lat="51.5039240" lon="-0.0863040">
    <ele>4.1</ele>
    <time>2019-09-15T18:56:11Z</time>
   </trkpt>
   <trkpt lat="51.5038930" lon="-0.0862540">
    <ele>4.2</ele>
    <time>2019-09-15T18:56:13Z</time>
   </trkpt>
   <trkpt lat="51.5038730" lon="-0.0862220">
    <ele>4.2</ele>
    <time>2019-09-15T18:56:14Z</time>
   </trkpt>
   <trkpt lat="51.5038460" lon="-0.0861980">
    <ele>4.2</ele>
    <time>2019-09-15T18:56:15Z</time>
   </trkpt>
   <trkpt lat="51.5038190" lon="-0.0861850">
    <ele>4.2</ele>
    <time>2019-09-15T18:56:16Z</time>
   </trkpt>
   <trkpt lat="51.5037810" lon="-0.0861580">
    <ele>4.2</ele>
    <time>2019-09-15T18:56:18Z</time>
   </trkpt>
   <trkpt lat="51.5037660" lon="-0.0861200">
    <ele>4.2</ele>
    <time>2019-09-15T18:56:20Z</time>
   </trkpt>
   <trkpt lat="51.5037360" lon="-0.0860910">
    <ele>4.2</ele>
    <time>2019-09-15T18:56:22Z</time>
   </trkpt>
   <trkpt lat="51.5037130" lon="-0.0860640">
    <ele>4.2</ele>
    <time>2019-09-15T18:56:23Z</time>
   </trkpt>
   <trkpt lat="51.5036850" lon="-0.0860390">
    <ele>4.2</ele>
    <time>2019-09-15T18:56:24Z</time>
   </trkpt>
   <trkpt lat="51.5036530" lon="-0.0860240">
    <ele>4.2</ele>
    <time>2019-09-15T18:56:26Z</time>
   </trkpt>
   <trkpt lat="51.5036180" lon="-0.0859820">
    <ele>4.2</ele>
    <time>2019-09-15T18:56:28Z</time>
   </trkpt>
   <trkpt lat="51.5035880" lon="-0.0859460">
    <ele>4.2</ele>
    <time>2019-09-15T18:56:29Z</time>
   </trkpt>
   <trkpt lat="51.5035640" lon="-0.0859170">
    <ele>4.2</ele>
    <time>2019-09-15T18:56:30Z</time>
   </trkpt>
   <trkpt lat="51.5035250" lon="-0.0858720">
    <ele>4.2</ele>
    <time>2019-09-15T18:56:32Z</time>
   </trkpt>
   <trkpt lat="51.5034810" lon="-0.0858310">
    <ele>4.2</ele>
    <time>2019-09-15T18:56:34Z</time>
   </trkpt>
   <trkpt lat="51.5034500" lon="-0.0857920">
    <ele>4.3</ele>
    <time>2019-09-15T18:56:36Z</time>
   </trkpt>
   <trkpt lat="51.5034160" lon="-0.0857090">
    <ele>4.3</ele>
    <time>2019-09-15T18:56:38Z</time>
   </trkpt>
   <trkpt lat="51.5033840" lon="-0.0856440">
    <ele>4.3</ele>
    <time>2019-09-15T18:56:40Z</time>
   </trkpt>
   <trkpt lat="51.5033680" lon="-0.0856020">
    <ele>4.3</ele>
    <time>2019-09-15T18:56:42Z</time>
   </trkpt>
   <trkpt lat="51.5033490" lon="-0.0855650">
    <ele>4.3</ele>
    <time>2019-09-15T18:56:43Z</time>
   </trkpt>
   <trkpt lat="51.5033390" lon="-0.0855210">
    <ele>4.3</ele>
    <time>2019-09-15T18:56:44Z</time>
   </trkpt>
   <trkpt lat="51.5033250" lon="-0.0854730">
    <ele>4.4</ele>
    <time>2019-09-15T18:56:45Z</time>
   </trkpt>
   <trkpt lat="51.5032780" lon="-0.0854070">
    <ele>4.4</ele>
    <time>2019-09-15T18:56:47Z</time>
   </trkpt>
   <trkpt lat="51.5032660" lon="-0.0853520">
    <ele>4.4</ele>
    <time>2019-09-15T18:56:48Z</time>
   </trkpt>
   <trkpt lat="51.5032290" lon="-0.0853470">
    <ele>4.4</ele>
    <time>2019-09-15T18:56:50Z</time>
   </trkpt>
   <trkpt lat="51.5031980" lon="-0.0853370">
    <ele>4.4</ele>
    <time>2019-09-15T18:56:53Z</time>
   </trkpt>
   <trkpt lat="51.5031810" lon="-0.0852530">
    <ele>4.4</ele>
    <time>2019-09-15T18:56:55Z</time>
   </trkpt>
   <trkpt lat="51.5031670" lon="-0.0851920">
    <ele>4.4</ele>
    <time>2019-09-15T18:56:56Z</time>
   </trkpt>
   <trkpt lat="51.5031440" lon="-0.0851620">
    <ele>4.4</ele>
    <time>2019-09-15T18:56:57Z</time>
   </trkpt>
   <trkpt lat="51.5031030" lon="-0.0850760">
    <ele>4.3</ele>
    <time>2019-09-15T18:56:59Z</time>
   </trkpt>
   <trkpt lat="51.5030770" lon="-0.0850200">
    <ele>4.3</ele>
    <time>2019-09-15T18:57:00Z</time>
   </trkpt>
   <trkpt lat="51.5030550" lon="-0.0849720">
    <ele>4.3</ele>
    <time>2019-09-15T18:57:01Z</time>
   </trkpt>
   <trkpt lat="51.5030440" lon="-0.0849200">
    <ele>4.3</ele>
    <time>2019-09-15T18:57:02Z</time>
   </trkpt>
   <trkpt lat="51.5030260" lon="-0.0848710">
    <ele>4.3</ele>
    <time>2019-09-15T18:57:03Z</time>
   </trkpt>
   <trkpt lat="51.5030140" lon="-0.0848300">
    <ele>4.3</ele>
    <time>2019-09-15T18:57:04Z</time>
   </trkpt>
   <trkpt lat="51.5030010" lon="-0.0847760">
    <ele>4.3</ele>
    <time>2019-09-15T18:57:05Z</time>
   </trkpt>
   <trkpt lat="51.5029880" lon="-0.0847200">
    <ele>4.2</ele>
    <time>2019-09-15T18:57:06Z</time>
   </trkpt>
   <trkpt lat="51.5029770" lon="-0.0846720">
    <ele>4.2</ele>
    <time>2019-09-15T18:57:07Z</time>
   </trkpt>
   <trkpt lat="51.5029660" lon="-0.0846220">
    <ele>4.2</ele>
    <time>2019-09-15T18:57:08Z</time>
   </trkpt>
   <trkpt lat="51.5029370" lon="-0.0845640">
    <ele>4.2</ele>
    <time>2019-09-15T18:57:10Z</time>
   </trkpt>
   <trkpt lat="51.5029090" lon="-0.0844940">
    <ele>4.2</ele>
    <time>2019-09-15T18:57:12Z</time>
   </trkpt>
   <trkpt lat="51.5028830" lon="-0.0844500">
    <ele>4.2</ele>
    <time>2019-09-15T18:57:14Z</time>
   </trkpt>
   <trkpt lat="51.5028670" lon="-0.0844100">
    <ele>4.2</ele>
    <time>2019-09-15T18:57:15Z</time>
   </trkpt>
   <trkpt lat="51.5028400" lon="-0.0843430">
    <ele>4.2</ele>
    <time>2019-09-15T18:57:17Z</time>
   </trkpt>
   <trkpt lat="51.5028220" lon="-0.0843050">
    <ele>4.1</ele>
    <time>2019-09-15T18:57:18Z</time>
   </trkpt>
   <trkpt lat="51.5028030" lon="-0.0842700">
    <ele>4.1</ele>
    <time>2019-09-15T18:57:19Z</time>
   </trkpt>
   <trkpt lat="51.5027660" lon="-0.0842110">
    <ele>4.2</ele>
    <time>2019-09-15T18:57:21Z</time>
   </trkpt>
   <trkpt lat="51.5027480" lon="-0.0841760">
    <ele>4.2</ele>
    <time>2019-09-15T18:57:22Z</time>
   </trkpt>
   <trkpt lat="51.5027120" lon="-0.0841100">
    <ele>4.2</ele>
    <time>2019-09-15T18:57:24Z</time>
   </trkpt>
   <trkpt lat="51.5026910" lon="-0.0840700">
    <ele>4.2</ele>
    <time>2019-09-15T18:57:25Z</time>
   </trkpt>
   <trkpt lat="51.5026710" lon="-0.0840330">
    <ele>4.2</ele>
    <time>2019-09-15T18:57:26Z</time>
   </trkpt>
   <trkpt lat="51.5026430" lon="-0.0839680">
    <ele>4.2</ele>
    <time>2019-09-15T18:57:28Z</time>
   </trkpt>
   <trkpt lat="51.5026270" lon="-0.0839210">
    <ele>4.2</ele>
    <time>2019-09-15T18:57:29Z</time>
   </trkpt>
   <trkpt lat="51.5026100" lon="-0.0838820">
    <ele>4.2</ele>
    <time>2019-09-15T18:57:30Z</time>
   </trkpt>
   <trkpt lat="51.5025790" lon="-0.0838100">
    <ele>4.1</ele>
    <time>2019-09-15T18:57:32Z</time>
   </trkpt>
   <trkpt lat="51.5025710" lon="-0.0837660">
    <ele>4.1</ele>
    <time>2019-09-15T18:57:33Z</time>
   </trkpt>
   <trkpt lat="51.5025590" lon="-0.0837260">
    <ele>4.0</ele>
    <time>2019-09-15T18:57:34Z</time>
   </trkpt>
   <trkpt lat="51.5025450" lon="-0.0836800">
    <ele>3.9</ele>
    <time>2019-09-15T18:57:35Z</time>
   </trkpt>
   <trkpt lat="51.5025330" lon="-0.0836360">
    <ele>3.8</ele>
    <time>2019-09-15T18:57:36Z</time>
   </trkpt>
   <trkpt lat="51.5025170" lon="-0.0835930">
    <ele>3.7</ele>
    <time>2019-09-15T18:57:37Z</time>
   </trkpt>
   <trkpt lat="51.5025030" lon="-0.0835540">
    <ele>3.6</ele>
    <time>2019-09-15T18:57:38Z</time>
   </trkpt>
   <trkpt lat="51.5024930" lon="-0.0835100">
    <ele>3.6</ele>
    <time>2019-09-15T18:57:39Z</time>
   </trkpt>
   <trkpt lat="51.5024740" lon="-0.0834320">
    <ele>3.5</ele>
    <time>2019-09-15T18:57:41Z</time>
   </trkpt>
   <trkpt lat="51.5024660" lon="-0.0833900">
    <ele>3.5</ele>
    <time>2019-09-15T18:57:42Z</time>
   </trkpt>
   <trkpt lat="51.5024550" lon="-0.0833470">
    <ele>3.5</ele>
    <time>2019-09-15T18:57:43Z</time>
   </trkpt>
   <trkpt lat="51.5024270" lon="-0.0832520">
    <ele>3.4</ele>
    <time>2019-09-15T18:57:45Z</time>
   </trkpt>
   <trkpt lat="51.5024120" lon="-0.0832110">
    <ele>3.4</ele>
    <time>2019-09-15T18:57:46Z</time>
   </trkpt>
   <trkpt lat="51.5024030" lon="-0.0831690">
    <ele>3.4</ele>
    <time>2019-09-15T18:57:47Z</time>
   </trkpt>
   <trkpt lat="51.5023770" lon="-0.0831050">
    <ele>3.3</ele>
    <time>2019-09-15T18:57:49Z</time>
   </trkpt>
   <trkpt lat="51.5023640" lon="-0.0830660">
    <ele>3.3</ele>
    <time>2019-09-15T18:57:50Z</time>
   </trkpt>
   <trkpt lat="51.5023360" lon="-0.0830010">
    <ele>3.3</ele>
    <time>2019-09-15T18:57:52Z</time>
   </trkpt>
   <trkpt lat="51.5023120" lon="-0.0829270">
    <ele>3.2</ele>
    <time>2019-09-15T18:57:54Z</time>
   </trkpt>
   <trkpt lat="51.5023010" lon="-0.0828860">
    <ele>3.2</ele>
    <time>2019-09-15T18:57:55Z</time>
   </trkpt>
   <trkpt lat="51.5022870" lon="-0.0828400">
    <ele>3.2</ele>
    <time>2019-09-15T18:57:57Z</time>
   </trkpt>
   <trkpt lat="51.5036430" lon="-0.0826330">
    <ele>3.9</ele>
    <time>2019-09-15T18:58:48Z</time>
   </trkpt>
   <trkpt lat="51.5036510" lon="-0.0826870">
    <ele>3.9</ele>
    <time>2019-09-15T18:58:49Z</time>
   </trkpt>
   <trkpt lat="51.5036750" lon="-0.0827240">
    <ele>3.9</ele>
    <time>2019-09-15T18:58:50Z</time>
   </trkpt>
   <trkpt lat="51.5037080" lon="-0.0827680">
    <ele>3.9</ele>
    <time>2019-09-15T18:58:52Z</time>
   </trkpt>
   <trkpt lat="51.5037410" lon="-0.0828440">
    <ele>3.9</ele>
    <time>2019-09-15T18:58:54Z</time>
   </trkpt>
   <trkpt lat="51.5037720" lon="-0.0828960">
    <ele>3.9</ele>
    <time>2019-09-15T18:58:55Z</time>
   </trkpt>
   <trkpt lat="51.5037990" lon="-0.0829400">
    <ele>3.9</ele>
    <time>2019-09-15T18:58:56Z</time>
   </trkpt>
   <trkpt lat="51.5038250" lon="-0.0829760">
    <ele>3.8</ele>
    <time>2019-09-15T18:58:57Z</time>
   </trkpt>
   <trkpt lat="51.5038500" lon="-0.0830150">
    <ele>3.8</ele>
    <time>2019-09-15T18:58:58Z</time>
   </trkpt>
   <trkpt lat="51.5038730" lon="-0.0830560">
    <ele>3.7</ele>
    <time>2019-09-15T18:58:59Z</time>
   </trkpt>
   <trkpt lat="51.5038970" lon="-0.0830970">
    <ele>3.7</ele>
    <time>2019-09-15T18:59:00Z</time>
   </trkpt>
   <trkpt lat="51.5039330" lon="-0.0831240">
    <ele>3.7</ele>
    <time>2019-09-15T18:59:01Z</time>
   </trkpt>
   <trkpt lat="51.5039660" lon="-0.0831580">
    <ele>3.7</ele>
    <time>2019-09-15T18:59:02Z</time>
   </trkpt>
   <trkpt lat="51.5039950" lon="-0.0831860">
    <ele>3.7</ele>
    <time>2019-09-15T18:59:03Z</time>
   </trkpt>
   <trkpt lat="51.5040280" lon="-0.0832150">
    <ele>3.7</ele>
    <time>2019-09-15T18:59:04Z</time>
   </trkpt>
   <trkpt lat="51.5040630" lon="-0.0832410">
    <ele>3.7</ele>
    <time>2019-09-15T18:59:05Z</time>
   </trkpt>
   <trkpt lat="51.5040920" lon="-0.0832640">
    <ele>3.6</ele>
    <time>2019-09-15T18:59:06Z</time>
   </trkpt>
   <trkpt lat="51.5041410" lon="-0.0833030">
    <ele>3.6</ele>
    <time>2019-09-15T18:59:08Z</time>
   </trkpt>
   <trkpt lat="51.5041710" lon="-0.0833290">
    <ele>3.6</ele>
    <time>2019-09-15T18:59:10Z</time>
   </trkpt>
   <trkpt lat="51.5042150" lon="-0.0833610">
    <ele>3.6</ele>
    <time>2019-09-15T18:59:12Z</time>
   </trkpt>
   <trkpt lat="51.5042680" lon="-0.0833510">
    <ele>3.6</ele>
    <time>2019-09-15T18:59:14Z</time>
   </trkpt>
   <trkpt lat="51.5042960" lon="-0.0833180">
    <ele>3.7</ele>
    <time>2019-09-15T18:59:15Z</time>
   </trkpt>
   <trkpt lat="51.5042900" lon="-0.0832710">
    <ele>3.7</ele>
    <time>2019-09-15T18:59:17Z</time>
   </trkpt>
   <trkpt lat="51.5042820" lon="-0.0832280">
    <ele>3.7</ele>
    <time>2019-09-15T18:59:19Z</time>
   </trkpt>
   <trkpt lat="51.5042870" lon="-0.0832820">
    <ele>3.7</ele>
    <time>2019-09-15T18:59:24Z</time>
   </trkpt>
   <trkpt lat="51.5042820" lon="-0.0833660">
    <ele>3.7</ele>
    <time>2019-09-15T18:59:26Z</time>
   </trkpt>
   <trkpt lat="51.5042850" lon="-0.0834210">
    <ele>3.7</ele>
    <time>2019-09-15T18:59:27Z</time>
   </trkpt>
   <trkpt lat="51.5042910" lon="-0.0834800">
    <ele>3.7</ele>
    <time>2019-09-15T18:59:28Z</time>
   </trkpt>
   <trkpt lat="51.5042960" lon="-0.0835270">
    <ele>3.8</ele>
    <time>2019-09-15T18:59:29Z</time>
   </trkpt>
   <trkpt lat="51.5043020" lon="-0.0836160">
    <ele>3.8</ele>
    <time>2019-09-15T18:59:31Z</time>
   </trkpt>
   <trkpt lat="51.5043110" lon="-0.0836950">
    <ele>3.8</ele>
    <time>2019-09-15T18:59:33Z</time>
   </trkpt>
   <trkpt lat="51.5043230" lon="-0.0837390">
    <ele>3.9</ele>
    <time>2019-09-15T18:59:35Z</time>
   </trkpt>
   <trkpt lat="51.5043740" lon="-0.0837900">
    <ele>3.9</ele>
    <time>2019-09-15T18:59:37Z</time>
   </trkpt>
   <trkpt lat="51.5044160" lon="-0.0838180">
    <ele>4.1</ele>
    <time>2019-09-15T18:59:39Z</time>
   </trkpt>
   <trkpt lat="51.5044590" lon="-0.0838120">
    <ele>4.1</ele>
    <time>2019-09-15T18:59:40Z</time>
   </trkpt>
   <trkpt lat="51.5044910" lon="-0.0838400">
    <ele>4.1</ele>
    <time>2019-09-15T18:59:41Z</time>
   </trkpt>
   <trkpt lat="51.5045150" lon="-0.0838850">
    <ele>4.1</ele>
    <time>2019-09-15T18:59:42Z</time>
   </trkpt>
   <trkpt lat="51.5045370" lon="-0.0839270">
    <ele>4.1</ele>
    <time>2019-09-15T18:59:43Z</time>
   </trkpt>
   <trkpt lat="51.5045780" lon="-0.0839870">
    <ele>4.2</ele>
    <time>2019-09-15T18:59:45Z</time>
   </trkpt>
   <trkpt lat="51.5046320" lon="-0.0840380">
    <ele>4.2</ele>
    <time>2019-09-15T18:59:47Z</time>
   </trkpt>
   <trkpt lat="51.5046500" lon="-0.0840880">
    <ele>4.2</ele>
    <time>2019-09-15T18:59:49Z</time>
   </trkpt>
   <trkpt lat="51.5046750" lon="-0.0841290">
    <ele>4.2</ele>
    <time>2019-09-15T18:59:51Z</time>
   </trkpt>
   <trkpt lat="51.5047390" lon="-0.0841310">
    <ele>4.2</ele>
    <time>2019-09-15T18:59:52Z</time>
   </trkpt>
   <trkpt lat="51.5047940" lon="-0.0841460">
    <ele>4.2</ele>
    <time>2019-09-15T18:59:53Z</time>
   </trkpt>
   <trkpt lat="51.5048370" lon="-0.0841710">
    <ele>4.2</ele>
    <time>2019-09-15T18:59:54Z</time>
   </trkpt>
   <trkpt lat="51.5048650" lon="-0.0842030">
    <ele>4.1</ele>
    <time>2019-09-15T18:59:55Z</time>
   </trkpt>
   <trkpt lat="51.5049090" lon="-0.0842620">
    <ele>4.1</ele>
    <time>2019-09-15T18:59:57Z</time>
   </trkpt>
   <trkpt lat="51.5049320" lon="-0.0843020">
    <ele>4.1</ele>
    <time>2019-09-15T18:59:58Z</time>
   </trkpt>
   <trkpt lat="51.5049640" lon="-0.0843310">
    <ele>4.1</ele>
    <time>2019-09-15T18:59:59Z</time>
   </trkpt>
   <trkpt lat="51.5049880" lon="-0.0843690">
    <ele>4.0</ele>
    <time>2019-09-15T19:00:00Z</time>
   </trkpt>
   <trkpt lat="51.5050070" lon="-0.0844100">
    <ele>4.0</ele>
    <time>2019-09-15T19:00:01Z</time>
   </trkpt>
   <trkpt lat="51.5050270" lon="-0.0844460">
    <ele>4.0</ele>
    <time>2019-09-15T19:00:02Z</time>
   </trkpt>
   <trkpt lat="51.5050540" lon="-0.0845010">
    <ele>4.0</ele>
    <time>2019-09-15T19:00:04Z</time>
   </trkpt>
   <trkpt lat="51.5050950" lon="-0.0845640">
    <ele>4.0</ele>
    <time>2019-09-15T19:00:06Z</time>
   </trkpt>
   <trkpt lat="51.5051180" lon="-0.0846000">
    <ele>3.9</ele>
    <time>2019-09-15T19:00:07Z</time>
   </trkpt>
   <trkpt lat="51.5051580" lon="-0.0846270">
    <ele>3.9</ele>
    <time>2019-09-15T19:00:08Z</time>
   </trkpt>
   <trkpt lat="51.5052130" lon="-0.0846380">
    <ele>3.9</ele>
    <time>2019-09-15T19:00:09Z</time>
   </trkpt>
   <trkpt lat="51.5052530" lon="-0.0846480">
    <ele>3.8</ele>
    <time>2019-09-15T19:00:10Z</time>
   </trkpt>
   <trkpt lat="51.5052850" lon="-0.0846700">
    <ele>3.8</ele>
    <time>2019-09-15T19:00:11Z</time>
   </trkpt>
   <trkpt lat="51.5053020" lon="-0.0847030">
    <ele>3.8</ele>
    <time>2019-09-15T19:00:12Z</time>
   </trkpt>
   <trkpt lat="51.5053170" lon="-0.0847450">
    <ele>3.8</ele>
    <time>2019-09-15T19:00:13Z</time>
   </trkpt>
   <trkpt lat="51.5053280" lon="-0.0848030">
    <ele>3.7</ele>
    <time>2019-09-15T19:00:14Z</time>
   </trkpt>
   <trkpt lat="51.5053350" lon="-0.0848730">
    <ele>3.7</ele>
    <time>2019-09-15T19:00:15Z</time>
   </trkpt>
   <trkpt lat="51.5053410" lon="-0.0849590">
    <ele>3.7</ele>
    <time>2019-09-15T19:00:16Z</time>
   </trkpt>
   <trkpt lat="51.5053500" lon="-0.0850230">
    <ele>3.7</ele>
    <time>2019-09-15T19:00:17Z</time>
   </trkpt>
   <trkpt lat="51.5053810" lon="-0.0850690">
    <ele>3.6</ele>
    <time>2019-09-15T19:00:18Z</time>
   </trkpt>
   <trkpt lat="51.5054130" lon="-0.0851120">
    <ele>3.6</ele>
    <time>2019-09-15T19:00:19Z</time>
   </trkpt>
   <trkpt lat="51.5054370" lon="-0.0851540">
    <ele>3.6</ele>
    <time>2019-09-15T19:00:20Z</time>
   </trkpt>
   <trkpt lat="51.5054640" lon="-0.0851830">
    <ele>3.6</ele>
    <time>2019-09-15T19:00:21Z</time>
   </trkpt>
   <trkpt lat="51.5054810" lon="-0.0852480">
    <ele>3.6</ele>
    <time>2019-09-15T19:00:23Z</time>
   </trkpt>
   <trkpt lat="51.5054860" lon="-0.0852980">
    <ele>3.6</ele>
    <time>2019-09-15T19:00:24Z</time>
   </trkpt>
   <trkpt lat="51.5055000" lon="-0.0853610">
    <ele>3.6</ele>
    <time>2019-09-15T19:00:26Z</time>
   </trkpt>
   <trkpt lat="51.5055220" lon="-0.0854190">
    <ele>3.6</ele>
    <time>2019-09-15T19:00:28Z</time>
   </trkpt>
   <trkpt lat="51.5055400" lon="-0.0854840">
    <ele>3.6</ele>
    <time>2019-09-15T19:00:30Z</time>
   </trkpt>
   <trkpt lat="51.5055540" lon="-0.0855320">
    <ele>3.6</ele>
    <time>2019-09-15T19:00:31Z</time>
   </trkpt>
   <trkpt lat="51.5055970" lon="-0.0855930">
    <ele>3.7</ele>
    <time>2019-09-15T19:00:33Z</time>
   </trkpt>
   <trkpt lat="51.5056150" lon="-0.0856380">
    <ele>3.8</ele>
    <time>2019-09-15T19:00:34Z</time>
   </trkpt>
   <trkpt lat="51.5056310" lon="-0.0856810">
    <ele>3.8</ele>
    <time>2019-09-15T19:00:35Z</time>
   </trkpt>
   <trkpt lat="51.5056490" lon="-0.0857240">
    <ele>3.8</ele>
    <time>2019-09-15T19:00:36Z</time>
   </trkpt>
   <trkpt lat="51.5056800" lon="-0.0858030">
    <ele>3.9</ele>
    <time>2019-09-15T19:00:38Z</time>
   </trkpt>
   <trkpt lat="51.5056950" lon="-0.0858500">
    <ele>4.0</ele>
    <time>2019-09-15T19:00:39Z</time>
   </trkpt>
   <trkpt lat="51.5057110" lon="-0.0859160">
    <ele>4.0</ele>
    <time>2019-09-15T19:00:41Z</time>
   </trkpt>
   <trkpt lat="51.5057350" lon="-0.0859840">
    <ele>4.1</ele>
    <time>2019-09-15T19:00:43Z</time>
   </trkpt>
   <trkpt lat="51.5057460" lon="-0.0860330">
    <ele>4.2</ele>
    <time>2019-09-15T19:00:44Z</time>
   </trkpt>
   <trkpt lat="51.5057560" lon="-0.0860740">
    <ele>4.2</ele>
    <time>2019-09-15T19:00:45Z</time>
   </trkpt>
   <trkpt lat="51.5057690" lon="-0.0861360">
    <ele>4.3</ele>
    <time>2019-09-15T19:00:47Z</time>
   </trkpt>
   <trkpt lat="51.5057800" lon="-0.0861780">
    <ele>4.3</ele>
    <time>2019-09-15T19:00:48Z</time>
   </trkpt>
   <trkpt lat="51.5058000" lon="-0.0862580">
    <ele>4.4</ele>
    <time>2019-09-15T19:00:50Z</time>
   </trkpt>
   <trkpt lat="51.5058210" lon="-0.0862880">
    <ele>4.5</ele>
    <time>2019-09-15T19:00:52Z</time>
   </trkpt>
   <trkpt lat="51.5058280" lon="-0.0863490">
    <ele>4.6</ele>
    <time>2019-09-15T19:00:54Z</time>
   </trkpt>
   <trkpt lat="51.5058430" lon="-0.0863930">
    <ele>4.6</ele>
    <time>2019-09-15T19:00:57Z</time>
   </trkpt>
   <trkpt lat="51.5058400" lon="-0.0864560">
    <ele>4.6</ele>
    <time>2019-09-15T19:00:59Z</time>
   </trkpt>
   <trkpt lat="51.5058510" lon="-0.0865330">
    <ele>4.7</ele>
    <time>2019-09-15T19:01:01Z</time>
   </trkpt>
   <trkpt lat="51.5058520" lon="-0.0866000">
    <ele>4.7</ele>
    <time>2019-09-15T19:01:02Z</time>
   </trkpt>
   <trkpt lat="51.5058500" lon="-0.0866630">
    <ele>4.7</ele>
    <time>2019-09-15T19:01:03Z</time>
   </trkpt>
   <trkpt lat="51.5058550" lon="-0.0867310">
    <ele>4.8</ele>
    <time>2019-09-15T19:01:04Z</time>
   </trkpt>
   <trkpt lat="51.5058580" lon="-0.0867830">
    <ele>4.8</ele>
    <time>2019-09-15T19:01:05Z</time>
   </trkpt>
   <trkpt lat="51.5058580" lon="-0.0868870">
    <ele>4.9</ele>
    <time>2019-09-15T19:01:06Z</time>
   </trkpt>
   <trkpt lat="51.5058720" lon="-0.0869270">
    <ele>4.9</ele>
    <time>2019-09-15T19:01:07Z</time>
   </trkpt>
   <trkpt lat="51.5059040" lon="-0.0869970">
    <ele>5.0</ele>
    <time>2019-09-15T19:01:09Z</time>
   </trkpt>
   <trkpt lat="51.5058900" lon="-0.0870490">
    <ele>5.0</ele>
    <time>2019-09-15T19:01:10Z</time>
   </trkpt>
   <trkpt lat="51.5058960" lon="-0.0871230">
    <ele>5.1</ele>
    <time>2019-09-15T19:01:13Z</time>
   </trkpt>
   <trkpt lat="51.5058870" lon="-0.0871750">
    <ele>5.2</ele>
    <time>2019-09-15T19:01:16Z</time>
   </trkpt>
   <trkpt lat="51.5058980" lon="-0.0872190">
    <ele>5.3</ele>
    <time>2019-09-15T19:01:18Z</time>
   </trkpt>
   <trkpt lat="51.5058890" lon="-0.0872780">
    <ele>5.4</ele>
    <time>2019-09-15T19:01:20Z</time>
   </trkpt>
   <trkpt lat="51.5058760" lon="-0.0873430">
    <ele>5.6</ele>
    <time>2019-09-15T19:01:22Z</time>
   </trkpt>
   <trkpt lat="51.5058710" lon="-0.0874340">
    <ele>5.5</ele>
    <time>2019-09-15T19:01:26Z</time>
   </trkpt>
   <trkpt lat="51.5058680" lon="-0.0875070">
    <ele>5.4</ele>
    <time>2019-09-15T19:01:29Z</time>
   </trkpt>
   <trkpt lat="51.5058770" lon="-0.0875510">
    <ele>5.4</ele>
    <time>2019-09-15T19:01:31Z</time>
   </trkpt>
  </trkseg>
 </trk>
</gpx>
