<?xml version="1.0" encoding="UTF-8"?>
<gpx creator="StravaGPX" version="1.1" xmlns="http://www.topografix.com/GPX/1/1" xmlns:xsi="http://www.w3.org/2001/XMLSchema-instance" xsi:schemaLocation="http://www.topografix.com/GPX/1/1 http://www.topografix.com/GPX/1/1/gpx.xsd">
 <metadata>
  <time>2019-09-15T19:02:39Z</time>
 </metadata>
 <trk>
  <name>Evening Run</name>
  <type>running</type>
  <trkseg>
   <trkpt lat="51.5062630" lon="-0.0882690">
    <ele>4.6</ele>
    <time>2019-09-15T19:02:39Z</time>
   </trkpt>
   <trkpt lat="51.5062820" lon="-0.0880660">
    <ele>4.6</ele>
    <time>2019-09-15T19:02:48Z</time>
   </trkpt>
   <trkpt lat="51.5063130" lon="-0.0880500">
    <ele>4.5</ele>
    <time>2019-09-15T19:02:52Z</time>
   </trkpt>
   <trkpt lat="51.5063440" lon="-0.0880400">
    <ele>4.5</ele>
    <time>2019-09-15T19:02:55Z</time>
   </trkpt>
   <trkpt lat="51.5063720" lon="-0.0880350">
    <ele>4.5</ele>
    <time>2019-09-15T19:02:58Z</time>
   </trkpt>
   <trkpt lat="51.5064050" lon="-0.0880230">
    <ele>4.5</ele>
    <time>2019-09-15T19:03:00Z</time>
   </trkpt>
   <trkpt lat="51.5064390" lon="-0.0880080">
    <ele>4.5</ele>
    <time>2019-09-15T19:03:02Z</time>
   </trkpt>
   <trkpt lat="51.5064710" lon="-0.0880020">
    <ele>4.5</ele>
    <time>2019-09-15T19:03:05Z</time>
   </trkpt>
   <trkpt lat="51.5065080" lon="-0.0879750">
    <ele>4.5</ele>
    <time>2019-09-15T19:03:08Z</time>
   </trkpt>
   <trkpt lat="51.5065420" lon="-0.0879800">
    <ele>4.4</ele>
    <time>2019-09-15T19:03:11Z</time>
   </trkpt>
   <trkpt lat="51.5065640" lon="-0.0879500">
    <ele>4.4</ele>
    <time>2019-09-15T19:03:13Z</time>
   </trkpt>
   <trkpt lat="51.5065960" lon="-0.0879350">
    <ele>4.4</ele>
    <time>2019-09-15T19:03:15Z</time>
   </trkpt>
   <trkpt lat="51.5066300" lon="-0.0879250">
    <ele>4.4</ele>
    <time>2019-09-15T19:03:17Z</time>
   </trkpt>
   <trkpt lat="51.5066970" lon="-0.0878460">
    <ele>4.1</ele>
    <time>2019-09-15T19:03:19Z</time>
   </trkpt>
   <trkpt lat="51.5067220" lon="-0.0878270">
    <ele>4.0</ele>
    <time>2019-09-15T19:03:20Z</time>
   </trkpt>
   <trkpt lat="51.5067550" lon="-0.0878240">
    <ele>3.9</ele>
    <time>2019-09-15T19:03:21Z</time>
   </trkpt>
   <trkpt lat="51.5067910" lon="-0.0878180">
    <ele>3.8</ele>
    <time>2019-09-15T19:03:22Z</time>
   </trkpt>
   <trkpt lat="51.5068270" lon="-0.0878050">
    <ele>3.6</ele>
    <time>2019-09-15T19:03:23Z</time>
   </trkpt>
   <trkpt lat="51.5068580" lon="-0.0878000">
    <ele>3.5</ele>
    <time>2019-09-15T19:03:24Z</time>
   </trkpt>
   <trkpt lat="51.5069100" lon="-0.0878000">
    <ele>3.4</ele>
    <time>2019-09-15T19:03:26Z</time>
   </trkpt>
   <trkpt lat="51.5069590" lon="-0.0877930">
    <ele>3.3</ele>
    <time>2019-09-15T19:03:27Z</time>
   </trkpt>
   <trkpt lat="51.5070050" lon="-0.0877810">
    <ele>3.2</ele>
    <time>2019-09-15T19:03:28Z</time>
   </trkpt>
   <trkpt lat="51.5070370" lon="-0.0877690">
    <ele>3.2</ele>
    <time>2019-09-15T19:03:29Z</time>
   </trkpt>
   <trkpt lat="51.5070860" lon="-0.0877500">
    <ele>3.0</ele>
    <time>2019-09-15T19:03:31Z</time>
   </trkpt>
   <trkpt lat="51.5071150" lon="-0.0877460">
    <ele>3.0</ele>
    <time>2019-09-15T19:03:32Z</time>
   </trkpt>
   <trkpt lat="51.5071510" lon="-0.0877290">
    <ele>2.9</ele>
    <time>2019-09-15T19:03:34Z</time>
   </trkpt>
   <trkpt lat="51.5071870" lon="-0.0877230">
    <ele>2.8</ele>
    <time>2019-09-15T19:03:35Z</time>
   </trkpt>
   <trkpt lat="51.5072420" lon="-0.0877130">
    <ele>2.7</ele>
    <time>2019-09-15T19:03:37Z</time>
   </trkpt>
   <trkpt lat="51.5072720" lon="-0.0877080">
    <ele>2.6</ele>
    <time>2019-09-15T19:03:38Z</time>
   </trkpt>
   <trkpt lat="51.5072990" lon="-0.0877070">
    <ele>2.5</ele>
    <time>2019-09-15T19:03:39Z</time>
   </trkpt>
   <trkpt lat="51.5073340" lon="-0.0876860">
    <ele>2.4</ele>
    <time>2019-09-15T19:03:40Z</time>
   </trkpt>
   <trkpt lat="51.5073610" lon="-0.0876780">
    <ele>2.3</ele>
    <time>2019-09-15T19:03:41Z</time>
   </trkpt>
   <trkpt lat="51.5074010" lon="-0.0876700">
    <ele>2.2</ele>
    <time>2019-09-15T19:03:43Z</time>
   </trkpt>
   <trkpt lat="51.5074480" lon="-0.0876670">
    <ele>2.0</ele>
    <time>2019-09-15T19:03:45Z</time>
   </trkpt>
   <trkpt lat="51.5075010" lon="-0.0876520">
    <ele>1.8</ele>
    <time>2019-09-15T19:03:47Z</time>
   </trkpt>
   <trkpt lat="51.5075290" lon="-0.0876410">
    <ele>1.7</ele>
    <time>2019-09-15T19:03:48Z</time>
   </trkpt>
   <trkpt lat="51.5075600" lon="-0.0876280">
    <ele>1.6</ele>
    <time>2019-09-15T19:03:49Z</time>
   </trkpt>
   <trkpt lat="51.5075880" lon="-0.0876220">
    <ele>1.5</ele>
    <time>2019-09-15T19:03:50Z</time>
   </trkpt>
   <trkpt lat="51.5076150" lon="-0.0876150">
    <ele>1.4</ele>
    <time>2019-09-15T19:03:51Z</time>
   </trkpt>
   <trkpt lat="51.5076460" lon="-0.0875870">
    <ele>1.3</ele>
    <time>2019-09-15T19:03:53Z</time>
   </trkpt>
   <trkpt lat="51.5076780" lon="-0.0875750">
    <ele>1.3</ele>
    <time>2019-09-15T19:03:54Z</time>
   </trkpt>
   <trkpt lat="51.5077040" lon="-0.0875590">
    <ele>1.2</ele>
    <time>2019-09-15T19:03:55Z</time>
   </trkpt>
   <trkpt lat="51.5077370" lon="-0.0875480">
    <ele>1.1</ele>
    <time>2019-09-15T19:03:56Z</time>
   </trkpt>
   <trkpt lat="51.5077910" lon="-0.0875190">
    <ele>1.0</ele>
    <time>2019-09-15T19:03:58Z</time>
   </trkpt>
   <trkpt lat="51.5078250" lon="-0.0875070">
    <ele>0.9</ele>
    <time>2019-09-15T19:03:59Z</time>
   </trkpt>
   <trkpt lat="51.5078700" lon="-0.0874870">
    <ele>0.8</ele>
    <time>2019-09-15T19:04:01Z</time>
   </trkpt>
   <trkpt lat="51.5079230" lon="-0.0874790">
    <ele>0.7</ele>
    <time>2019-09-15T19:04:03Z</time>
   </trkpt>
   <trkpt lat="51.5079810" lon="-0.0874800">
    <ele>0.5</ele>
    <time>2019-09-15T19:04:05Z</time>
   </trkpt>
   <trkpt lat="51.5080390" lon="-0.0874810">
    <ele>0.5</ele>
    <time>2019-09-15T19:04:07Z</time>
   </trkpt>
   <trkpt lat="51.5080740" lon="-0.0874740">
    <ele>0.4</ele>
    <time>2019-09-15T19:04:08Z</time>
   </trkpt>
   <trkpt lat="51.5081210" lon="-0.0874450">
    <ele>0.3</ele>
    <time>2019-09-15T19:04:10Z</time>
   </trkpt>
   <trkpt lat="51.5081530" lon="-0.0874390">
    <ele>0.3</ele>
    <time>2019-09-15T19:04:11Z</time>
   </trkpt>
   <trkpt lat="51.5081840" lon="-0.0874370">
    <ele>0.2</ele>
    <time>2019-09-15T19:04:12Z</time>
   </trkpt>
   <trkpt lat="51.5082160" lon="-0.0874270">
    <ele>0.2</ele>
    <time>2019-09-15T19:04:13Z</time>
   </trkpt>
   <trkpt lat="51.5082550" lon="-0.0874250">
    <ele>0.1</ele>
    <time>2019-09-15T19:04:14Z</time>
   </trkpt>
   <trkpt lat="51.5083010" lon="-0.0874080">
    <ele>0.0</ele>
    <time>2019-09-15T19:04:16Z</time>
   </trkpt>
   <trkpt lat="51.5083540" lon="-0.0873870">
    <ele>-0.1</ele>
    <time>2019-09-15T19:04:18Z</time>
   </trkpt>
   <trkpt lat="51.5083960" lon="-0.0873610">
    <ele>-0.2</ele>
    <time>2019-09-15T19:04:20Z</time>
   </trkpt>
   <trkpt lat="51.5084480" lon="-0.0873410">
    <ele>-0.2</ele>
    <time>2019-09-15T19:04:22Z</time>
   </trkpt>
   <trkpt lat="51.5084940" lon="-0.0873110">
    <ele>-0.3</ele>
    <time>2019-09-15T19:04:24Z</time>
   </trkpt>
   <trkpt lat="51.5085210" lon="-0.0873070">
    <ele>-0.3</ele>
    <time>2019-09-15T19:04:25Z</time>
   </trkpt>
   <trkpt lat="51.5085520" lon="-0.0872970">
    <ele>-0.3</ele>
    <time>2019-09-15T19:04:26Z</time>
   </trkpt>
   <trkpt lat="51.5085860" lon="-0.0872790">
    <ele>-0.4</ele>
    <time>2019-09-15T19:04:27Z</time>
   </trkpt>
   <trkpt lat="51.5086120" lon="-0.0872720">
    <ele>-0.4</ele>
    <time>2019-09-15T19:04:28Z</time>
   </trkpt>
   <trkpt lat="51.5086630" lon="-0.0872650">
    <ele>-0.4</ele>
    <time>2019-09-15T19:04:30Z</time>
   </trkpt>
   <trkpt lat="51.5086910" lon="-0.0872670">
    <ele>-0.5</ele>
    <time>2019-09-15T19:04:31Z</time>
   </trkpt>
   <trkpt lat="51.5087220" lon="-0.0872480">
    <ele>-0.5</ele>
    <time>2019-09-15T19:04:32Z</time>
   </trkpt>
   <trkpt lat="51.5087530" lon="-0.0872300">
    <ele>-0.5</ele>
    <time>2019-09-15T19:04:33Z</time>
   </trkpt>
   <trkpt lat="51.5087800" lon="-0.0872240">
    <ele>-0.6</ele>
    <time>2019-09-15T19:04:34Z</time>
   </trkpt>
   <trkpt lat="51.5088270" lon="-0.0872180">
    <ele>-0.6</ele>
    <time>2019-09-15T19:04:36Z</time>
   </trkpt>
   <trkpt lat="51.5088550" lon="-0.0872020">
    <ele>-0.6</ele>
    <time>2019-09-15T19:04:37Z</time>
   </trkpt>
   <trkpt lat="51.5089050" lon="-0.0871730">
    <ele>-0.7</ele>
    <time>2019-09-15T19:04:39Z</time>
   </trkpt>
   <trkpt lat="51.5089330" lon="-0.0871540">
    <ele>2.1</ele>
    <time>2019-09-15T19:04:40Z</time>
   </trkpt>
   <trkpt lat="51.5089600" lon="-0.0871470">
    <ele>2.5</ele>
    <time>2019-09-15T19:04:41Z</time>
   </trkpt>
   <trkpt lat="51.5089910" lon="-0.0871370">
    <ele>2.9</ele>
    <time>2019-09-15T19:04:42Z</time>
   </trkpt>
   <trkpt lat="51.5090120" lon="-0.0871070">
    <ele>3.2</ele>
    <time>2019-09-15T19:04:43Z</time>
   </trkpt>
   <trkpt lat="51.5090540" lon="-0.0870760">
    <ele>3.8</ele>
    <time>2019-09-15T19:04:45Z</time>
   </trkpt>
   <trkpt lat="51.5091080" lon="-0.0870500">
    <ele>4.5</ele>
    <time>2019-09-15T19:04:47Z</time>
   </trkpt>
   <trkpt lat="51.5091390" lon="-0.0870250">
    <ele>5.0</ele>
    <time>2019-09-15T19:04:49Z</time>
   </trkpt>
   <trkpt lat="51.5091660" lon="-0.0870000">
    <ele>5.3</ele>
    <time>2019-09-15T19:04:51Z</time>
   </trkpt>
   <trkpt lat="51.5091970" lon="-0.0869860">
    <ele>5.8</ele>
    <time>2019-09-15T19:04:52Z</time>
   </trkpt>
   <trkpt lat="51.5092450" lon="-0.0869840">
    <ele>5.8</ele>
    <time>2019-09-15T19:04:54Z</time>
   </trkpt>
   <trkpt lat="51.5092840" lon="-0.0869580">
    <ele>5.9</ele>
    <time>2019-09-15T19:04:56Z</time>
   </trkpt>
   <trkpt lat="51.5093150" lon="-0.0869500">
    <ele>5.9</ele>
    <time>2019-09-15T19:04:57Z</time>
   </trkpt>
   <trkpt lat="51.5093420" lon="-0.0869490">
    <ele>6.1</ele>
    <time>2019-09-15T19:04:58Z</time>
   </trkpt>
   <trkpt lat="51.5093800" lon="-0.0869400">
    <ele>6.5</ele>
    <time>2019-09-15T19:05:00Z</time>
   </trkpt>
   <trkpt lat="51.5094130" lon="-0.0868400">
    <ele>7.1</ele>
    <time>2019-09-15T19:05:02Z</time>
   </trkpt>
   <trkpt lat="51.5094500" lon="-0.0868030">
    <ele>7.4</ele>
    <time>2019-09-15T19:05:03Z</time>
   </trkpt>
   <trkpt lat="51.5094940" lon="-0.0868170">
    <ele>7.7</ele>
    <time>2019-09-15T19:05:05Z</time>
   </trkpt>
   <trkpt lat="51.5095280" lon="-0.0868000">
    <ele>7.9</ele>
    <time>2019-09-15T19:05:07Z</time>
   </trkpt>
   <trkpt lat="51.5095570" lon="-0.0867940">
    <ele>8.0</ele>
    <time>2019-09-15T19:05:08Z</time>
   </trkpt>
   <trkpt lat="51.5095960" lon="-0.0867980">
    <ele>8.1</ele>
    <time>2019-09-15T19:05:09Z</time>
   </trkpt>
   <trkpt lat="51.5096310" lon="-0.0868010">
    <ele>8.2</ele>
    <time>2019-09-15T19:05:10Z</time>
   </trkpt>
   <trkpt lat="51.5096590" lon="-0.0867980">
    <ele>8.3</ele>
    <time>2019-09-15T19:05:11Z</time>
   </trkpt>
   <trkpt lat="51.5097030" lon="-0.0868000">
    <ele>8.4</ele>
    <time>2019-09-15T19:05:13Z</time>
   </trkpt>
   <trkpt lat="51.5097370" lon="-0.0868030">
    <ele>8.4</ele>
    <time>2019-09-15T19:05:16Z</time>
   </trkpt>
   <trkpt lat="51.5097630" lon="-0.0868180">
    <ele>8.5</ele>
    <time>2019-09-15T19:05:18Z</time>
   </trkpt>
   <trkpt lat="51.5097940" lon="-0.0868280">
    <ele>8.5</ele>
    <time>2019-09-15T19:05:21Z</time>
   </trkpt>
   <trkpt lat="51.5098150" lon="-0.0868680">
    <ele>8.8</ele>
    <time>2019-09-15T19:05:23Z</time>
   </trkpt>
   <trkpt lat="51.5098440" lon="-0.0868800">
    <ele>9.1</ele>
    <time>2019-09-15T19:05:24Z</time>
   </trkpt>
   <trkpt lat="51.5098700" lon="-0.0869000">
    <ele>9.3</ele>
    <time>2019-09-15T19:05:25Z</time>
   </trkpt>
   <trkpt lat="51.5099010" lon="-0.0868990">
    <ele>9.5</ele>
    <time>2019-09-15T19:05:26Z</time>
   </trkpt>
   <trkpt lat="51.5099520" lon="-0.0868860">
    <ele>9.7</ele>
    <time>2019-09-15T19:05:28Z</time>
   </trkpt>
   <trkpt lat="51.5100000" lon="-0.0868000">
    <ele>10.1</ele>
    <time>2019-09-15T19:05:30Z</time>
   </trkpt>
   <trkpt lat="51.5100260" lon="-0.0867360">
    <ele>10.4</ele>
    <time>2019-09-15T19:05:31Z</time>
   </trkpt>
   <trkpt lat="51.5100380" lon="-0.0866900">
    <ele>10.5</ele>
    <time>2019-09-15T19:05:32Z</time>
   </trkpt>
   <trkpt lat="51.5100700" lon="-0.0867120">
    <ele>10.7</ele>
    <time>2019-09-15T19:05:34Z</time>
   </trkpt>
   <trkpt lat="51.5100980" lon="-0.0867530">
    <ele>10.9</ele>
    <time>2019-09-15T19:05:36Z</time>
   </trkpt>
   <trkpt lat="51.5101360" lon="-0.0867720">
    <ele>11.1</ele>
    <time>2019-09-15T19:05:38Z</time>
   </trkpt>
   <trkpt lat="51.5101760" lon="-0.0867890">
    <ele>11.3</ele>
    <time>2019-09-15T19:05:40Z</time>
   </trkpt>
   <trkpt lat="51.5102040" lon="-0.0868390">
    <ele>11.6</ele>
    <time>2019-09-15T19:05:43Z</time>
   </trkpt>
   <trkpt lat="51.5102350" lon="-0.0868680">
    <ele>11.8</ele>
    <time>2019-09-15T19:05:44Z</time>
   </trkpt>
   <trkpt lat="51.5102650" lon="-0.0868890">
    <ele>12.0</ele>
    <time>2019-09-15T19:05:45Z</time>
   </trkpt>
   <trkpt lat="51.5103040" lon="-0.0869290">
    <ele>12.2</ele>
    <time>2019-09-15T19:05:47Z</time>
   </trkpt>
   <trkpt lat="51.5103330" lon="-0.0869590">
    <ele>12.3</ele>
    <time>2019-09-15T19:05:49Z</time>
   </trkpt>
   <trkpt lat="51.5103600" lon="-0.0869950">
    <ele>12.4</ele>
    <time>2019-09-15T19:05:51Z</time>
   </trkpt>
   <trkpt lat="51.5103850" lon="-0.0870130">
    <ele>12.4</ele>
    <time>2019-09-15T19:05:53Z</time>
   </trkpt>
   <trkpt lat="51.5104070" lon="-0.0869840">
    <ele>12.5</ele>
    <time>2019-09-15T19:05:57Z</time>
   </trkpt>
   <trkpt lat="51.5104300" lon="-0.0869540">
    <ele>12.5</ele>
    <time>2019-09-15T19:06:00Z</time>
   </trkpt>
   <trkpt lat="51.5104340" lon="-0.0868970">
    <ele>12.6</ele>
    <time>2019-09-15T19:06:03Z</time>
   </trkpt>
   <trkpt lat="51.5104150" lon="-0.0867800">
    <ele>12.6</ele>
    <time>2019-09-15T19:06:05Z</time>
   </trkpt>
   <trkpt lat="51.5104080" lon="-0.0866600">
    <ele>12.5</ele>
    <time>2019-09-15T19:06:06Z</time>
   </trkpt>
   <trkpt lat="51.5104000" lon="-0.0865570">
    <ele>12.4</ele>
    <time>2019-09-15T19:06:07Z</time>
   </trkpt>
   <trkpt lat="51.5104010" lon="-0.0864490">
    <ele>12.3</ele>
    <time>2019-09-15T19:06:08Z</time>
   </trkpt>
   <trkpt lat="51.5103970" lon="-0.0863980">
    <ele>12.1</ele>
    <time>2019-09-15T19:06:09Z</time>
   </trkpt>
   <trkpt lat="51.5103920" lon="-0.0863360">
    <ele>12.1</ele>
    <time>2019-09-15T19:06:10Z</time>
   </trkpt>
   <trkpt lat="51.5103780" lon="-0.0862760">
    <ele>12.0</ele>
    <time>2019-09-15T19:06:11Z</time>
   </trkpt>
   <trkpt lat="51.5103680" lon="-0.0862170">
    <ele>11.8</ele>
    <time>2019-09-15T19:06:12Z</time>
   </trkpt>
   <trkpt lat="51.5103620" lon="-0.0861650">
    <ele>11.8</ele>
    <time>2019-09-15T19:06:13Z</time>
   </trkpt>
   <trkpt lat="51.5103560" lon="-0.0861060">
    <ele>11.7</ele>
    <time>2019-09-15T19:06:14Z</time>
   </trkpt>
   <trkpt lat="51.5103620" lon="-0.0860510">
    <ele>11.7</ele>
    <time>2019-09-15T19:06:15Z</time>
   </trkpt>
   <trkpt lat="51.5103470" lon="-0.0859710">
    <ele>11.7</ele>
    <time>2019-09-15T19:06:17Z</time>
   </trkpt>
   <trkpt lat="51.5103450" lon="-0.0858790">
    <ele>11.7</ele>
    <time>2019-09-15T19:06:19Z</time>
   </trkpt>
   <trkpt lat="51.5103460" lon="-0.0857860">
    <ele>12.1</ele>
    <time>2019-09-15T19:06:21Z</time>
   </trkpt>
   <trkpt lat="51.5103400" lon="-0.0857150">
    <ele>12.0</ele>
    <time>2019-09-15T19:06:22Z</time>
   </trkpt>
   <trkpt lat="51.5103600" lon="-0.0856640">
    <ele>12.4</ele>
    <time>2019-09-15T19:06:23Z</time>
   </trkpt>
   <trkpt lat="51.5103540" lon="-0.0855800">
    <ele>12.7</ele>
    <time>2019-09-15T19:06:25Z</time>
   </trkpt>
   <trkpt lat="51.5103300" lon="-0.0854930">
    <ele>12.9</ele>
    <time>2019-09-15T19:06:27Z</time>
   </trkpt>
   <trkpt lat="51.5103200" lon="-0.0854510">
    <ele>13.1</ele>
    <time>2019-09-15T19:06:28Z</time>
   </trkpt>
   <trkpt lat="51.5103370" lon="-0.0853890">
    <ele>13.2</ele>
    <time>2019-09-15T19:06:29Z</time>
   </trkpt>
   <trkpt lat="51.5103280" lon="-0.0853350">
    <ele>13.3</ele>
    <time>2019-09-15T19:06:30Z</time>
   </trkpt>
   <trkpt lat="51.5103270" lon="-0.0852810">
    <ele>13.3</ele>
    <time>2019-09-15T19:06:31Z</time>
   </trkpt>
   <trkpt lat="51.5103330" lon="-0.0852350">
    <ele>13.4</ele>
    <time>2019-09-15T19:06:32Z</time>
   </trkpt>
   <trkpt lat="51.5103310" lon="-0.0851870">
    <ele>13.4</ele>
    <time>2019-09-15T19:06:33Z</time>
   </trkpt>
   <trkpt lat="51.5103370" lon="-0.0851320">
    <ele>13.6</ele>
    <time>2019-09-15T19:06:34Z</time>
   </trkpt>
   <trkpt lat="51.5103650" lon="-0.0850330">
    <ele>13.9</ele>
    <time>2019-09-15T19:06:35Z</time>
   </trkpt>
   <trkpt lat="51.5103750" lon="-0.0849760">
    <ele>14.1</ele>
    <time>2019-09-15T19:06:36Z</time>
   </trkpt>
   <trkpt lat="51.5103810" lon="-0.0849180">
    <ele>14.1</ele>
    <time>2019-09-15T19:06:37Z</time>
   </trkpt>
   <trkpt lat="51.5103850" lon="-0.0848740">
    <ele>14.1</ele>
    <time>2019-09-15T19:06:38Z</time>
   </trkpt>
   <trkpt lat="51.5103870" lon="-0.0848000">
    <ele>13.9</ele>
    <time>2019-09-15T19:06:39Z</time>
   </trkpt>
   <trkpt lat="51.5103880" lon="-0.0847310">
    <ele>13.8</ele>
    <time>2019-09-15T19:06:40Z</time>
   </trkpt>
   <trkpt lat="51.5103880" lon="-0.0846850">
    <ele>13.7</ele>
    <time>2019-09-15T19:06:41Z</time>
   </trkpt>
   <trkpt lat="51.5103890" lon="-0.0846360">
    <ele>13.6</ele>
    <time>2019-09-15T19:06:42Z</time>
   </trkpt>
   <trkpt lat="51.5104160" lon="-0.0845760">
    <ele>13.6</ele>
    <time>2019-09-15T19:06:43Z</time>
   </trkpt>
   <trkpt lat="51.5104210" lon="-0.0845210">
    <ele>13.6</ele>
    <time>2019-09-15T19:06:45Z</time>
   </trkpt>
   <trkpt lat="51.5104250" lon="-0.0844700">
    <ele>13.8</ele>
    <time>2019-09-15T19:06:49Z</time>
   </trkpt>
   <trkpt lat="51.5104240" lon="-0.0844210">
    <ele>14.0</ele>
    <time>2019-09-15T19:06:53Z</time>
   </trkpt>
   <trkpt lat="51.5104550" lon="-0.0844000">
    <ele>14.3</ele>
    <time>2019-09-15T19:06:56Z</time>
   </trkpt>
   <trkpt lat="51.5104790" lon="-0.0843700">
    <ele>14.6</ele>
    <time>2019-09-15T19:06:58Z</time>
   </trkpt>
   <trkpt lat="51.5105120" lon="-0.0843590">
    <ele>14.6</ele>
    <time>2019-09-15T19:07:01Z</time>
   </trkpt>
   <trkpt lat="51.5105300" lon="-0.0842970">
    <ele>14.8</ele>
    <time>2019-09-15T19:07:02Z</time>
   </trkpt>
   <trkpt lat="51.5105540" lon="-0.0842700">
    <ele>14.9</ele>
    <time>2019-09-15T19:07:03Z</time>
   </trkpt>
   <trkpt lat="51.5105740" lon="-0.0842160">
    <ele>15.0</ele>
    <time>2019-09-15T19:07:04Z</time>
   </trkpt>
   <trkpt lat="51.5106050" lon="-0.0841610">
    <ele>15.0</ele>
    <time>2019-09-15T19:07:05Z</time>
   </trkpt>
   <trkpt lat="51.5106500" lon="-0.0840710">
    <ele>15.2</ele>
    <time>2019-09-15T19:07:06Z</time>
   </trkpt>
   <trkpt lat="51.5106840" lon="-0.0839790">
    <ele>15.1</ele>
    <time>2019-09-15T19:07:07Z</time>
   </trkpt>
   <trkpt lat="51.5107080" lon="-0.0839050">
    <ele>14.8</ele>
    <time>2019-09-15T19:07:08Z</time>
   </trkpt>
   <trkpt lat="51.5107400" lon="-0.0838510">
    <ele>13.9</ele>
    <time>2019-09-15T19:07:10Z</time>
   </trkpt>
   <trkpt lat="51.5107360" lon="-0.0837730">
    <ele>14.0</ele>
    <time>2019-09-15T19:07:11Z</time>
   </trkpt>
   <trkpt lat="51.5107580" lon="-0.0837430">
    <ele>13.3</ele>
    <time>2019-09-15T19:07:12Z</time>
   </trkpt>
   <trkpt lat="51.5107800" lon="-0.0837090">
    <ele>12.6</ele>
    <time>2019-09-15T19:07:13Z</time>
   </trkpt>
   <trkpt lat="51.5108060" lon="-0.0836580">
    <ele>12.0</ele>
    <time>2019-09-15T19:07:15Z</time>
   </trkpt>
   <trkpt lat="51.5108200" lon="-0.0836090">
    <ele>12.3</ele>
    <time>2019-09-15T19:07:16Z</time>
   </trkpt>
   <trkpt lat="51.5109010" lon="-0.0836080">
    <ele>11.5</ele>
    <time>2019-09-15T19:07:17Z</time>
   </trkpt>
   <trkpt lat="51.5109300" lon="-0.0835560">
    <ele>13.2</ele>
    <time>2019-09-15T19:07:18Z</time>
   </trkpt>
   <trkpt lat="51.5109590" lon="-0.0835110">
    <ele>14.7</ele>
    <time>2019-09-15T19:07:19Z</time>
   </trkpt>
   <trkpt lat="51.5109830" lon="-0.0834850">
    <ele>15.4</ele>
    <time>2019-09-15T19:07:20Z</time>
   </trkpt>
   <trkpt lat="51.5109900" lon="-0.0834430">
    <ele>16.3</ele>
    <time>2019-09-15T19:07:21Z</time>
   </trkpt>
   <trkpt lat="51.5110100" lon="-0.0833680">
    <ele>16.5</ele>
    <time>2019-09-15T19:07:23Z</time>
   </trkpt>
   <trkpt lat="51.5110200" lon="-0.0833260">
    <ele>16.4</ele>
    <time>2019-09-15T19:07:24Z</time>
   </trkpt>
   <trkpt lat="51.5110350" lon="-0.0832760">
    <ele>16.1</ele>
    <time>2019-09-15T19:07:26Z</time>
   </trkpt>
   <trkpt lat="51.5110550" lon="-0.0832270">
    <ele>15.9</ele>
    <time>2019-09-15T19:07:27Z</time>
   </trkpt>
   <trkpt lat="51.5110770" lon="-0.0831740">
    <ele>15.8</ele>
    <time>2019-09-15T19:07:28Z</time>
   </trkpt>
   <trkpt lat="51.5111030" lon="-0.0831100">
    <ele>15.8</ele>
    <time>2019-09-15T19:07:30Z</time>
   </trkpt>
   <trkpt lat="51.5111270" lon="-0.0830690">
    <ele>16.0</ele>
    <time>2019-09-15T19:07:31Z</time>
   </trkpt>
   <trkpt lat="51.5111540" lon="-0.0830020">
    <ele>16.1</ele>
    <time>2019-09-15T19:07:33Z</time>
   </trkpt>
   <trkpt lat="51.5111760" lon="-0.0829560">
    <ele>16.2</ele>
    <time>2019-09-15T19:07:35Z</time>
   </trkpt>
   <trkpt lat="51.5112090" lon="-0.0828880">
    <ele>16.2</ele>
    <time>2019-09-15T19:07:37Z</time>
   </trkpt>
   <trkpt lat="51.5112380" lon="-0.0828090">
    <ele>16.3</ele>
    <time>2019-09-15T19:07:39Z</time>
   </trkpt>
   <trkpt lat="51.5112530" lon="-0.0827620">
    <ele>16.3</ele>
    <time>2019-09-15T19:07:40Z</time>
   </trkpt>
   <trkpt lat="51.5112690" lon="-0.0827100">
    <ele>16.3</ele>
    <time>2019-09-15T19:07:41Z</time>
   </trkpt>
   <trkpt lat="51.5112830" lon="-0.0826510">
    <ele>16.4</ele>
    <time>2019-09-15T19:07:42Z</time>
   </trkpt>
   <trkpt lat="51.5112970" lon="-0.0825920">
    <ele>16.4</ele>
    <time>2019-09-15T19:07:43Z</time>
   </trkpt>
   <trkpt lat="51.5113170" lon="-0.0825440">
    <ele>16.4</ele>
    <time>2019-09-15T19:07:44Z</time>
   </trkpt>
   <trkpt lat="51.5113310" lon="-0.0824980">
    <ele>16.4</ele>
    <time>2019-09-15T19:07:45Z</time>
   </trkpt>
   <trkpt lat="51.5113490" lon="-0.0824480">
    <ele>16.4</ele>
    <time>2019-09-15T19:07:46Z</time>
   </trkpt>
   <trkpt lat="51.5113780" lon="-0.0824070">
    <ele>16.5</ele>
    <time>2019-09-15T19:07:47Z</time>
   </trkpt>
   <trkpt lat="51.5114060" lon="-0.0823620">
    <ele>16.5</ele>
    <time>2019-09-15T19:07:48Z</time>
   </trkpt>
   <trkpt lat="51.5114270" lon="-0.0823100">
    <ele>16.5</ele>
    <time>2019-09-15T19:07:49Z</time>
   </trkpt>
   <trkpt lat="51.5114400" lon="-0.0822630">
    <ele>16.5</ele>
    <time>2019-09-15T19:07:50Z</time>
   </trkpt>
   <trkpt lat="51.5114460" lon="-0.0822150">
    <ele>16.5</ele>
    <time>2019-09-15T19:07:51Z</time>
   </trkpt>
   <trkpt lat="51.5114510" lon="-0.0821670">
    <ele>16.4</ele>
    <time>2019-09-15T19:07:52Z</time>
   </trkpt>
   <trkpt lat="51.5114610" lon="-0.0821230">
    <ele>16.3</ele>
    <time>2019-09-15T19:07:53Z</time>
   </trkpt>
   <trkpt lat="51.5114760" lon="-0.0820780">
    <ele>16.2</ele>
    <time>2019-09-15T19:07:54Z</time>
   </trkpt>
   <trkpt lat="51.5114920" lon="-0.0820240">
    <ele>16.1</ele>
    <time>2019-09-15T19:07:55Z</time>
   </trkpt>
   <trkpt lat="51.5114990" lon="-0.0819580">
    <ele>16.0</ele>
    <time>2019-09-15T19:07:56Z</time>
   </trkpt>
   <trkpt lat="51.5115100" lon="-0.0818860">
    <ele>16.0</ele>
    <time>2019-09-15T19:07:57Z</time>
   </trkpt>
   <trkpt lat="51.5115230" lon="-0.0818380">
    <ele>16.0</ele>
    <time>2019-09-15T19:07:58Z</time>
   </trkpt>
   <trkpt lat="51.5115510" lon="-0.0817660">
    <ele>15.9</ele>
    <time>2019-09-15T19:08:00Z</time>
   </trkpt>
   <trkpt lat="51.5115860" lon="-0.0817330">
    <ele>15.9</ele>
    <time>2019-09-15T19:08:02Z</time>
   </trkpt>
   <trkpt lat="51.5116160" lon="-0.0816790">
    <ele>15.8</ele>
    <time>2019-09-15T19:08:03Z</time>
   </trkpt>
   <trkpt lat="51.5116420" lon="-0.0816050">
    <ele>15.8</ele>
    <time>2019-09-15T19:08:05Z</time>
   </trkpt>
   <trkpt lat="51.5116720" lon="-0.0815420">
    <ele>15.8</ele>
    <time>2019-09-15T19:08:07Z</time>
   </trkpt>
   <trkpt lat="51.5116910" lon="-0.0815060">
    <ele>15.7</ele>
    <time>2019-09-15T19:08:08Z</time>
   </trkpt>
   <trkpt lat="51.5117090" lon="-0.0814650">
    <ele>15.6</ele>
    <time>2019-09-15T19:08:09Z</time>
   </trkpt>
   <trkpt lat="51.5117260" lon="-0.0814270">
    <ele>15.5</ele>
    <time>2019-09-15T19:08:10Z</time>
   </trkpt>
   <trkpt lat="51.5117530" lon="-0.0813770">
    <ele>15.5</ele>
    <time>2019-09-15T19:08:12Z</time>
   </trkpt>
   <trkpt lat="51.5117750" lon="-0.0813250">
    <ele>15.4</ele>
    <time>2019-09-15T19:08:13Z</time>
   </trkpt>
   <trkpt lat="51.5117980" lon="-0.0812860">
    <ele>15.3</ele>
    <time>2019-09-15T19:08:14Z</time>
   </trkpt>
   <trkpt lat="51.5118230" lon="-0.0812480">
    <ele>15.3</ele>
    <time>2019-09-15T19:08:15Z</time>
   </trkpt>
   <trkpt lat="51.5118550" lon="-0.0811870">
    <ele>15.2</ele>
    <time>2019-09-15T19:08:17Z</time>
   </trkpt>
   <trkpt lat="51.5118720" lon="-0.0811530">
    <ele>15.2</ele>
    <time>2019-09-15T19:08:18Z</time>
   </trkpt>
   <trkpt lat="51.5119020" lon="-0.0810800">
    <ele>15.2</ele>
    <time>2019-09-15T19:08:20Z</time>
   </trkpt>
   <trkpt lat="51.5119180" lon="-0.0810370">
    <ele>15.2</ele>
    <time>2019-09-15T19:08:21Z</time>
   </trkpt>
   <trkpt lat="51.5119400" lon="-0.0809960">
    <ele>15.1</ele>
    <time>2019-09-15T19:08:22Z</time>
   </trkpt>
   <trkpt lat="51.5119650" lon="-0.0809560">
    <ele>15.1</ele>
    <time>2019-09-15T19:08:23Z</time>
   </trkpt>
   <trkpt lat="51.5119860" lon="-0.0809250">
    <ele>15.1</ele>
    <time>2019-09-15T19:08:24Z</time>
   </trkpt>
   <trkpt lat="51.5120140" lon="-0.0808750">
    <ele>15.1</ele>
    <time>2019-09-15T19:08:25Z</time>
   </trkpt>
   <trkpt lat="51.5120180" lon="-0.0808310">
    <ele>15.1</ele>
    <time>2019-09-15T19:08:26Z</time>
   </trkpt>
   <trkpt lat="51.5120180" lon="-0.0807840">
    <ele>15.1</ele>
    <time>2019-09-15T19:08:27Z</time>
   </trkpt>
   <trkpt lat="51.5120240" lon="-0.0807390">
    <ele>15.1</ele>
    <time>2019-09-15T19:08:28Z</time>
   </trkpt>
   <trkpt lat="51.5120310" lon="-0.0806960">
    <ele>15.1</ele>
    <time>2019-09-15T19:08:29Z</time>
   </trkpt>
   <trkpt lat="51.5120420" lon="-0.0806390">
    <ele>15.1</ele>
    <time>2019-09-15T19:08:31Z</time>
   </trkpt>
   <trkpt lat="51.5120610" lon="-0.0806010">
    <ele>15.1</ele>
    <time>2019-09-15T19:08:32Z</time>
   </trkpt>
   <trkpt lat="51.5120800" lon="-0.0805600">
    <ele>15.1</ele>
    <time>2019-09-15T19:08:33Z</time>
   </trkpt>
   <trkpt lat="51.5121070" lon="-0.0805100">
    <ele>15.1</ele>
    <time>2019-09-15T19:08:35Z</time>
   </trkpt>
   <trkpt lat="51.5121360" lon="-0.0804320">
    <ele>15.2</ele>
    <time>2019-09-15T19:08:37Z</time>
   </trkpt>
   <trkpt lat="51.5121540" lon="-0.0803960">
    <ele>15.2</ele>
    <time>2019-09-15T19:08:38Z</time>
   </trkpt>
   <trkpt lat="51.5121770" lon="-0.0803270">
    <ele>15.3</ele>
    <time>2019-09-15T19:08:40Z</time>
   </trkpt>
   <trkpt lat="51.5121930" lon="-0.0802780">
    <ele>15.3</ele>
    <time>2019-09-15T19:08:42Z</time>
   </trkpt>
   <trkpt lat="51.5122220" lon="-0.0802510">
    <ele>15.3</ele>
    <time>2019-09-15T19:08:44Z</time>
   </trkpt>
   <trkpt lat="51.5122550" lon="-0.0801910">
    <ele>15.3</ele>
    <time>2019-09-15T19:08:45Z</time>
   </trkpt>
   <trkpt lat="51.5122770" lon="-0.0801580">
    <ele>15.3</ele>
    <time>2019-09-15T19:08:46Z</time>
   </trkpt>
   <trkpt lat="51.5123020" lon="-0.0801270">
    <ele>15.3</ele>
    <time>2019-09-15T19:08:47Z</time>
   </trkpt>
   <trkpt lat="51.5123250" lon="-0.0800720">
    <ele>15.3</ele>
    <time>2019-09-15T19:08:48Z</time>
   </trkpt>
   <trkpt lat="51.5123460" lon="-0.0800400">
    <ele>15.3</ele>
    <time>2019-09-15T19:08:49Z</time>
   </trkpt>
   <trkpt lat="51.5123420" lon="-0.0799570">
    <ele>15.3</ele>
    <time>2019-09-15T19:08:51Z</time>
   </trkpt>
   <trkpt lat="51.5123660" lon="-0.0799260">
    <ele>15.3</ele>
    <time>2019-09-15T19:08:52Z</time>
   </trkpt>
   <trkpt lat="51.5123890" lon="-0.0798920">
    <ele>15.3</ele>
    <time>2019-09-15T19:08:53Z</time>
   </trkpt>
   <trkpt lat="51.5124110" lon="-0.0798600">
    <ele>15.3</ele>
    <time>2019-09-15T19:08:54Z</time>
   </trkpt>
   <trkpt lat="51.5124290" lon="-0.0798270">
    <ele>15.3</ele>
    <time>2019-09-15T19:08:55Z</time>
   </trkpt>
   <trkpt lat="51.5124350" lon="-0.0797800">
    <ele>15.3</ele>
    <time>2019-09-15T19:08:56Z</time>
   </trkpt>
   <trkpt lat="51.5124410" lon="-0.0797320">
    <ele>15.3</ele>
    <time>2019-09-15T19:08:57Z</time>
   </trkpt>
   <trkpt lat="51.5124460" lon="-0.0796840">
    <ele>15.4</ele>
    <time>2019-09-15T19:08:58Z</time>
   </trkpt>
   <trkpt lat="51.5124640" lon="-0.0796510">
    <ele>15.4</ele>
    <time>2019-09-15T19:08:59Z</time>
   </trkpt>
   <trkpt lat="51.5124840" lon="-0.0795990">
    <ele>15.4</ele>
    <time>2019-09-15T19:09:01Z</time>
   </trkpt>
   <trkpt lat="51.5124830" lon="-0.0795340">
    <ele>15.4</ele>
    <time>2019-09-15T19:09:03Z</time>
   </trkpt>
   <trkpt lat="51.5124990" lon="-0.0794780">
    <ele>15.4</ele>
    <time>2019-09-15T19:09:05Z</time>
   </trkpt>
   <trkpt lat="51.5125190" lon="-0.0794320">
    <ele>15.4</ele>
    <time>2019-09-15T19:09:06Z</time>
   </trkpt>
   <trkpt lat="51.5125360" lon="-0.0793800">
    <ele>15.4</ele>
    <time>2019-09-15T19:09:07Z</time>
   </trkpt>
   <trkpt lat="51.5125580" lon="-0.0793310">
    <ele>15.5</ele>
    <time>2019-09-15T19:09:08Z</time>
   </trkpt>
   <trkpt lat="51.5125810" lon="-0.0792770">
    <ele>15.5</ele>
    <time>2019-09-15T19:09:09Z</time>
   </trkpt>
   <trkpt lat="51.5125950" lon="-0.0792150">
    <ele>15.5</ele>
    <time>2019-09-15T19:09:10Z</time>
   </trkpt>
   <trkpt lat="51.5126090" lon="-0.0791570">
    <ele>15.5</ele>
    <time>2019-09-15T19:09:11Z</time>
   </trkpt>
   <trkpt lat="51.5126300" lon="-0.0791080">
    <ele>15.5</ele>
    <time>2019-09-15T19:09:12Z</time>
   </trkpt>
   <trkpt lat="51.5126450" lon="-0.0790490">
    <ele>15.5</ele>
    <time>2019-09-15T19:09:13Z</time>
   </trkpt>
   <trkpt lat="51.5126620" lon="-0.0790130">
    <ele>15.5</ele>
    <time>2019-09-15T19:09:14Z</time>
   </trkpt>
   <trkpt lat="51.5126700" lon="-0.0789400">
    <ele>15.5</ele>
    <time>2019-09-15T19:09:16Z</time>
   </trkpt>
   <trkpt lat="51.5127050" lon="-0.0788940">
    <ele>15.6</ele>
    <time>2019-09-15T19:09:18Z</time>
   </trkpt>
   <trkpt lat="51.5127390" lon="-0.0788290">
    <ele>15.6</ele>
    <time>2019-09-15T19:09:20Z</time>
   </trkpt>
   <trkpt lat="51.5127630" lon="-0.0787510">
    <ele>15.6</ele>
    <time>2019-09-15T19:09:22Z</time>
   </trkpt>
   <trkpt lat="51.5127770" lon="-0.0786860">
    <ele>15.6</ele>
    <time>2019-09-15T19:09:24Z</time>
   </trkpt>
   <trkpt lat="51.5128030" lon="-0.0786350">
    <ele>15.6</ele>
    <time>2019-09-15T19:09:26Z</time>
   </trkpt>
   <trkpt lat="51.5128380" lon="-0.0785680">
    <ele>15.6</ele>
    <time>2019-09-15T19:09:28Z</time>
   </trkpt>
   <trkpt lat="51.5128630" lon="-0.0785440">
    <ele>15.7</ele>
    <time>2019-09-15T19:09:29Z</time>
   </trkpt>
   <trkpt lat="51.5128860" lon="-0.0784720">
    <ele>15.7</ele>
    <time>2019-09-15T19:09:31Z</time>
   </trkpt>
   <trkpt lat="51.5129020" lon="-0.0784320">
    <ele>15.7</ele>
    <time>2019-09-15T19:09:32Z</time>
   </trkpt>
   <trkpt lat="51.5129320" lon="-0.0783900">
    <ele>15.7</ele>
    <time>2019-09-15T19:09:34Z</time>
   </trkpt>
   <trkpt lat="51.5129540" lon="-0.0783550">
    <ele>15.8</ele>
    <time>2019-09-15T19:09:35Z</time>
   </trkpt>
   <trkpt lat="51.5129700" lon="-0.0783090">
    <ele>15.8</ele>
    <time>2019-09-15T19:09:36Z</time>
   </trkpt>
   <trkpt lat="51.5129980" lon="-0.0782520">
    <ele>15.8</ele>
    <time>2019-09-15T19:09:38Z</time>
   </trkpt>
   <trkpt lat="51.5130210" lon="-0.0782120">
    <ele>15.9</ele>
    <time>2019-09-15T19:09:39Z</time>
   </trkpt>
   <trkpt lat="51.5130400" lon="-0.0781790">
    <ele>15.9</ele>
    <time>2019-09-15T19:09:40Z</time>
   </trkpt>
   <trkpt lat="51.5130590" lon="-0.0781440">
    <ele>15.9</ele>
    <time>2019-09-15T19:09:41Z</time>
   </trkpt>
   <trkpt lat="51.5130790" lon="-0.0780990">
    <ele>16.0</ele>
    <time>2019-09-15T19:09:42Z</time>
   </trkpt>
   <trkpt lat="51.5131040" lon="-0.0780650">
    <ele>16.0</ele>
    <time>2019-09-15T19:09:43Z</time>
   </trkpt>
   <trkpt lat="51.5131260" lon="-0.0780160">
    <ele>16.0</ele>
    <time>2019-09-15T19:09:44Z</time>
   </trkpt>
   <trkpt lat="51.5131550" lon="-0.0779690">
    <ele>16.1</ele>
    <time>2019-09-15T19:09:45Z</time>
   </trkpt>
   <trkpt lat="51.5131720" lon="-0.0779290">
    <ele>16.1</ele>
    <time>2019-09-15T19:09:46Z</time>
   </trkpt>
   <trkpt lat="51.5131970" lon="-0.0778680">
    <ele>16.1</ele>
    <time>2019-09-15T19:09:48Z</time>
   </trkpt>
   <trkpt lat="51.5132160" lon="-0.0778150">
    <ele>16.1</ele>
    <time>2019-09-15T19:09:50Z</time>
   </trkpt>
   <trkpt lat="51.5132270" lon="-0.0777480">
    <ele>16.1</ele>
    <time>2019-09-15T19:09:53Z</time>
   </trkpt>
   <trkpt lat="51.5132560" lon="-0.0776980">
    <ele>16.1</ele>
    <time>2019-09-15T19:09:55Z</time>
   </trkpt>
   <trkpt lat="51.5132820" lon="-0.0776430">
    <ele>16.1</ele>
    <time>2019-09-15T19:09:58Z</time>
   </trkpt>
   <trkpt lat="51.5133030" lon="-0.0776120">
    <ele>16.1</ele>
    <time>2019-09-15T19:09:59Z</time>
   </trkpt>
   <trkpt lat="51.5133470" lon="-0.0775660">
    <ele>16.1</ele>
    <time>2019-09-15T19:10:01Z</time>
   </trkpt>
   <trkpt lat="51.5133850" lon="-0.0775050">
    <ele>16.2</ele>
    <time>2019-09-15T19:10:03Z</time>
   </trkpt>
   <trkpt lat="51.5134190" lon="-0.0774370">
    <ele>16.3</ele>
    <time>2019-09-15T19:10:05Z</time>
   </trkpt>
   <trkpt lat="51.5134390" lon="-0.0774060">
    <ele>16.3</ele>
    <time>2019-09-15T19:10:06Z</time>
   </trkpt>
   <trkpt lat="51.5134610" lon="-0.0773220">
    <ele>16.3</ele>
    <time>2019-09-15T19:10:08Z</time>
   </trkpt>
   <trkpt lat="51.5134710" lon="-0.0772790">
    <ele>16.2</ele>
    <time>2019-09-15T19:10:09Z</time>
   </trkpt>
   <trkpt lat="51.5134860" lon="-0.0772420">
    <ele>16.2</ele>
    <time>2019-09-15T19:10:10Z</time>
   </trkpt>
   <trkpt lat="51.5134970" lon="-0.0772010">
    <ele>16.2</ele>
    <time>2019-09-15T19:10:11Z</time>
   </trkpt>
   <trkpt lat="51.5135190" lon="-0.0771520">
    <ele>16.1</ele>
    <time>2019-09-15T19:10:12Z</time>
   </trkpt>
   <trkpt lat="51.5135450" lon="-0.0770760">
    <ele>16.0</ele>
    <time>2019-09-15T19:10:14Z</time>
   </trkpt>
   <trkpt lat="51.5135630" lon="-0.0770350">
    <ele>16.0</ele>
    <time>2019-09-15T19:10:15Z</time>
   </trkpt>
   <trkpt lat="51.5135870" lon="-0.0769750">
    <ele>15.9</ele>
    <time>2019-09-15T19:10:17Z</time>
   </trkpt>
   <trkpt lat="51.5136120" lon="-0.0769110">
    <ele>15.9</ele>
    <time>2019-09-15T19:10:19Z</time>
   </trkpt>
   <trkpt lat="51.5136230" lon="-0.0768580">
    <ele>15.9</ele>
    <time>2019-09-15T19:10:20Z</time>
   </trkpt>
   <trkpt lat="51.5136380" lon="-0.0768080">
    <ele>15.9</ele>
    <time>2019-09-15T19:10:21Z</time>
   </trkpt>
   <trkpt lat="51.5136440" lon="-0.0767600">
    <ele>15.9</ele>
    <time>2019-09-15T19:10:22Z</time>
   </trkpt>
   <trkpt lat="51.5136520" lon="-0.0767130">
    <ele>15.9</ele>
    <time>2019-09-15T19:10:23Z</time>
   </trkpt>
   <trkpt lat="51.5136440" lon="-0.0766610">
    <ele>16.0</ele>
    <time>2019-09-15T19:10:24Z</time>
   </trkpt>
   <trkpt lat="51.5136510" lon="-0.0766130">
    <ele>16.0</ele>
    <time>2019-09-15T19:10:25Z</time>
   </trkpt>
   <trkpt lat="51.5136710" lon="-0.0765380">
    <ele>16.1</ele>
    <time>2019-09-15T19:10:27Z</time>
   </trkpt>
   <trkpt lat="51.5136840" lon="-0.0764810">
    <ele>16.1</ele>
    <time>2019-09-15T19:10:28Z</time>
   </trkpt>
   <trkpt lat="51.5137050" lon="-0.0764030">
    <ele>16.2</ele>
    <time>2019-09-15T19:10:30Z</time>
   </trkpt>
   <trkpt lat="51.5137140" lon="-0.0763440">
    <ele>16.2</ele>
    <time>2019-09-15T19:10:32Z</time>
   </trkpt>
   <trkpt lat="51.5137370" lon="-0.0762850">
    <ele>16.2</ele>
    <time>2019-09-15T19:10:34Z</time>
   </trkpt>
   <trkpt lat="51.5137550" lon="-0.0762150">
    <ele>16.2</ele>
    <time>2019-09-15T19:10:36Z</time>
   </trkpt>
   <trkpt lat="51.5137670" lon="-0.0761740">
    <ele>16.2</ele>
    <time>2019-09-15T19:10:37Z</time>
   </trkpt>
   <trkpt lat="51.5137770" lon="-0.0761310">
    <ele>16.2</ele>
    <time>2019-09-15T19:10:38Z</time>
   </trkpt>
   <trkpt lat="51.5138100" lon="-0.0760480">
    <ele>16.1</ele>
    <time>2019-09-15T19:10:40Z</time>
   </trkpt>
   <trkpt lat="51.5138280" lon="-0.0760040">
    <ele>16.1</ele>
    <time>2019-09-15T19:10:41Z</time>
   </trkpt>
   <trkpt lat="51.5138380" lon="-0.0759610">
    <ele>16.1</ele>
    <time>2019-09-15T19:10:42Z</time>
   </trkpt>
   <trkpt lat="51.5138610" lon="-0.0759240">
    <ele>16.0</ele>
    <time>2019-09-15T19:10:43Z</time>
   </trkpt>
   <trkpt lat="51.5139000" lon="-0.0758880">
    <ele>16.0</ele>
    <time>2019-09-15T19:10:45Z</time>
   </trkpt>
   <trkpt lat="51.5139210" lon="-0.0758610">
    <ele>16.0</ele>
    <time>2019-09-15T19:10:46Z</time>
   </trkpt>
   <trkpt lat="51.5139460" lon="-0.0758330">
    <ele>15.9</ele>
    <time>2019-09-15T19:10:48Z</time>
   </trkpt>
   <trkpt lat="51.5139720" lon="-0.0757800">
    <ele>15.9</ele>
    <time>2019-09-15T19:10:50Z</time>
   </trkpt>
   <trkpt lat="51.5139920" lon="-0.0757400">
    <ele>15.9</ele>
    <time>2019-09-15T19:10:51Z</time>
   </trkpt>
   <trkpt lat="51.5140410" lon="-0.0756690">
    <ele>15.8</ele>
    <time>2019-09-15T19:10:53Z</time>
   </trkpt>
   <trkpt lat="51.5140660" lon="-0.0756180">
    <ele>15.8</ele>
    <time>2019-09-15T19:10:55Z</time>
   </trkpt>
   <trkpt lat="51.5140840" lon="-0.0755680">
    <ele>15.7</ele>
    <time>2019-09-15T19:10:57Z</time>
   </trkpt>
   <trkpt lat="51.5141020" lon="-0.0755200">
    <ele>15.7</ele>
    <time>2019-09-15T19:10:59Z</time>
   </trkpt>
   <trkpt lat="51.5141280" lon="-0.0754670">
    <ele>15.7</ele>
    <time>2019-09-15T19:11:01Z</time>
   </trkpt>
   <trkpt lat="51.5141530" lon="-0.0754330">
    <ele>15.6</ele>
    <time>2019-09-15T19:11:03Z</time>
   </trkpt>
   <trkpt lat="51.5141970" lon="-0.0753760">
    <ele>15.6</ele>
    <time>2019-09-15T19:11:05Z</time>
   </trkpt>
   <trkpt lat="51.5142310" lon="-0.0753270">
    <ele>15.5</ele>
    <time>2019-09-15T19:11:07Z</time>
   </trkpt>
   <trkpt lat="51.5142600" lon="-0.0752760">
    <ele>15.5</ele>
    <time>2019-09-15T19:11:09Z</time>
   </trkpt>
   <trkpt lat="51.5142780" lon="-0.0751960">
    <ele>15.4</ele>
    <time>2019-09-15T19:11:11Z</time>
   </trkpt>
   <trkpt lat="51.5143110" lon="-0.0751660">
    <ele>15.4</ele>
    <time>2019-09-15T19:11:12Z</time>
   </trkpt>
   <trkpt lat="51.5143470" lon="-0.0751340">
    <ele>15.4</ele>
    <time>2019-09-15T19:11:13Z</time>
   </trkpt>
   <trkpt lat="51.5143640" lon="-0.0750990">
    <ele>15.4</ele>
    <time>2019-09-15T19:11:14Z</time>
   </trkpt>
   <trkpt lat="51.5143930" lon="-0.0750560">
    <ele>15.3</ele>
    <time>2019-09-15T19:11:16Z</time>
   </trkpt>
   <trkpt lat="51.5144050" lon="-0.0750110">
    <ele>15.3</ele>
    <time>2019-09-15T19:11:17Z</time>
   </trkpt>
   <trkpt lat="51.5144310" lon="-0.0749680">
    <ele>15.3</ele>
    <time>2019-09-15T19:11:19Z</time>
   </trkpt>
   <trkpt lat="51.5144620" lon="-0.0749370">
    <ele>15.3</ele>
    <time>2019-09-15T19:11:21Z</time>
   </trkpt>
   <trkpt lat="51.5144920" lon="-0.0748880">
    <ele>15.3</ele>
    <time>2019-09-15T19:11:23Z</time>
   </trkpt>
   <trkpt lat="51.5144970" lon="-0.0748220">
    <ele>15.3</ele>
    <time>2019-09-15T19:11:24Z</time>
   </trkpt>
   <trkpt lat="51.5145210" lon="-0.0747680">
    <ele>15.2</ele>
    <time>2019-09-15T19:11:26Z</time>
   </trkpt>
   <trkpt lat="51.5145380" lon="-0.0746990">
    <ele>15.2</ele>
    <time>2019-09-15T19:11:28Z</time>
   </trkpt>
   <trkpt lat="51.5145490" lon="-0.0746530">
    <ele>15.2</ele>
    <time>2019-09-15T19:11:30Z</time>
   </trkpt>
   <trkpt lat="51.5145700" lon="-0.0745910">
    <ele>15.2</ele>
    <time>2019-09-15T19:11:33Z</time>
   </trkpt>
   <trkpt lat="51.5145650" lon="-0.0745440">
    <ele>15.2</ele>
    <time>2019-09-15T19:11:35Z</time>
   </trkpt>
   <trkpt lat="51.5145310" lon="-0.0745560">
    <ele>15.2</ele>
    <time>2019-09-15T19:11:38Z</time>
   </trkpt>
   <trkpt lat="51.5146370" lon="-0.0741240">
    <ele>15.3</ele>
    <time>2019-09-15T19:12:09Z</time>
   </trkpt>
   <trkpt lat="51.5146520" lon="-0.0740490">
    <ele>15.3</ele>
    <time>2019-09-15T19:12:11Z</time>
   </trkpt>
   <trkpt lat="51.5146480" lon="-0.0739990">
    <ele>15.3</ele>
    <time>2019-09-15T19:12:12Z</time>
   </trkpt>
   <trkpt lat="51.5146450" lon="-0.0739520">
    <ele>15.1</ele>
    <time>2019-09-15T19:12:13Z</time>
   </trkpt>
   <trkpt lat="51.5146400" lon="-0.0738650">
    <ele>15.0</ele>
    <time>2019-09-15T19:12:15Z</time>
   </trkpt>
   <trkpt lat="51.5146510" lon="-0.0738120">
    <ele>15.0</ele>
    <time>2019-09-15T19:12:16Z</time>
   </trkpt>
   <trkpt lat="51.5146620" lon="-0.0737550">
    <ele>15.0</ele>
    <time>2019-09-15T19:12:17Z</time>
   </trkpt>
   <trkpt lat="51.5146760" lon="-0.0736870">
    <ele>14.9</ele>
    <time>2019-09-15T19:12:18Z</time>
   </trkpt>
   <trkpt lat="51.5147020" lon="-0.0736210">
    <ele>14.8</ele>
    <time>2019-09-15T19:12:19Z</time>
   </trkpt>
   <trkpt lat="51.5147180" lon="-0.0735610">
    <ele>14.8</ele>
    <time>2019-09-15T19:12:20Z</time>
   </trkpt>
   <trkpt lat="51.5147330" lon="-0.0734920">
    <ele>14.7</ele>
    <time>2019-09-15T19:12:21Z</time>
   </trkpt>
   <trkpt lat="51.5147480" lon="-0.0734480">
    <ele>14.7</ele>
    <time>2019-09-15T19:12:22Z</time>
   </trkpt>
   <trkpt lat="51.5147630" lon="-0.0733930">
    <ele>14.7</ele>
    <time>2019-09-15T19:12:23Z</time>
   </trkpt>
   <trkpt lat="51.5147810" lon="-0.0733420">
    <ele>14.6</ele>
    <time>2019-09-15T19:12:24Z</time>
   </trkpt>
   <trkpt lat="51.5147940" lon="-0.0732920">
    <ele>14.6</ele>
    <time>2019-09-15T19:12:25Z</time>
   </trkpt>
   <trkpt lat="51.5148040" lon="-0.0732440">
    <ele>14.6</ele>
    <time>2019-09-15T19:12:26Z</time>
   </trkpt>
   <trkpt lat="51.5148220" lon="-0.0731960">
    <ele>14.6</ele>
    <time>2019-09-15T19:12:27Z</time>
   </trkpt>
   <trkpt lat="51.5148380" lon="-0.0731530">
    <ele>14.5</ele>
    <time>2019-09-15T19:12:28Z</time>
   </trkpt>
   <trkpt lat="51.5148590" lon="-0.0731040">
    <ele>14.5</ele>
    <time>2019-09-15T19:12:29Z</time>
   </trkpt>
   <trkpt lat="51.5148930" lon="-0.0730220">
    <ele>14.4</ele>
    <time>2019-09-15T19:12:31Z</time>
   </trkpt>
   <trkpt lat="51.5149160" lon="-0.0729580">
    <ele>14.4</ele>
    <time>2019-09-15T19:12:33Z</time>
   </trkpt>
   <trkpt lat="51.5149500" lon="-0.0728720">
    <ele>14.4</ele>
    <time>2019-09-15T19:12:35Z</time>
   </trkpt>
   <trkpt lat="51.5149660" lon="-0.0728240">
    <ele>14.3</ele>
    <time>2019-09-15T19:12:36Z</time>
   </trkpt>
   <trkpt lat="51.5150030" lon="-0.0727510">
    <ele>14.3</ele>
    <time>2019-09-15T19:12:38Z</time>
   </trkpt>
   <trkpt lat="51.5150290" lon="-0.0727060">
    <ele>14.3</ele>
    <time>2019-09-15T19:12:39Z</time>
   </trkpt>
   <trkpt lat="51.5150480" lon="-0.0726670">
    <ele>14.2</ele>
    <time>2019-09-15T19:12:40Z</time>
   </trkpt>
   <trkpt lat="51.5150690" lon="-0.0726060">
    <ele>14.2</ele>
    <time>2019-09-15T19:12:41Z</time>
   </trkpt>
   <trkpt lat="51.5150870" lon="-0.0725540">
    <ele>14.1</ele>
    <time>2019-09-15T19:12:42Z</time>
   </trkpt>
   <trkpt lat="51.5151000" lon="-0.0725080">
    <ele>14.1</ele>
    <time>2019-09-15T19:12:43Z</time>
   </trkpt>
   <trkpt lat="51.5151210" lon="-0.0724310">
    <ele>14.1</ele>
    <time>2019-09-15T19:12:45Z</time>
   </trkpt>
   <trkpt lat="51.5151440" lon="-0.0723490">
    <ele>14.1</ele>
    <time>2019-09-15T19:12:47Z</time>
   </trkpt>
   <trkpt lat="51.5151640" lon="-0.0722910">
    <ele>14.0</ele>
    <time>2019-09-15T19:12:48Z</time>
   </trkpt>
   <trkpt lat="51.5151920" lon="-0.0722250">
    <ele>14.0</ele>
    <time>2019-09-15T19:12:49Z</time>
   </trkpt>
   <trkpt lat="51.5152100" lon="-0.0721700">
    <ele>14.0</ele>
    <time>2019-09-15T19:12:50Z</time>
   </trkpt>
   <trkpt lat="51.5152210" lon="-0.0721070">
    <ele>14.0</ele>
    <time>2019-09-15T19:12:51Z</time>
   </trkpt>
   <trkpt lat="51.5152280" lon="-0.0720330">
    <ele>14.0</ele>
    <time>2019-09-15T19:12:52Z</time>
   </trkpt>
   <trkpt lat="51.5152380" lon="-0.0719800">
    <ele>13.9</ele>
    <time>2019-09-15T19:12:53Z</time>
   </trkpt>
   <trkpt lat="51.5152420" lon="-0.0719280">
    <ele>13.9</ele>
    <time>2019-09-15T19:12:54Z</time>
   </trkpt>
   <trkpt lat="51.5152460" lon="-0.0718800">
    <ele>13.9</ele>
    <time>2019-09-15T19:12:55Z</time>
   </trkpt>
   <trkpt lat="51.5152640" lon="-0.0718190">
    <ele>14.0</ele>
    <time>2019-09-15T19:12:58Z</time>
   </trkpt>
   <trkpt lat="51.5152680" lon="-0.0717390">
    <ele>13.9</ele>
    <time>2019-09-15T19:13:00Z</time>
   </trkpt>
   <trkpt lat="51.5152780" lon="-0.0716560">
    <ele>13.9</ele>
    <time>2019-09-15T19:13:02Z</time>
   </trkpt>
   <trkpt lat="51.5152940" lon="-0.0716020">
    <ele>13.8</ele>
    <time>2019-09-15T19:13:03Z</time>
   </trkpt>
   <trkpt lat="51.5152920" lon="-0.0715460">
    <ele>13.8</ele>
    <time>2019-09-15T19:13:05Z</time>
   </trkpt>
   <trkpt lat="51.5153010" lon="-0.0714730">
    <ele>13.8</ele>
    <time>2019-09-15T19:13:07Z</time>
   </trkpt>
   <trkpt lat="51.5153210" lon="-0.0714250">
    <ele>13.7</ele>
    <time>2019-09-15T19:13:08Z</time>
   </trkpt>
   <trkpt lat="51.5153370" lon="-0.0713810">
    <ele>13.7</ele>
    <time>2019-09-15T19:13:09Z</time>
   </trkpt>
   <trkpt lat="51.5153510" lon="-0.0713300">
    <ele>13.7</ele>
    <time>2019-09-15T19:13:10Z</time>
   </trkpt>
   <trkpt lat="51.5153650" lon="-0.0712820">
    <ele>13.6</ele>
    <time>2019-09-15T19:13:11Z</time>
   </trkpt>
   <trkpt lat="51.5153810" lon="-0.0712360">
    <ele>13.6</ele>
    <time>2019-09-15T19:13:12Z</time>
   </trkpt>
   <trkpt lat="51.5154040" lon="-0.0711550">
    <ele>13.6</ele>
    <time>2019-09-15T19:13:14Z</time>
   </trkpt>
   <trkpt lat="51.5154250" lon="-0.0710760">
    <ele>13.5</ele>
    <time>2019-09-15T19:13:16Z</time>
   </trkpt>
   <trkpt lat="51.5154350" lon="-0.0710310">
    <ele>13.5</ele>
    <time>2019-09-15T19:13:17Z</time>
   </trkpt>
   <trkpt lat="51.5154450" lon="-0.0709880">
    <ele>13.5</ele>
    <time>2019-09-15T19:13:18Z</time>
   </trkpt>
   <trkpt lat="51.5154680" lon="-0.0709360">
    <ele>13.5</ele>
    <time>2019-09-15T19:13:19Z</time>
   </trkpt>
   <trkpt lat="51.5154940" lon="-0.0708850">
    <ele>13.5</ele>
    <time>2019-09-15T19:13:20Z</time>
   </trkpt>
   <trkpt lat="51.5155430" lon="-0.0708500">
    <ele>13.5</ele>
    <time>2019-09-15T19:13:21Z</time>
   </trkpt>
   <trkpt lat="51.5155940" lon="-0.0707940">
    <ele>13.4</ele>
    <time>2019-09-15T19:13:22Z</time>
   </trkpt>
   <trkpt lat="51.5156200" lon="-0.0707290">
    <ele>13.4</ele>
    <time>2019-09-15T19:13:24Z</time>
   </trkpt>
   <trkpt lat="51.5156340" lon="-0.0706880">
    <ele>13.4</ele>
    <time>2019-09-15T19:13:25Z</time>
   </trkpt>
   <trkpt lat="51.5156620" lon="-0.0706180">
    <ele>13.5</ele>
    <time>2019-09-15T19:13:27Z</time>
   </trkpt>
   <trkpt lat="51.5156870" lon="-0.0705670">
    <ele>13.5</ele>
    <time>2019-09-15T19:13:28Z</time>
   </trkpt>
   <trkpt lat="51.5157150" lon="-0.0705190">
    <ele>13.5</ele>
    <time>2019-09-15T19:13:29Z</time>
   </trkpt>
   <trkpt lat="51.5157390" lon="-0.0704670">
    <ele>13.4</ele>
    <time>2019-09-15T19:13:30Z</time>
   </trkpt>
   <trkpt lat="51.5157630" lon="-0.0704210">
    <ele>13.4</ele>
    <time>2019-09-15T19:13:31Z</time>
   </trkpt>
   <trkpt lat="51.5157860" lon="-0.0703810">
    <ele>13.4</ele>
    <time>2019-09-15T19:13:32Z</time>
   </trkpt>
   <trkpt lat="51.5158100" lon="-0.0703380">
    <ele>13.4</ele>
    <time>2019-09-15T19:13:33Z</time>
   </trkpt>
   <trkpt lat="51.5158340" lon="-0.0702940">
    <ele>13.4</ele>
    <time>2019-09-15T19:13:34Z</time>
   </trkpt>
   <trkpt lat="51.5158530" lon="-0.0702460">
    <ele>13.4</ele>
    <time>2019-09-15T19:13:35Z</time>
   </trkpt>
   <trkpt lat="51.5158690" lon="-0.0702010">
    <ele>13.4</ele>
    <time>2019-09-15T19:13:36Z</time>
   </trkpt>
   <trkpt lat="51.5158880" lon="-0.0701500">
    <ele>13.4</ele>
    <time>2019-09-15T19:13:37Z</time>
   </trkpt>
   <trkpt lat="51.5159100" lon="-0.0701010">
    <ele>13.4</ele>
    <time>2019-09-15T19:13:38Z</time>
   </trkpt>
   <trkpt lat="51.5159320" lon="-0.0700540">
    <ele>13.4</ele>
    <time>2019-09-15T19:13:39Z</time>
   </trkpt>
   <trkpt lat="51.5159550" lon="-0.0700120">
    <ele>13.4</ele>
    <time>2019-09-15T19:13:40Z</time>
   </trkpt>
   <trkpt lat="51.5159760" lon="-0.0699610">
    <ele>13.4</ele>
    <time>2019-09-15T19:13:41Z</time>
   </trkpt>
   <trkpt lat="51.5160010" lon="-0.0699220">
    <ele>13.4</ele>
    <time>2019-09-15T19:13:42Z</time>
   </trkpt>
   <trkpt lat="51.5160250" lon="-0.0698750">
    <ele>13.4</ele>
    <time>2019-09-15T19:13:43Z</time>
   </trkpt>
   <trkpt lat="51.5160490" lon="-0.0698020">
    <ele>13.4</ele>
    <time>2019-09-15T19:13:45Z</time>
   </trkpt>
   <trkpt lat="51.5160620" lon="-0.0697520">
    <ele>13.4</ele>
    <time>2019-09-15T19:13:46Z</time>
   </trkpt>
   <trkpt lat="51.5160800" lon="-0.0696790">
    <ele>13.4</ele>
    <time>2019-09-15T19:13:48Z</time>
   </trkpt>
   <trkpt lat="51.5160980" lon="-0.0696320">
    <ele>13.4</ele>
    <time>2019-09-15T19:13:49Z</time>
   </trkpt>
   <trkpt lat="51.5161190" lon="-0.0696040">
    <ele>13.4</ele>
    <time>2019-09-15T19:13:50Z</time>
   </trkpt>
   <trkpt lat="51.5161560" lon="-0.0695500">
    <ele>13.4</ele>
    <time>2019-09-15T19:13:52Z</time>
   </trkpt>
   <trkpt lat="51.5161800" lon="-0.0694910">
    <ele>13.4</ele>
    <time>2019-09-15T19:13:53Z</time>
   </trkpt>
   <trkpt lat="51.5162000" lon="-0.0694460">
    <ele>13.4</ele>
    <time>2019-09-15T19:13:54Z</time>
   </trkpt>
   <trkpt lat="51.5162160" lon="-0.0694000">
    <ele>13.4</ele>
    <time>2019-09-15T19:13:55Z</time>
   </trkpt>
   <trkpt lat="51.5162360" lon="-0.0693490">
    <ele>13.4</ele>
    <time>2019-09-15T19:13:56Z</time>
   </trkpt>
   <trkpt lat="51.5162550" lon="-0.0693040">
    <ele>13.4</ele>
    <time>2019-09-15T19:13:57Z</time>
   </trkpt>
   <trkpt lat="51.5162810" lon="-0.0692610">
    <ele>13.4</ele>
    <time>2019-09-15T19:13:58Z</time>
   </trkpt>
   <trkpt lat="51.5163060" lon="-0.0692120">
    <ele>13.3</ele>
    <time>2019-09-15T19:13:59Z</time>
   </trkpt>
   <trkpt lat="51.5163290" lon="-0.0691770">
    <ele>13.3</ele>
    <time>2019-09-15T19:14:00Z</time>
   </trkpt>
   <trkpt lat="51.5163550" lon="-0.0691220">
    <ele>13.3</ele>
    <time>2019-09-15T19:14:01Z</time>
   </trkpt>
   <trkpt lat="51.5163720" lon="-0.0690870">
    <ele>13.3</ele>
    <time>2019-09-15T19:14:02Z</time>
   </trkpt>
   <trkpt lat="51.5163910" lon="-0.0690450">
    <ele>13.3</ele>
    <time>2019-09-15T19:14:03Z</time>
   </trkpt>
   <trkpt lat="51.5164150" lon="-0.0689940">
    <ele>13.3</ele>
    <time>2019-09-15T19:14:04Z</time>
   </trkpt>
   <trkpt lat="51.5164410" lon="-0.0689500">
    <ele>13.3</ele>
    <time>2019-09-15T19:14:05Z</time>
   </trkpt>
   <trkpt lat="51.5164660" lon="-0.0689080">
    <ele>13.3</ele>
    <time>2019-09-15T19:14:06Z</time>
   </trkpt>
   <trkpt lat="51.5164890" lon="-0.0688680">
    <ele>13.3</ele>
    <time>2019-09-15T19:14:07Z</time>
   </trkpt>
   <trkpt lat="51.5165180" lon="-0.0688330">
    <ele>13.4</ele>
    <time>2019-09-15T19:14:08Z</time>
   </trkpt>
   <trkpt lat="51.5165450" lon="-0.0687980">
    <ele>13.4</ele>
    <time>2019-09-15T19:14:09Z</time>
   </trkpt>
   <trkpt lat="51.5165660" lon="-0.0687540">
    <ele>13.4</ele>
    <time>2019-09-15T19:14:10Z</time>
   </trkpt>
   <trkpt lat="51.5165930" lon="-0.0687070">
    <ele>13.4</ele>
    <time>2019-09-15T19:14:11Z</time>
   </trkpt>
   <trkpt lat="51.5166060" lon="-0.0686580">
    <ele>13.4</ele>
    <time>2019-09-15T19:14:12Z</time>
   </trkpt>
   <trkpt lat="51.5166210" lon="-0.0686210">
    <ele>13.4</ele>
    <time>2019-09-15T19:14:13Z</time>
   </trkpt>
   <trkpt lat="51.5166370" lon="-0.0685800">
    <ele>13.4</ele>
    <time>2019-09-15T19:14:14Z</time>
   </trkpt>
   <trkpt lat="51.5166580" lon="-0.0685400">
    <ele>13.4</ele>
    <time>2019-09-15T19:14:15Z</time>
   </trkpt>
   <trkpt lat="51.5166810" lon="-0.0685010">
    <ele>13.4</ele>
    <time>2019-09-15T19:14:16Z</time>
   </trkpt>
   <trkpt lat="51.5167050" lon="-0.0684630">
    <ele>13.4</ele>
    <time>2019-09-15T19:14:17Z</time>
   </trkpt>
   <trkpt lat="51.5167220" lon="-0.0684200">
    <ele>13.4</ele>
    <time>2019-09-15T19:14:18Z</time>
   </trkpt>
   <trkpt lat="51.5167370" lon="-0.0683640">
    <ele>13.4</ele>
    <time>2019-09-15T19:14:19Z</time>
   </trkpt>
   <trkpt lat="51.5167440" lon="-0.0683170">
    <ele>13.4</ele>
    <time>2019-09-15T19:14:20Z</time>
   </trkpt>
   <trkpt lat="51.5167630" lon="-0.0682490">
    <ele>13.5</ele>
    <time>2019-09-15T19:14:22Z</time>
   </trkpt>
   <trkpt lat="51.5167760" lon="-0.0681690">
    <ele>13.5</ele>
    <time>2019-09-15T19:14:24Z</time>
   </trkpt>
   <trkpt lat="51.5167830" lon="-0.0681250">
    <ele>13.5</ele>
    <time>2019-09-15T19:14:25Z</time>
   </trkpt>
   <trkpt lat="51.5167880" lon="-0.0680780">
    <ele>13.5</ele>
    <time>2019-09-15T19:14:26Z</time>
   </trkpt>
   <trkpt lat="51.5167960" lon="-0.0680290">
    <ele>13.5</ele>
    <time>2019-09-15T19:14:27Z</time>
   </trkpt>
   <trkpt lat="51.5168080" lon="-0.0679900">
    <ele>13.5</ele>
    <time>2019-09-15T19:14:28Z</time>
   </trkpt>
   <trkpt lat="51.5168270" lon="-0.0679370">
    <ele>13.5</ele>
    <time>2019-09-15T19:14:29Z</time>
   </trkpt>
   <trkpt lat="51.5168680" lon="-0.0678660">
    <ele>13.5</ele>
    <time>2019-09-15T19:14:30Z</time>
   </trkpt>
   <trkpt lat="51.5169010" lon="-0.0678080">
    <ele>13.5</ele>
    <time>2019-09-15T19:14:31Z</time>
   </trkpt>
   <trkpt lat="51.5169370" lon="-0.0677290">
    <ele>13.5</ele>
    <time>2019-09-15T19:14:33Z</time>
   </trkpt>
   <trkpt lat="51.5169460" lon="-0.0676710">
    <ele>13.4</ele>
    <time>2019-09-15T19:14:34Z</time>
   </trkpt>
   <trkpt lat="51.5169590" lon="-0.0676050">
    <ele>13.4</ele>
    <time>2019-09-15T19:14:35Z</time>
   </trkpt>
   <trkpt lat="51.5169690" lon="-0.0675480">
    <ele>13.4</ele>
    <time>2019-09-15T19:14:36Z</time>
   </trkpt>
   <trkpt lat="51.5169920" lon="-0.0674840">
    <ele>13.4</ele>
    <time>2019-09-15T19:14:37Z</time>
   </trkpt>
   <trkpt lat="51.5170130" lon="-0.0674170">
    <ele>13.4</ele>
    <time>2019-09-15T19:14:38Z</time>
   </trkpt>
   <trkpt lat="51.5170310" lon="-0.0673560">
    <ele>13.4</ele>
    <time>2019-09-15T19:14:39Z</time>
   </trkpt>
   <trkpt lat="51.5170480" lon="-0.0672970">
    <ele>13.4</ele>
    <time>2019-09-15T19:14:40Z</time>
   </trkpt>
   <trkpt lat="51.5170700" lon="-0.0672630">
    <ele>13.4</ele>
    <time>2019-09-15T19:14:41Z</time>
   </trkpt>
   <trkpt lat="51.5170930" lon="-0.0672220">
    <ele>13.4</ele>
    <time>2019-09-15T19:14:42Z</time>
   </trkpt>
   <trkpt lat="51.5171130" lon="-0.0671730">
    <ele>13.5</ele>
    <time>2019-09-15T19:14:43Z</time>
   </trkpt>
   <trkpt lat="51.5171350" lon="-0.0671350">
    <ele>13.5</ele>
    <time>2019-09-15T19:14:44Z</time>
   </trkpt>
   <trkpt lat="51.5171500" lon="-0.0670800">
    <ele>13.5</ele>
    <time>2019-09-15T19:14:45Z</time>
   </trkpt>
   <trkpt lat="51.5171750" lon="-0.0670310">
    <ele>13.5</ele>
    <time>2019-09-15T19:14:46Z</time>
   </trkpt>
   <trkpt lat="51.5172020" lon="-0.0669730">
    <ele>13.5</ele>
    <time>2019-09-15T19:14:47Z</time>
   </trkpt>
   <trkpt lat="51.5172210" lon="-0.0669180">
    <ele>13.5</ele>
    <time>2019-09-15T19:14:48Z</time>
   </trkpt>
   <trkpt lat="51.5172420" lon="-0.0668760">
    <ele>13.4</ele>
    <time>2019-09-15T19:14:49Z</time>
   </trkpt>
   <trkpt lat="51.5172650" lon="-0.0668280">
    <ele>13.4</ele>
    <time>2019-09-15T19:14:50Z</time>
   </trkpt>
   <trkpt lat="51.5172870" lon="-0.0667760">
    <ele>13.4</ele>
    <time>2019-09-15T19:14:51Z</time>
   </trkpt>
   <trkpt lat="51.5173120" lon="-0.0667070">
    <ele>13.3</ele>
    <time>2019-09-15T19:14:53Z</time>
   </trkpt>
   <trkpt lat="51.5173440" lon="-0.0666360">
    <ele>13.3</ele>
    <time>2019-09-15T19:14:55Z</time>
   </trkpt>
   <trkpt lat="51.5173690" lon="-0.0665780">
    <ele>13.3</ele>
    <time>2019-09-15T19:14:57Z</time>
   </trkpt>
   <trkpt lat="51.5173970" lon="-0.0665400">
    <ele>13.3</ele>
    <time>2019-09-15T19:14:58Z</time>
   </trkpt>
   <trkpt lat="51.5174160" lon="-0.0664920">
    <ele>13.3</ele>
    <time>2019-09-15T19:14:59Z</time>
   </trkpt>
   <trkpt lat="51.5174400" lon="-0.0664210">
    <ele>13.3</ele>
    <time>2019-09-15T19:15:01Z</time>
   </trkpt>
   <trkpt lat="51.5174530" lon="-0.0663820">
    <ele>13.3</ele>
    <time>2019-09-15T19:15:02Z</time>
   </trkpt>
   <trkpt lat="51.5174720" lon="-0.0663270">
    <ele>13.3</ele>
    <time>2019-09-15T19:15:03Z</time>
   </trkpt>
   <trkpt lat="51.5174800" lon="-0.0662670">
    <ele>13.3</ele>
    <time>2019-09-15T19:15:04Z</time>
   </trkpt>
   <trkpt lat="51.5175000" lon="-0.0662240">
    <ele>13.2</ele>
    <time>2019-09-15T19:15:05Z</time>
   </trkpt>
   <trkpt lat="51.5175140" lon="-0.0661770">
    <ele>13.2</ele>
    <time>2019-09-15T19:15:06Z</time>
   </trkpt>
   <trkpt lat="51.5175330" lon="-0.0661370">
    <ele>13.2</ele>
    <time>2019-09-15T19:15:07Z</time>
   </trkpt>
   <trkpt lat="51.5175540" lon="-0.0660950">
    <ele>13.2</ele>
    <time>2019-09-15T19:15:08Z</time>
   </trkpt>
   <trkpt lat="51.5175730" lon="-0.0660340">
    <ele>13.2</ele>
    <time>2019-09-15T19:15:09Z</time>
   </trkpt>
   <trkpt lat="51.5175810" lon="-0.0659860">
    <ele>13.1</ele>
    <time>2019-09-15T19:15:10Z</time>
   </trkpt>
   <trkpt lat="51.5175970" lon="-0.0659390">
    <ele>13.1</ele>
    <time>2019-09-15T19:15:11Z</time>
   </trkpt>
   <trkpt lat="51.5176120" lon="-0.0658900">
    <ele>13.1</ele>
    <time>2019-09-15T19:15:12Z</time>
   </trkpt>
   <trkpt lat="51.5176270" lon="-0.0658490">
    <ele>13.1</ele>
    <time>2019-09-15T19:15:13Z</time>
   </trkpt>
   <trkpt lat="51.5176460" lon="-0.0658080">
    <ele>13.1</ele>
    <time>2019-09-15T19:15:14Z</time>
   </trkpt>
   <trkpt lat="51.5176730" lon="-0.0657650">
    <ele>13.1</ele>
    <time>2019-09-15T19:15:15Z</time>
   </trkpt>
   <trkpt lat="51.5176860" lon="-0.0657120">
    <ele>13.0</ele>
    <time>2019-09-15T19:15:16Z</time>
   </trkpt>
   <trkpt lat="51.5177140" lon="-0.0656350">
    <ele>13.0</ele>
    <time>2019-09-15T19:15:18Z</time>
   </trkpt>
   <trkpt lat="51.5177270" lon="-0.0655950">
    <ele>13.1</ele>
    <time>2019-09-15T19:15:19Z</time>
   </trkpt>
   <trkpt lat="51.5177460" lon="-0.0655140">
    <ele>13.1</ele>
    <time>2019-09-15T19:15:21Z</time>
   </trkpt>
   <trkpt lat="51.5177580" lon="-0.0654740">
    <ele>13.1</ele>
    <time>2019-09-15T19:15:22Z</time>
   </trkpt>
   <trkpt lat="51.5177820" lon="-0.0654130">
    <ele>13.1</ele>
    <time>2019-09-15T19:15:24Z</time>
   </trkpt>
   <trkpt lat="51.5177890" lon="-0.0653620">
    <ele>13.1</ele>
    <time>2019-09-15T19:15:25Z</time>
   </trkpt>
   <trkpt lat="51.5178140" lon="-0.0653160">
    <ele>13.1</ele>
    <time>2019-09-15T19:15:27Z</time>
   </trkpt>
   <trkpt lat="51.5178330" lon="-0.0652780">
    <ele>13.1</ele>
    <time>2019-09-15T19:15:28Z</time>
   </trkpt>
   <trkpt lat="51.5178810" lon="-0.0652860">
    <ele>13.2</ele>
    <time>2019-09-15T19:15:30Z</time>
   </trkpt>
   <trkpt lat="51.5179050" lon="-0.0652420">
    <ele>13.2</ele>
    <time>2019-09-15T19:15:32Z</time>
   </trkpt>
   <trkpt lat="51.5179220" lon="-0.0651820">
    <ele>13.2</ele>
    <time>2019-09-15T19:15:34Z</time>
   </trkpt>
   <trkpt lat="51.5179320" lon="-0.0650970">
    <ele>13.2</ele>
    <time>2019-09-15T19:15:36Z</time>
   </trkpt>
   <trkpt lat="51.5179400" lon="-0.0650540">
    <ele>13.3</ele>
    <time>2019-09-15T19:15:37Z</time>
   </trkpt>
   <trkpt lat="51.5179560" lon="-0.0649760">
    <ele>13.2</ele>
    <time>2019-09-15T19:15:39Z</time>
   </trkpt>
   <trkpt lat="51.5179500" lon="-0.0649330">
    <ele>13.1</ele>
    <time>2019-09-15T19:15:40Z</time>
   </trkpt>
   <trkpt lat="51.5179540" lon="-0.0648580">
    <ele>13.1</ele>
    <time>2019-09-15T19:15:42Z</time>
   </trkpt>
   <trkpt lat="51.5179770" lon="-0.0647880">
    <ele>13.0</ele>
    <time>2019-09-15T19:15:44Z</time>
   </trkpt>
   <trkpt lat="51.5179910" lon="-0.0647210">
    <ele>13.0</ele>
    <time>2019-09-15T19:15:46Z</time>
   </trkpt>
   <trkpt lat="51.5180170" lon="-0.0646490">
    <ele>12.9</ele>
    <time>2019-09-15T19:15:48Z</time>
   </trkpt>
   <trkpt lat="51.5180330" lon="-0.0645950">
    <ele>12.9</ele>
    <time>2019-09-15T19:15:49Z</time>
   </trkpt>
   <trkpt lat="51.5180490" lon="-0.0645530">
    <ele>12.9</ele>
    <time>2019-09-15T19:15:50Z</time>
   </trkpt>
   <trkpt lat="51.5180740" lon="-0.0644770">
    <ele>12.9</ele>
    <time>2019-09-15T19:15:52Z</time>
   </trkpt>
   <trkpt lat="51.5180900" lon="-0.0644040">
    <ele>12.9</ele>
    <time>2019-09-15T19:15:54Z</time>
   </trkpt>
   <trkpt lat="51.5181020" lon="-0.0643620">
    <ele>12.9</ele>
    <time>2019-09-15T19:15:55Z</time>
   </trkpt>
   <trkpt lat="51.5181140" lon="-0.0643130">
    <ele>12.9</ele>
    <time>2019-09-15T19:15:56Z</time>
   </trkpt>
   <trkpt lat="51.5181240" lon="-0.0642660">
    <ele>12.9</ele>
    <time>2019-09-15T19:15:57Z</time>
   </trkpt>
   <trkpt lat="51.5181360" lon="-0.0642210">
    <ele>12.9</ele>
    <time>2019-09-15T19:15:58Z</time>
   </trkpt>
   <trkpt lat="51.5181570" lon="-0.0641450">
    <ele>12.9</ele>
    <time>2019-09-15T19:16:00Z</time>
   </trkpt>
   <trkpt lat="51.5181740" lon="-0.0640980">
    <ele>12.9</ele>
    <time>2019-09-15T19:16:01Z</time>
   </trkpt>
   <trkpt lat="51.5182010" lon="-0.0640150">
    <ele>12.9</ele>
    <time>2019-09-15T19:16:03Z</time>
   </trkpt>
   <trkpt lat="51.5182160" lon="-0.0639700">
    <ele>12.9</ele>
    <time>2019-09-15T19:16:04Z</time>
   </trkpt>
   <trkpt lat="51.5182250" lon="-0.0639260">
    <ele>12.9</ele>
    <time>2019-09-15T19:16:05Z</time>
   </trkpt>
   <trkpt lat="51.5182370" lon="-0.0638860">
    <ele>12.9</ele>
    <time>2019-09-15T19:16:06Z</time>
   </trkpt>
   <trkpt lat="51.5182490" lon="-0.0638450">
    <ele>12.9</ele>
    <time>2019-09-15T19:16:07Z</time>
   </trkpt>
   <trkpt lat="51.5182630" lon="-0.0638070">
    <ele>12.9</ele>
    <time>2019-09-15T19:16:08Z</time>
   </trkpt>
   <trkpt lat="51.5182770" lon="-0.0637680">
    <ele>12.9</ele>
    <time>2019-09-15T19:16:09Z</time>
   </trkpt>
   <trkpt lat="51.5182990" lon="-0.0637020">
    <ele>12.9</ele>
    <time>2019-09-15T19:16:11Z</time>
   </trkpt>
   <trkpt lat="51.5183210" lon="-0.0636410">
    <ele>12.9</ele>
    <time>2019-09-15T19:16:13Z</time>
   </trkpt>
   <trkpt lat="51.5183380" lon="-0.0635610">
    <ele>13.0</ele>
    <time>2019-09-15T19:16:15Z</time>
   </trkpt>
   <trkpt lat="51.5183570" lon="-0.0634990">
    <ele>13.0</ele>
    <time>2019-09-15T19:16:17Z</time>
   </trkpt>
   <trkpt lat="51.5183730" lon="-0.0634630">
    <ele>13.0</ele>
    <time>2019-09-15T19:16:18Z</time>
   </trkpt>
   <trkpt lat="51.5183850" lon="-0.0634120">
    <ele>13.0</ele>
    <time>2019-09-15T19:16:19Z</time>
   </trkpt>
   <trkpt lat="51.5183840" lon="-0.0633590">
    <ele>13.0</ele>
    <time>2019-09-15T19:16:20Z</time>
   </trkpt>
   <trkpt lat="51.5183930" lon="-0.0633140">
    <ele>13.1</ele>
    <time>2019-09-15T19:16:21Z</time>
   </trkpt>
   <trkpt lat="51.5183930" lon="-0.0632700">
    <ele>13.1</ele>
    <time>2019-09-15T19:16:22Z</time>
   </trkpt>
   <trkpt lat="51.5183980" lon="-0.0632210">
    <ele>13.1</ele>
    <time>2019-09-15T19:16:23Z</time>
   </trkpt>
   <trkpt lat="51.5184010" lon="-0.0631630">
    <ele>13.1</ele>
    <time>2019-09-15T19:16:24Z</time>
   </trkpt>
   <trkpt lat="51.5184200" lon="-0.0631030">
    <ele>13.2</ele>
    <time>2019-09-15T19:16:26Z</time>
   </trkpt>
   <trkpt lat="51.5184330" lon="-0.0630560">
    <ele>13.2</ele>
    <time>2019-09-15T19:16:29Z</time>
   </trkpt>
   <trkpt lat="51.5184450" lon="-0.0630110">
    <ele>13.2</ele>
    <time>2019-09-15T19:16:31Z</time>
   </trkpt>
   <trkpt lat="51.5184590" lon="-0.0629550">
    <ele>13.2</ele>
    <time>2019-09-15T19:16:33Z</time>
   </trkpt>
   <trkpt lat="51.5184730" lon="-0.0629090">
    <ele>13.2</ele>
    <time>2019-09-15T19:16:35Z</time>
   </trkpt>
   <trkpt lat="51.5184880" lon="-0.0628670">
    <ele>13.1</ele>
    <time>2019-09-15T19:16:37Z</time>
   </trkpt>
   <trkpt lat="51.5185140" lon="-0.0628460">
    <ele>13.1</ele>
    <time>2019-09-15T19:16:41Z</time>
   </trkpt>
   <trkpt lat="51.5185480" lon="-0.0628440">
    <ele>13.1</ele>
    <time>2019-09-15T19:16:45Z</time>
   </trkpt>
   <trkpt lat="51.5185860" lon="-0.0628570">
    <ele>13.1</ele>
    <time>2019-09-15T19:16:48Z</time>
   </trkpt>
  </trkseg>
 </trk>
</gpx>
