<?xml version="1.0" encoding="UTF-8"?>
<gpx creator="StravaGPX" version="1.1" xmlns="http://www.topografix.com/GPX/1/1" xmlns:xsi="http://www.w3.org/2001/XMLSchema-instance" xsi:schemaLocation="http://www.topografix.com/GPX/1/1 http://www.topografix.com/GPX/1/1/gpx.xsd">
 <metadata>
  <time>2022-08-18T16:34:10Z</time>
 </metadata>
 <trk>
  <name>Afternoon Run</name>
  <type>running</type>
  <trkseg>
   <trkpt lat="52.2137580" lon="0.1316610">
    <ele>7.7</ele>
    <time>2022-08-18T16:34:10Z</time>
   </trkpt>
   <trkpt lat="52.2137420" lon="0.1316600">
    <ele>7.7</ele>
    <time>2022-08-18T16:34:11Z</time>
   </trkpt>
   <trkpt lat="52.2137360" lon="0.1316570">
    <ele>7.7</ele>
    <time>2022-08-18T16:34:12Z</time>
   </trkpt>
   <trkpt lat="52.2137320" lon="0.1316510">
    <ele>7.7</ele>
    <time>2022-08-18T16:34:13Z</time>
   </trkpt>
   <trkpt lat="52.2137280" lon="0.1316450">
    <ele>7.7</ele>
    <time>2022-08-18T16:34:14Z</time>
   </trkpt>
   <trkpt lat="52.2137120" lon="0.1316400">
    <ele>7.7</ele>
    <time>2022-08-18T16:34:15Z</time>
   </trkpt>
   <trkpt lat="52.2137020" lon="0.1316350">
    <ele>7.7</ele>
    <time>2022-08-18T16:34:16Z</time>
   </trkpt>
   <trkpt lat="52.2136920" lon="0.1316300">
    <ele>7.7</ele>
    <time>2022-08-18T16:34:17Z</time>
   </trkpt>
   <trkpt lat="52.2136640" lon="0.1316170">
    <ele>7.7</ele>
    <time>2022-08-18T16:34:18Z</time>
   </trkpt>
   <trkpt lat="52.2136270" lon="0.1315900">
    <ele>7.7</ele>
    <time>2022-08-18T16:34:19Z</time>
   </trkpt>
   <trkpt lat="52.2136200" lon="0.1315820">
    <ele>7.7</ele>
    <time>2022-08-18T16:34:20Z</time>
   </trkpt>
   <trkpt lat="52.2136000" lon="0.1315820">
    <ele>7.7</ele>
    <time>2022-08-18T16:34:21Z</time>
   </trkpt>
   <trkpt lat="52.2135890" lon="0.1315870">
    <ele>7.7</ele>
    <time>2022-08-18T16:34:22Z</time>
   </trkpt>
   <trkpt lat="52.2135720" lon="0.1315880">
    <ele>7.7</ele>
    <time>2022-08-18T16:34:23Z</time>
   </trkpt>
   <trkpt lat="52.2135460" lon="0.1315750">
    <ele>7.7</ele>
    <time>2022-08-18T16:34:24Z</time>
   </trkpt>
   <trkpt lat="52.2135140" lon="0.1315640">
    <ele>7.7</ele>
    <time>2022-08-18T16:34:25Z</time>
   </trkpt>
   <trkpt lat="52.2134710" lon="0.1315620">
    <ele>7.7</ele>
    <time>2022-08-18T16:34:26Z</time>
   </trkpt>
   <trkpt lat="52.2134330" lon="0.1315570">
    <ele>7.7</ele>
    <time>2022-08-18T16:34:27Z</time>
   </trkpt>
   <trkpt lat="52.2133960" lon="0.1315400">
    <ele>7.7</ele>
    <time>2022-08-18T16:34:28Z</time>
   </trkpt>
   <trkpt lat="52.2133640" lon="0.1315280">
    <ele>7.6</ele>
    <time>2022-08-18T16:34:29Z</time>
   </trkpt>
   <trkpt lat="52.2133330" lon="0.1315190">
    <ele>7.6</ele>
    <time>2022-08-18T16:34:30Z</time>
   </trkpt>
   <trkpt lat="52.2133000" lon="0.1315220">
    <ele>7.6</ele>
    <time>2022-08-18T16:34:31Z</time>
   </trkpt>
   <trkpt lat="52.2132650" lon="0.1315250">
    <ele>7.6</ele>
    <time>2022-08-18T16:34:32Z</time>
   </trkpt>
   <trkpt lat="52.2132260" lon="0.1315270">
    <ele>7.6</ele>
    <time>2022-08-18T16:34:33Z</time>
   </trkpt>
   <trkpt lat="52.2131860" lon="0.1315410">
    <ele>7.5</ele>
    <time>2022-08-18T16:34:34Z</time>
   </trkpt>
   <trkpt lat="52.2131570" lon="0.1315370">
    <ele>7.5</ele>
    <time>2022-08-18T16:34:35Z</time>
   </trkpt>
   <trkpt lat="52.2131280" lon="0.1315440">
    <ele>7.5</ele>
    <time>2022-08-18T16:34:36Z</time>
   </trkpt>
   <trkpt lat="52.2130960" lon="0.1315330">
    <ele>7.5</ele>
    <time>2022-08-18T16:34:37Z</time>
   </trkpt>
   <trkpt lat="52.2130670" lon="0.1315260">
    <ele>7.5</ele>
    <time>2022-08-18T16:34:38Z</time>
   </trkpt>
   <trkpt lat="52.2130330" lon="0.1315270">
    <ele>7.5</ele>
    <time>2022-08-18T16:34:39Z</time>
   </trkpt>
   <trkpt lat="52.2129960" lon="0.1315250">
    <ele>7.5</ele>
    <time>2022-08-18T16:34:40Z</time>
   </trkpt>
   <trkpt lat="52.2129530" lon="0.1315080">
    <ele>7.5</ele>
    <time>2022-08-18T16:34:41Z</time>
   </trkpt>
   <trkpt lat="52.2129360" lon="0.1315030">
    <ele>7.5</ele>
    <time>2022-08-18T16:34:42Z</time>
   </trkpt>
   <trkpt lat="52.2129080" lon="0.1314970">
    <ele>7.5</ele>
    <time>2022-08-18T16:34:43Z</time>
   </trkpt>
   <trkpt lat="52.2128770" lon="0.1314980">
    <ele>7.5</ele>
    <time>2022-08-18T16:34:44Z</time>
   </trkpt>
   <trkpt lat="52.2128490" lon="0.1314910">
    <ele>7.4</ele>
    <time>2022-08-18T16:34:45Z</time>
   </trkpt>
   <trkpt lat="52.2128140" lon="0.1314860">
    <ele>7.4</ele>
    <time>2022-08-18T16:34:46Z</time>
   </trkpt>
   <trkpt lat="52.2127800" lon="0.1314810">
    <ele>7.4</ele>
    <time>2022-08-18T16:34:47Z</time>
   </trkpt>
   <trkpt lat="52.2127450" lon="0.1314920">
    <ele>7.4</ele>
    <time>2022-08-18T16:34:48Z</time>
   </trkpt>
   <trkpt lat="52.2127210" lon="0.1315570">
    <ele>7.4</ele>
    <time>2022-08-18T16:34:49Z</time>
   </trkpt>
   <trkpt lat="52.2127090" lon="0.1316150">
    <ele>7.4</ele>
    <time>2022-08-18T16:34:50Z</time>
   </trkpt>
   <trkpt lat="52.2127080" lon="0.1316820">
    <ele>7.4</ele>
    <time>2022-08-18T16:34:51Z</time>
   </trkpt>
   <trkpt lat="52.2127040" lon="0.1317360">
    <ele>7.4</ele>
    <time>2022-08-18T16:34:52Z</time>
   </trkpt>
   <trkpt lat="52.2126910" lon="0.1317890">
    <ele>7.3</ele>
    <time>2022-08-18T16:34:53Z</time>
   </trkpt>
   <trkpt lat="52.2126860" lon="0.1318400">
    <ele>7.3</ele>
    <time>2022-08-18T16:34:54Z</time>
   </trkpt>
   <trkpt lat="52.2126760" lon="0.1318930">
    <ele>7.3</ele>
    <time>2022-08-18T16:34:55Z</time>
   </trkpt>
   <trkpt lat="52.2126680" lon="0.1319350">
    <ele>7.3</ele>
    <time>2022-08-18T16:34:56Z</time>
   </trkpt>
   <trkpt lat="52.2126590" lon="0.1319930">
    <ele>7.3</ele>
    <time>2022-08-18T16:34:57Z</time>
   </trkpt>
   <trkpt lat="52.2126500" lon="0.1320520">
    <ele>7.3</ele>
    <time>2022-08-18T16:34:58Z</time>
   </trkpt>
   <trkpt lat="52.2126450" lon="0.1320700">
    <ele>7.3</ele>
    <time>2022-08-18T16:34:59Z</time>
   </trkpt>
   <trkpt lat="52.2126340" lon="0.1321230">
    <ele>7.3</ele>
    <time>2022-08-18T16:35:00Z</time>
   </trkpt>
   <trkpt lat="52.2126250" lon="0.1321690">
    <ele>7.3</ele>
    <time>2022-08-18T16:35:01Z</time>
   </trkpt>
   <trkpt lat="52.2126240" lon="0.1322240">
    <ele>7.3</ele>
    <time>2022-08-18T16:35:02Z</time>
   </trkpt>
   <trkpt lat="52.2126160" lon="0.1322720">
    <ele>7.2</ele>
    <time>2022-08-18T16:35:03Z</time>
   </trkpt>
   <trkpt lat="52.2126080" lon="0.1323230">
    <ele>7.2</ele>
    <time>2022-08-18T16:35:04Z</time>
   </trkpt>
   <trkpt lat="52.2126060" lon="0.1323910">
    <ele>7.2</ele>
    <time>2022-08-18T16:35:05Z</time>
   </trkpt>
   <trkpt lat="52.2126060" lon="0.1324180">
    <ele>7.2</ele>
    <time>2022-08-18T16:35:06Z</time>
   </trkpt>
   <trkpt lat="52.2126000" lon="0.1324680">
    <ele>7.2</ele>
    <time>2022-08-18T16:35:07Z</time>
   </trkpt>
   <trkpt lat="52.2126000" lon="0.1325170">
    <ele>7.2</ele>
    <time>2022-08-18T16:35:08Z</time>
   </trkpt>
   <trkpt lat="52.2126020" lon="0.1325730">
    <ele>7.2</ele>
    <time>2022-08-18T16:35:09Z</time>
   </trkpt>
   <trkpt lat="52.2125980" lon="0.1326300">
    <ele>7.2</ele>
    <time>2022-08-18T16:35:10Z</time>
   </trkpt>
   <trkpt lat="52.2125960" lon="0.1326510">
    <ele>7.2</ele>
    <time>2022-08-18T16:35:11Z</time>
   </trkpt>
   <trkpt lat="52.2126000" lon="0.1326950">
    <ele>7.2</ele>
    <time>2022-08-18T16:35:12Z</time>
   </trkpt>
   <trkpt lat="52.2125960" lon="0.1327460">
    <ele>7.2</ele>
    <time>2022-08-18T16:35:13Z</time>
   </trkpt>
   <trkpt lat="52.2125930" lon="0.1328050">
    <ele>7.1</ele>
    <time>2022-08-18T16:35:14Z</time>
   </trkpt>
   <trkpt lat="52.2125800" lon="0.1328640">
    <ele>7.1</ele>
    <time>2022-08-18T16:35:15Z</time>
   </trkpt>
   <trkpt lat="52.2125740" lon="0.1328800">
    <ele>7.1</ele>
    <time>2022-08-18T16:35:16Z</time>
   </trkpt>
   <trkpt lat="52.2125280" lon="0.1328850">
    <ele>7.1</ele>
    <time>2022-08-18T16:35:17Z</time>
   </trkpt>
   <trkpt lat="52.2124970" lon="0.1328920">
    <ele>7.1</ele>
    <time>2022-08-18T16:35:18Z</time>
   </trkpt>
   <trkpt lat="52.2124670" lon="0.1328930">
    <ele>7.1</ele>
    <time>2022-08-18T16:35:19Z</time>
   </trkpt>
   <trkpt lat="52.2124290" lon="0.1328810">
    <ele>7.0</ele>
    <time>2022-08-18T16:35:20Z</time>
   </trkpt>
   <trkpt lat="52.2123960" lon="0.1328790">
    <ele>7.0</ele>
    <time>2022-08-18T16:35:21Z</time>
   </trkpt>
   <trkpt lat="52.2123620" lon="0.1328780">
    <ele>7.0</ele>
    <time>2022-08-18T16:35:22Z</time>
   </trkpt>
   <trkpt lat="52.2123340" lon="0.1328690">
    <ele>7.0</ele>
    <time>2022-08-18T16:35:23Z</time>
   </trkpt>
   <trkpt lat="52.2123040" lon="0.1328580">
    <ele>7.0</ele>
    <time>2022-08-18T16:35:24Z</time>
   </trkpt>
   <trkpt lat="52.2122600" lon="0.1328750">
    <ele>7.0</ele>
    <time>2022-08-18T16:35:25Z</time>
   </trkpt>
   <trkpt lat="52.2122310" lon="0.1328770">
    <ele>7.0</ele>
    <time>2022-08-18T16:35:26Z</time>
   </trkpt>
   <trkpt lat="52.2121890" lon="0.1328800">
    <ele>7.0</ele>
    <time>2022-08-18T16:35:27Z</time>
   </trkpt>
   <trkpt lat="52.2121750" lon="0.1328790">
    <ele>7.0</ele>
    <time>2022-08-18T16:35:28Z</time>
   </trkpt>
   <trkpt lat="52.2121360" lon="0.1328760">
    <ele>7.0</ele>
    <time>2022-08-18T16:35:29Z</time>
   </trkpt>
   <trkpt lat="52.2121180" lon="0.1328720">
    <ele>7.0</ele>
    <time>2022-08-18T16:35:30Z</time>
   </trkpt>
   <trkpt lat="52.2120870" lon="0.1328640">
    <ele>7.0</ele>
    <time>2022-08-18T16:35:31Z</time>
   </trkpt>
   <trkpt lat="52.2120600" lon="0.1328520">
    <ele>6.9</ele>
    <time>2022-08-18T16:35:32Z</time>
   </trkpt>
   <trkpt lat="52.2120280" lon="0.1328380">
    <ele>6.9</ele>
    <time>2022-08-18T16:35:33Z</time>
   </trkpt>
   <trkpt lat="52.2119960" lon="0.1328250">
    <ele>6.9</ele>
    <time>2022-08-18T16:35:34Z</time>
   </trkpt>
   <trkpt lat="52.2119540" lon="0.1328200">
    <ele>6.9</ele>
    <time>2022-08-18T16:35:35Z</time>
   </trkpt>
   <trkpt lat="52.2119390" lon="0.1328170">
    <ele>6.9</ele>
    <time>2022-08-18T16:35:36Z</time>
   </trkpt>
   <trkpt lat="52.2118980" lon="0.1328130">
    <ele>6.9</ele>
    <time>2022-08-18T16:35:37Z</time>
   </trkpt>
   <trkpt lat="52.2118840" lon="0.1328120">
    <ele>6.9</ele>
    <time>2022-08-18T16:35:38Z</time>
   </trkpt>
   <trkpt lat="52.2118560" lon="0.1327940">
    <ele>6.9</ele>
    <time>2022-08-18T16:35:39Z</time>
   </trkpt>
   <trkpt lat="52.2118240" lon="0.1327840">
    <ele>6.9</ele>
    <time>2022-08-18T16:35:40Z</time>
   </trkpt>
   <trkpt lat="52.2117880" lon="0.1327860">
    <ele>6.9</ele>
    <time>2022-08-18T16:35:41Z</time>
   </trkpt>
   <trkpt lat="52.2117470" lon="0.1327850">
    <ele>6.9</ele>
    <time>2022-08-18T16:35:42Z</time>
   </trkpt>
   <trkpt lat="52.2117320" lon="0.1327810">
    <ele>6.9</ele>
    <time>2022-08-18T16:35:43Z</time>
   </trkpt>
   <trkpt lat="52.2117060" lon="0.1327910">
    <ele>6.9</ele>
    <time>2022-08-18T16:35:44Z</time>
   </trkpt>
   <trkpt lat="52.2116810" lon="0.1328210">
    <ele>6.9</ele>
    <time>2022-08-18T16:35:45Z</time>
   </trkpt>
   <trkpt lat="52.2116590" lon="0.1328500">
    <ele>6.9</ele>
    <time>2022-08-18T16:35:46Z</time>
   </trkpt>
   <trkpt lat="52.2116640" lon="0.1329110">
    <ele>6.9</ele>
    <time>2022-08-18T16:35:47Z</time>
   </trkpt>
   <trkpt lat="52.2116700" lon="0.1329670">
    <ele>6.8</ele>
    <time>2022-08-18T16:35:48Z</time>
   </trkpt>
   <trkpt lat="52.2116780" lon="0.1330280">
    <ele>6.7</ele>
    <time>2022-08-18T16:35:49Z</time>
   </trkpt>
   <trkpt lat="52.2116810" lon="0.1330830">
    <ele>6.7</ele>
    <time>2022-08-18T16:35:50Z</time>
   </trkpt>
   <trkpt lat="52.2116780" lon="0.1331400">
    <ele>6.7</ele>
    <time>2022-08-18T16:35:51Z</time>
   </trkpt>
   <trkpt lat="52.2116910" lon="0.1332000">
    <ele>6.6</ele>
    <time>2022-08-18T16:35:52Z</time>
   </trkpt>
   <trkpt lat="52.2117040" lon="0.1332410">
    <ele>6.6</ele>
    <time>2022-08-18T16:35:53Z</time>
   </trkpt>
   <trkpt lat="52.2117110" lon="0.1333020">
    <ele>6.6</ele>
    <time>2022-08-18T16:35:54Z</time>
   </trkpt>
   <trkpt lat="52.2117290" lon="0.1333600">
    <ele>6.5</ele>
    <time>2022-08-18T16:35:55Z</time>
   </trkpt>
   <trkpt lat="52.2117400" lon="0.1334120">
    <ele>6.5</ele>
    <time>2022-08-18T16:35:56Z</time>
   </trkpt>
   <trkpt lat="52.2117530" lon="0.1334620">
    <ele>6.5</ele>
    <time>2022-08-18T16:35:57Z</time>
   </trkpt>
   <trkpt lat="52.2117520" lon="0.1335230">
    <ele>6.4</ele>
    <time>2022-08-18T16:35:58Z</time>
   </trkpt>
   <trkpt lat="52.2117510" lon="0.1335450">
    <ele>6.4</ele>
    <time>2022-08-18T16:35:59Z</time>
   </trkpt>
   <trkpt lat="52.2117520" lon="0.1336030">
    <ele>6.4</ele>
    <time>2022-08-18T16:36:00Z</time>
   </trkpt>
   <trkpt lat="52.2117340" lon="0.1336500">
    <ele>6.3</ele>
    <time>2022-08-18T16:36:01Z</time>
   </trkpt>
   <trkpt lat="52.2117240" lon="0.1336670">
    <ele>6.3</ele>
    <time>2022-08-18T16:36:02Z</time>
   </trkpt>
   <trkpt lat="52.2116810" lon="0.1336920">
    <ele>6.3</ele>
    <time>2022-08-18T16:36:03Z</time>
   </trkpt>
   <trkpt lat="52.2116490" lon="0.1337200">
    <ele>6.2</ele>
    <time>2022-08-18T16:36:04Z</time>
   </trkpt>
   <trkpt lat="52.2116150" lon="0.1337330">
    <ele>6.2</ele>
    <time>2022-08-18T16:36:05Z</time>
   </trkpt>
   <trkpt lat="52.2115850" lon="0.1337390">
    <ele>6.2</ele>
    <time>2022-08-18T16:36:06Z</time>
   </trkpt>
   <trkpt lat="52.2115510" lon="0.1337540">
    <ele>6.2</ele>
    <time>2022-08-18T16:36:07Z</time>
   </trkpt>
   <trkpt lat="52.2115210" lon="0.1337700">
    <ele>6.2</ele>
    <time>2022-08-18T16:36:08Z</time>
   </trkpt>
   <trkpt lat="52.2114930" lon="0.1337860">
    <ele>6.1</ele>
    <time>2022-08-18T16:36:09Z</time>
   </trkpt>
   <trkpt lat="52.2114660" lon="0.1338020">
    <ele>6.1</ele>
    <time>2022-08-18T16:36:10Z</time>
   </trkpt>
   <trkpt lat="52.2114350" lon="0.1338180">
    <ele>6.1</ele>
    <time>2022-08-18T16:36:11Z</time>
   </trkpt>
   <trkpt lat="52.2114040" lon="0.1338330">
    <ele>6.1</ele>
    <time>2022-08-18T16:36:12Z</time>
   </trkpt>
   <trkpt lat="52.2113780" lon="0.1338560">
    <ele>6.1</ele>
    <time>2022-08-18T16:36:13Z</time>
   </trkpt>
   <trkpt lat="52.2113450" lon="0.1338740">
    <ele>6.1</ele>
    <time>2022-08-18T16:36:14Z</time>
   </trkpt>
   <trkpt lat="52.2113310" lon="0.1338770">
    <ele>6.1</ele>
    <time>2022-08-18T16:36:15Z</time>
   </trkpt>
   <trkpt lat="52.2113000" lon="0.1339040">
    <ele>6.1</ele>
    <time>2022-08-18T16:36:16Z</time>
   </trkpt>
   <trkpt lat="52.2112700" lon="0.1339300">
    <ele>6.0</ele>
    <time>2022-08-18T16:36:17Z</time>
   </trkpt>
   <trkpt lat="52.2112430" lon="0.1339510">
    <ele>6.0</ele>
    <time>2022-08-18T16:36:18Z</time>
   </trkpt>
   <trkpt lat="52.2112160" lon="0.1339630">
    <ele>6.0</ele>
    <time>2022-08-18T16:36:19Z</time>
   </trkpt>
   <trkpt lat="52.2111870" lon="0.1339740">
    <ele>6.0</ele>
    <time>2022-08-18T16:36:20Z</time>
   </trkpt>
   <trkpt lat="52.2111490" lon="0.1339890">
    <ele>5.9</ele>
    <time>2022-08-18T16:36:21Z</time>
   </trkpt>
   <trkpt lat="52.2111200" lon="0.1340020">
    <ele>5.9</ele>
    <time>2022-08-18T16:36:22Z</time>
   </trkpt>
   <trkpt lat="52.2110890" lon="0.1340250">
    <ele>5.9</ele>
    <time>2022-08-18T16:36:23Z</time>
   </trkpt>
   <trkpt lat="52.2110570" lon="0.1340440">
    <ele>5.8</ele>
    <time>2022-08-18T16:36:24Z</time>
   </trkpt>
   <trkpt lat="52.2110270" lon="0.1340660">
    <ele>5.8</ele>
    <time>2022-08-18T16:36:25Z</time>
   </trkpt>
   <trkpt lat="52.2109880" lon="0.1340830">
    <ele>5.8</ele>
    <time>2022-08-18T16:36:26Z</time>
   </trkpt>
   <trkpt lat="52.2109740" lon="0.1340850">
    <ele>5.8</ele>
    <time>2022-08-18T16:36:27Z</time>
   </trkpt>
   <trkpt lat="52.2109370" lon="0.1340880">
    <ele>5.8</ele>
    <time>2022-08-18T16:36:28Z</time>
   </trkpt>
   <trkpt lat="52.2109060" lon="0.1340920">
    <ele>5.7</ele>
    <time>2022-08-18T16:36:29Z</time>
   </trkpt>
   <trkpt lat="52.2108760" lon="0.1340830">
    <ele>5.7</ele>
    <time>2022-08-18T16:36:30Z</time>
   </trkpt>
   <trkpt lat="52.2108400" lon="0.1340710">
    <ele>5.8</ele>
    <time>2022-08-18T16:36:31Z</time>
   </trkpt>
   <trkpt lat="52.2108250" lon="0.1340640">
    <ele>5.8</ele>
    <time>2022-08-18T16:36:32Z</time>
   </trkpt>
   <trkpt lat="52.2107940" lon="0.1340590">
    <ele>5.8</ele>
    <time>2022-08-18T16:36:33Z</time>
   </trkpt>
   <trkpt lat="52.2107620" lon="0.1340600">
    <ele>5.8</ele>
    <time>2022-08-18T16:36:34Z</time>
   </trkpt>
   <trkpt lat="52.2107350" lon="0.1340730">
    <ele>5.9</ele>
    <time>2022-08-18T16:36:35Z</time>
   </trkpt>
   <trkpt lat="52.2107060" lon="0.1340850">
    <ele>6.0</ele>
    <time>2022-08-18T16:36:36Z</time>
   </trkpt>
   <trkpt lat="52.2106760" lon="0.1341100">
    <ele>6.2</ele>
    <time>2022-08-18T16:36:37Z</time>
   </trkpt>
   <trkpt lat="52.2106400" lon="0.1341410">
    <ele>6.5</ele>
    <time>2022-08-18T16:36:38Z</time>
   </trkpt>
   <trkpt lat="52.2106270" lon="0.1341480">
    <ele>6.6</ele>
    <time>2022-08-18T16:36:39Z</time>
   </trkpt>
   <trkpt lat="52.2106010" lon="0.1341660">
    <ele>6.7</ele>
    <time>2022-08-18T16:36:40Z</time>
   </trkpt>
   <trkpt lat="52.2105760" lon="0.1341850">
    <ele>6.9</ele>
    <time>2022-08-18T16:36:41Z</time>
   </trkpt>
   <trkpt lat="52.2105460" lon="0.1342110">
    <ele>7.0</ele>
    <time>2022-08-18T16:36:42Z</time>
   </trkpt>
   <trkpt lat="52.2105360" lon="0.1342210">
    <ele>7.1</ele>
    <time>2022-08-18T16:36:43Z</time>
   </trkpt>
   <trkpt lat="52.2105100" lon="0.1342430">
    <ele>7.2</ele>
    <time>2022-08-18T16:36:44Z</time>
   </trkpt>
   <trkpt lat="52.2104840" lon="0.1342720">
    <ele>7.3</ele>
    <time>2022-08-18T16:36:45Z</time>
   </trkpt>
   <trkpt lat="52.2104760" lon="0.1342790">
    <ele>7.4</ele>
    <time>2022-08-18T16:36:46Z</time>
   </trkpt>
   <trkpt lat="52.2104420" lon="0.1343050">
    <ele>7.4</ele>
    <time>2022-08-18T16:36:47Z</time>
   </trkpt>
   <trkpt lat="52.2104280" lon="0.1343170">
    <ele>7.5</ele>
    <time>2022-08-18T16:36:48Z</time>
   </trkpt>
   <trkpt lat="52.2104000" lon="0.1343220">
    <ele>7.5</ele>
    <time>2022-08-18T16:36:49Z</time>
   </trkpt>
   <trkpt lat="52.2103630" lon="0.1343490">
    <ele>7.5</ele>
    <time>2022-08-18T16:36:50Z</time>
   </trkpt>
   <trkpt lat="52.2103470" lon="0.1343560">
    <ele>7.5</ele>
    <time>2022-08-18T16:36:51Z</time>
   </trkpt>
   <trkpt lat="52.2103170" lon="0.1343750">
    <ele>7.5</ele>
    <time>2022-08-18T16:36:52Z</time>
   </trkpt>
   <trkpt lat="52.2102860" lon="0.1343810">
    <ele>7.4</ele>
    <time>2022-08-18T16:36:53Z</time>
   </trkpt>
   <trkpt lat="52.2102600" lon="0.1343850">
    <ele>7.3</ele>
    <time>2022-08-18T16:36:54Z</time>
   </trkpt>
   <trkpt lat="52.2102480" lon="0.1343870">
    <ele>7.3</ele>
    <time>2022-08-18T16:36:55Z</time>
   </trkpt>
   <trkpt lat="52.2102170" lon="0.1343910">
    <ele>5.3</ele>
    <time>2022-08-18T16:36:56Z</time>
   </trkpt>
   <trkpt lat="52.2101750" lon="0.1344000">
    <ele>5.3</ele>
    <time>2022-08-18T16:36:57Z</time>
   </trkpt>
   <trkpt lat="52.2101580" lon="0.1344060">
    <ele>5.3</ele>
    <time>2022-08-18T16:36:58Z</time>
   </trkpt>
   <trkpt lat="52.2101260" lon="0.1344230">
    <ele>5.3</ele>
    <time>2022-08-18T16:36:59Z</time>
   </trkpt>
   <trkpt lat="52.2101170" lon="0.1344230">
    <ele>5.3</ele>
    <time>2022-08-18T16:37:00Z</time>
   </trkpt>
   <trkpt lat="52.2101170" lon="0.1344060">
    <ele>5.3</ele>
    <time>2022-08-18T16:37:01Z</time>
   </trkpt>
   <trkpt lat="52.2101450" lon="0.1343950">
    <ele>5.3</ele>
    <time>2022-08-18T16:37:02Z</time>
   </trkpt>
   <trkpt lat="52.2101930" lon="0.1343920">
    <ele>5.2</ele>
    <time>2022-08-18T16:37:03Z</time>
   </trkpt>
   <trkpt lat="52.2102270" lon="0.1343970">
    <ele>5.2</ele>
    <time>2022-08-18T16:37:04Z</time>
   </trkpt>
   <trkpt lat="52.2102590" lon="0.1343910">
    <ele>5.1</ele>
    <time>2022-08-18T16:37:05Z</time>
   </trkpt>
   <trkpt lat="52.2102820" lon="0.1343810">
    <ele>5.0</ele>
    <time>2022-08-18T16:37:06Z</time>
   </trkpt>
   <trkpt lat="52.2102840" lon="0.1343540">
    <ele>5.0</ele>
    <time>2022-08-18T16:37:07Z</time>
   </trkpt>
   <trkpt lat="52.2102680" lon="0.1343010">
    <ele>5.0</ele>
    <time>2022-08-18T16:37:08Z</time>
   </trkpt>
   <trkpt lat="52.2102590" lon="0.1342810">
    <ele>5.0</ele>
    <time>2022-08-18T16:37:09Z</time>
   </trkpt>
   <trkpt lat="52.2102400" lon="0.1342440">
    <ele>5.0</ele>
    <time>2022-08-18T16:37:10Z</time>
   </trkpt>
   <trkpt lat="52.2102240" lon="0.1341820">
    <ele>5.0</ele>
    <time>2022-08-18T16:37:11Z</time>
   </trkpt>
   <trkpt lat="52.2102190" lon="0.1341570">
    <ele>5.0</ele>
    <time>2022-08-18T16:37:12Z</time>
   </trkpt>
   <trkpt lat="52.2102150" lon="0.1340990">
    <ele>5.0</ele>
    <time>2022-08-18T16:37:13Z</time>
   </trkpt>
   <trkpt lat="52.2102040" lon="0.1340560">
    <ele>5.0</ele>
    <time>2022-08-18T16:37:14Z</time>
   </trkpt>
   <trkpt lat="52.2101930" lon="0.1340050">
    <ele>5.0</ele>
    <time>2022-08-18T16:37:15Z</time>
   </trkpt>
   <trkpt lat="52.2101830" lon="0.1339460">
    <ele>5.0</ele>
    <time>2022-08-18T16:37:16Z</time>
   </trkpt>
   <trkpt lat="52.2101710" lon="0.1338970">
    <ele>5.0</ele>
    <time>2022-08-18T16:37:17Z</time>
   </trkpt>
   <trkpt lat="52.2101650" lon="0.1338450">
    <ele>5.0</ele>
    <time>2022-08-18T16:37:18Z</time>
   </trkpt>
   <trkpt lat="52.2101490" lon="0.1337930">
    <ele>5.0</ele>
    <time>2022-08-18T16:37:19Z</time>
   </trkpt>
   <trkpt lat="52.2101400" lon="0.1337410">
    <ele>5.0</ele>
    <time>2022-08-18T16:37:20Z</time>
   </trkpt>
   <trkpt lat="52.2101270" lon="0.1336890">
    <ele>5.0</ele>
    <time>2022-08-18T16:37:21Z</time>
   </trkpt>
   <trkpt lat="52.2101170" lon="0.1336350">
    <ele>5.0</ele>
    <time>2022-08-18T16:37:22Z</time>
   </trkpt>
   <trkpt lat="52.2101100" lon="0.1335830">
    <ele>5.0</ele>
    <time>2022-08-18T16:37:23Z</time>
   </trkpt>
   <trkpt lat="52.2101020" lon="0.1335310">
    <ele>5.0</ele>
    <time>2022-08-18T16:37:24Z</time>
   </trkpt>
   <trkpt lat="52.2100900" lon="0.1334740">
    <ele>5.0</ele>
    <time>2022-08-18T16:37:25Z</time>
   </trkpt>
   <trkpt lat="52.2100770" lon="0.1334250">
    <ele>5.0</ele>
    <time>2022-08-18T16:37:26Z</time>
   </trkpt>
   <trkpt lat="52.2100620" lon="0.1333690">
    <ele>5.0</ele>
    <time>2022-08-18T16:37:27Z</time>
   </trkpt>
   <trkpt lat="52.2100520" lon="0.1333170">
    <ele>5.0</ele>
    <time>2022-08-18T16:37:28Z</time>
   </trkpt>
   <trkpt lat="52.2100430" lon="0.1332520">
    <ele>5.0</ele>
    <time>2022-08-18T16:37:29Z</time>
   </trkpt>
   <trkpt lat="52.2100350" lon="0.1331950">
    <ele>5.0</ele>
    <time>2022-08-18T16:37:30Z</time>
   </trkpt>
   <trkpt lat="52.2100270" lon="0.1331390">
    <ele>5.0</ele>
    <time>2022-08-18T16:37:31Z</time>
   </trkpt>
   <trkpt lat="52.2100130" lon="0.1330890">
    <ele>5.0</ele>
    <time>2022-08-18T16:37:32Z</time>
   </trkpt>
   <trkpt lat="52.2100030" lon="0.1330360">
    <ele>5.0</ele>
    <time>2022-08-18T16:37:33Z</time>
   </trkpt>
   <trkpt lat="52.2099940" lon="0.1329830">
    <ele>5.1</ele>
    <time>2022-08-18T16:37:34Z</time>
   </trkpt>
   <trkpt lat="52.2099850" lon="0.1329270">
    <ele>5.1</ele>
    <time>2022-08-18T16:37:35Z</time>
   </trkpt>
   <trkpt lat="52.2099730" lon="0.1328670">
    <ele>5.1</ele>
    <time>2022-08-18T16:37:36Z</time>
   </trkpt>
   <trkpt lat="52.2099620" lon="0.1328180">
    <ele>5.1</ele>
    <time>2022-08-18T16:37:37Z</time>
   </trkpt>
   <trkpt lat="52.2099560" lon="0.1327630">
    <ele>5.1</ele>
    <time>2022-08-18T16:37:38Z</time>
   </trkpt>
   <trkpt lat="52.2099430" lon="0.1327130">
    <ele>5.1</ele>
    <time>2022-08-18T16:37:39Z</time>
   </trkpt>
   <trkpt lat="52.2099290" lon="0.1326590">
    <ele>5.1</ele>
    <time>2022-08-18T16:37:40Z</time>
   </trkpt>
   <trkpt lat="52.2099140" lon="0.1326000">
    <ele>5.2</ele>
    <time>2022-08-18T16:37:41Z</time>
   </trkpt>
   <trkpt lat="52.2099040" lon="0.1325450">
    <ele>5.2</ele>
    <time>2022-08-18T16:37:42Z</time>
   </trkpt>
   <trkpt lat="52.2098940" lon="0.1324840">
    <ele>5.2</ele>
    <time>2022-08-18T16:37:43Z</time>
   </trkpt>
   <trkpt lat="52.2098850" lon="0.1324360">
    <ele>5.2</ele>
    <time>2022-08-18T16:37:44Z</time>
   </trkpt>
   <trkpt lat="52.2098700" lon="0.1323780">
    <ele>5.2</ele>
    <time>2022-08-18T16:37:45Z</time>
   </trkpt>
   <trkpt lat="52.2098620" lon="0.1323260">
    <ele>5.2</ele>
    <time>2022-08-18T16:37:46Z</time>
   </trkpt>
   <trkpt lat="52.2098500" lon="0.1322750">
    <ele>5.2</ele>
    <time>2022-08-18T16:37:47Z</time>
   </trkpt>
   <trkpt lat="52.2098330" lon="0.1322300">
    <ele>5.2</ele>
    <time>2022-08-18T16:37:48Z</time>
   </trkpt>
   <trkpt lat="52.2098170" lon="0.1321780">
    <ele>5.3</ele>
    <time>2022-08-18T16:37:49Z</time>
   </trkpt>
   <trkpt lat="52.2098100" lon="0.1321230">
    <ele>5.3</ele>
    <time>2022-08-18T16:37:50Z</time>
   </trkpt>
   <trkpt lat="52.2097960" lon="0.1320690">
    <ele>5.3</ele>
    <time>2022-08-18T16:37:51Z</time>
   </trkpt>
   <trkpt lat="52.2097790" lon="0.1320220">
    <ele>5.3</ele>
    <time>2022-08-18T16:37:52Z</time>
   </trkpt>
   <trkpt lat="52.2097700" lon="0.1319700">
    <ele>5.4</ele>
    <time>2022-08-18T16:37:53Z</time>
   </trkpt>
   <trkpt lat="52.2097590" lon="0.1319170">
    <ele>5.4</ele>
    <time>2022-08-18T16:37:54Z</time>
   </trkpt>
   <trkpt lat="52.2097460" lon="0.1318600">
    <ele>5.4</ele>
    <time>2022-08-18T16:37:55Z</time>
   </trkpt>
   <trkpt lat="52.2097350" lon="0.1318080">
    <ele>5.4</ele>
    <time>2022-08-18T16:37:56Z</time>
   </trkpt>
   <trkpt lat="52.2097210" lon="0.1317600">
    <ele>5.5</ele>
    <time>2022-08-18T16:37:57Z</time>
   </trkpt>
   <trkpt lat="52.2097060" lon="0.1317050">
    <ele>5.5</ele>
    <time>2022-08-18T16:37:58Z</time>
   </trkpt>
   <trkpt lat="52.2097040" lon="0.1316460">
    <ele>5.5</ele>
    <time>2022-08-18T16:37:59Z</time>
   </trkpt>
   <trkpt lat="52.2096890" lon="0.1315940">
    <ele>5.6</ele>
    <time>2022-08-18T16:38:00Z</time>
   </trkpt>
   <trkpt lat="52.2096770" lon="0.1315370">
    <ele>5.6</ele>
    <time>2022-08-18T16:38:01Z</time>
   </trkpt>
   <trkpt lat="52.2096690" lon="0.1314870">
    <ele>5.7</ele>
    <time>2022-08-18T16:38:02Z</time>
   </trkpt>
   <trkpt lat="52.2096540" lon="0.1314310">
    <ele>5.7</ele>
    <time>2022-08-18T16:38:03Z</time>
   </trkpt>
   <trkpt lat="52.2096370" lon="0.1313760">
    <ele>5.7</ele>
    <time>2022-08-18T16:38:04Z</time>
   </trkpt>
   <trkpt lat="52.2096320" lon="0.1313120">
    <ele>5.8</ele>
    <time>2022-08-18T16:38:05Z</time>
   </trkpt>
   <trkpt lat="52.2096170" lon="0.1312610">
    <ele>5.8</ele>
    <time>2022-08-18T16:38:06Z</time>
   </trkpt>
   <trkpt lat="52.2096030" lon="0.1312130">
    <ele>5.9</ele>
    <time>2022-08-18T16:38:07Z</time>
   </trkpt>
   <trkpt lat="52.2095920" lon="0.1311530">
    <ele>5.9</ele>
    <time>2022-08-18T16:38:08Z</time>
   </trkpt>
   <trkpt lat="52.2095750" lon="0.1310980">
    <ele>6.0</ele>
    <time>2022-08-18T16:38:09Z</time>
   </trkpt>
   <trkpt lat="52.2095610" lon="0.1310440">
    <ele>6.0</ele>
    <time>2022-08-18T16:38:10Z</time>
   </trkpt>
   <trkpt lat="52.2095480" lon="0.1310000">
    <ele>6.0</ele>
    <time>2022-08-18T16:38:11Z</time>
   </trkpt>
   <trkpt lat="52.2095350" lon="0.1309320">
    <ele>6.0</ele>
    <time>2022-08-18T16:38:12Z</time>
   </trkpt>
   <trkpt lat="52.2095220" lon="0.1308850">
    <ele>6.0</ele>
    <time>2022-08-18T16:38:13Z</time>
   </trkpt>
   <trkpt lat="52.2095140" lon="0.1308270">
    <ele>6.1</ele>
    <time>2022-08-18T16:38:14Z</time>
   </trkpt>
   <trkpt lat="52.2095020" lon="0.1307740">
    <ele>6.1</ele>
    <time>2022-08-18T16:38:15Z</time>
   </trkpt>
   <trkpt lat="52.2094860" lon="0.1307150">
    <ele>6.1</ele>
    <time>2022-08-18T16:38:16Z</time>
   </trkpt>
   <trkpt lat="52.2094770" lon="0.1306600">
    <ele>6.1</ele>
    <time>2022-08-18T16:38:17Z</time>
   </trkpt>
   <trkpt lat="52.2094670" lon="0.1306060">
    <ele>6.1</ele>
    <time>2022-08-18T16:38:18Z</time>
   </trkpt>
   <trkpt lat="52.2094550" lon="0.1305470">
    <ele>6.2</ele>
    <time>2022-08-18T16:38:19Z</time>
   </trkpt>
   <trkpt lat="52.2094450" lon="0.1304960">
    <ele>6.2</ele>
    <time>2022-08-18T16:38:20Z</time>
   </trkpt>
   <trkpt lat="52.2094250" lon="0.1304460">
    <ele>6.2</ele>
    <time>2022-08-18T16:38:21Z</time>
   </trkpt>
   <trkpt lat="52.2094100" lon="0.1303920">
    <ele>6.2</ele>
    <time>2022-08-18T16:38:22Z</time>
   </trkpt>
   <trkpt lat="52.2094020" lon="0.1303350">
    <ele>6.3</ele>
    <time>2022-08-18T16:38:23Z</time>
   </trkpt>
   <trkpt lat="52.2093870" lon="0.1302840">
    <ele>6.3</ele>
    <time>2022-08-18T16:38:24Z</time>
   </trkpt>
   <trkpt lat="52.2093780" lon="0.1302310">
    <ele>6.3</ele>
    <time>2022-08-18T16:38:25Z</time>
   </trkpt>
   <trkpt lat="52.2093640" lon="0.1301770">
    <ele>6.3</ele>
    <time>2022-08-18T16:38:26Z</time>
   </trkpt>
   <trkpt lat="52.2093490" lon="0.1301190">
    <ele>6.3</ele>
    <time>2022-08-18T16:38:27Z</time>
   </trkpt>
   <trkpt lat="52.2093410" lon="0.1300590">
    <ele>6.3</ele>
    <time>2022-08-18T16:38:28Z</time>
   </trkpt>
   <trkpt lat="52.2093310" lon="0.1300050">
    <ele>6.2</ele>
    <time>2022-08-18T16:38:29Z</time>
   </trkpt>
   <trkpt lat="52.2093200" lon="0.1299460">
    <ele>6.2</ele>
    <time>2022-08-18T16:38:30Z</time>
   </trkpt>
   <trkpt lat="52.2093080" lon="0.1298980">
    <ele>6.2</ele>
    <time>2022-08-18T16:38:31Z</time>
   </trkpt>
   <trkpt lat="52.2092940" lon="0.1298490">
    <ele>6.2</ele>
    <time>2022-08-18T16:38:32Z</time>
   </trkpt>
   <trkpt lat="52.2092840" lon="0.1297860">
    <ele>6.2</ele>
    <time>2022-08-18T16:38:33Z</time>
   </trkpt>
   <trkpt lat="52.2092720" lon="0.1297340">
    <ele>6.2</ele>
    <time>2022-08-18T16:38:34Z</time>
   </trkpt>
   <trkpt lat="52.2092600" lon="0.1296830">
    <ele>6.2</ele>
    <time>2022-08-18T16:38:35Z</time>
   </trkpt>
   <trkpt lat="52.2092470" lon="0.1296340">
    <ele>6.2</ele>
    <time>2022-08-18T16:38:36Z</time>
   </trkpt>
   <trkpt lat="52.2092280" lon="0.1295860">
    <ele>6.2</ele>
    <time>2022-08-18T16:38:37Z</time>
   </trkpt>
   <trkpt lat="52.2092070" lon="0.1295470">
    <ele>6.2</ele>
    <time>2022-08-18T16:38:38Z</time>
   </trkpt>
   <trkpt lat="52.2091790" lon="0.1295140">
    <ele>6.2</ele>
    <time>2022-08-18T16:38:39Z</time>
   </trkpt>
   <trkpt lat="52.2091490" lon="0.1294900">
    <ele>6.3</ele>
    <time>2022-08-18T16:38:40Z</time>
   </trkpt>
   <trkpt lat="52.2091170" lon="0.1294680">
    <ele>6.3</ele>
    <time>2022-08-18T16:38:41Z</time>
   </trkpt>
   <trkpt lat="52.2090830" lon="0.1294460">
    <ele>6.3</ele>
    <time>2022-08-18T16:38:42Z</time>
   </trkpt>
   <trkpt lat="52.2090510" lon="0.1294310">
    <ele>6.3</ele>
    <time>2022-08-18T16:38:43Z</time>
   </trkpt>
   <trkpt lat="52.2090080" lon="0.1294290">
    <ele>6.4</ele>
    <time>2022-08-18T16:38:44Z</time>
   </trkpt>
   <trkpt lat="52.2089720" lon="0.1294240">
    <ele>6.4</ele>
    <time>2022-08-18T16:38:45Z</time>
   </trkpt>
   <trkpt lat="52.2089410" lon="0.1294140">
    <ele>6.4</ele>
    <time>2022-08-18T16:38:46Z</time>
   </trkpt>
   <trkpt lat="52.2089080" lon="0.1294120">
    <ele>6.5</ele>
    <time>2022-08-18T16:38:47Z</time>
   </trkpt>
   <trkpt lat="52.2088690" lon="0.1294190">
    <ele>6.5</ele>
    <time>2022-08-18T16:38:48Z</time>
   </trkpt>
   <trkpt lat="52.2088350" lon="0.1294060">
    <ele>6.5</ele>
    <time>2022-08-18T16:38:49Z</time>
   </trkpt>
   <trkpt lat="52.2088020" lon="0.1294060">
    <ele>6.6</ele>
    <time>2022-08-18T16:38:50Z</time>
   </trkpt>
   <trkpt lat="52.2087650" lon="0.1294080">
    <ele>6.6</ele>
    <time>2022-08-18T16:38:51Z</time>
   </trkpt>
   <trkpt lat="52.2087360" lon="0.1293960">
    <ele>6.6</ele>
    <time>2022-08-18T16:38:52Z</time>
   </trkpt>
   <trkpt lat="52.2086980" lon="0.1293870">
    <ele>6.6</ele>
    <time>2022-08-18T16:38:53Z</time>
   </trkpt>
   <trkpt lat="52.2086620" lon="0.1293890">
    <ele>6.7</ele>
    <time>2022-08-18T16:38:54Z</time>
   </trkpt>
   <trkpt lat="52.2086200" lon="0.1293930">
    <ele>6.7</ele>
    <time>2022-08-18T16:38:55Z</time>
   </trkpt>
   <trkpt lat="52.2086040" lon="0.1294000">
    <ele>6.7</ele>
    <time>2022-08-18T16:38:56Z</time>
   </trkpt>
   <trkpt lat="52.2085770" lon="0.1294130">
    <ele>6.8</ele>
    <time>2022-08-18T16:38:57Z</time>
   </trkpt>
   <trkpt lat="52.2085420" lon="0.1294060">
    <ele>6.8</ele>
    <time>2022-08-18T16:38:58Z</time>
   </trkpt>
   <trkpt lat="52.2085050" lon="0.1293890">
    <ele>6.9</ele>
    <time>2022-08-18T16:38:59Z</time>
   </trkpt>
   <trkpt lat="52.2084680" lon="0.1293870">
    <ele>6.9</ele>
    <time>2022-08-18T16:39:00Z</time>
   </trkpt>
   <trkpt lat="52.2084410" lon="0.1293620">
    <ele>7.0</ele>
    <time>2022-08-18T16:39:01Z</time>
   </trkpt>
   <trkpt lat="52.2084040" lon="0.1293560">
    <ele>7.0</ele>
    <time>2022-08-18T16:39:02Z</time>
   </trkpt>
   <trkpt lat="52.2083730" lon="0.1293470">
    <ele>7.1</ele>
    <time>2022-08-18T16:39:03Z</time>
   </trkpt>
   <trkpt lat="52.2083360" lon="0.1293540">
    <ele>7.2</ele>
    <time>2022-08-18T16:39:04Z</time>
   </trkpt>
   <trkpt lat="52.2083040" lon="0.1293610">
    <ele>7.3</ele>
    <time>2022-08-18T16:39:05Z</time>
   </trkpt>
   <trkpt lat="52.2082720" lon="0.1293580">
    <ele>7.3</ele>
    <time>2022-08-18T16:39:06Z</time>
   </trkpt>
   <trkpt lat="52.2082400" lon="0.1293530">
    <ele>7.4</ele>
    <time>2022-08-18T16:39:07Z</time>
   </trkpt>
   <trkpt lat="52.2082010" lon="0.1293380">
    <ele>7.5</ele>
    <time>2022-08-18T16:39:08Z</time>
   </trkpt>
   <trkpt lat="52.2081670" lon="0.1293310">
    <ele>7.6</ele>
    <time>2022-08-18T16:39:09Z</time>
   </trkpt>
   <trkpt lat="52.2081410" lon="0.1293140">
    <ele>7.7</ele>
    <time>2022-08-18T16:39:10Z</time>
   </trkpt>
   <trkpt lat="52.2081140" lon="0.1293150">
    <ele>7.8</ele>
    <time>2022-08-18T16:39:11Z</time>
   </trkpt>
   <trkpt lat="52.2080840" lon="0.1293050">
    <ele>8.0</ele>
    <time>2022-08-18T16:39:12Z</time>
   </trkpt>
   <trkpt lat="52.2080470" lon="0.1293050">
    <ele>8.2</ele>
    <time>2022-08-18T16:39:13Z</time>
   </trkpt>
   <trkpt lat="52.2080140" lon="0.1293070">
    <ele>8.4</ele>
    <time>2022-08-18T16:39:14Z</time>
   </trkpt>
   <trkpt lat="52.2079820" lon="0.1292980">
    <ele>8.7</ele>
    <time>2022-08-18T16:39:15Z</time>
   </trkpt>
   <trkpt lat="52.2079730" lon="0.1292970">
    <ele>8.7</ele>
    <time>2022-08-18T16:39:16Z</time>
   </trkpt>
   <trkpt lat="52.2079560" lon="0.1292860">
    <ele>8.9</ele>
    <time>2022-08-18T16:39:17Z</time>
   </trkpt>
   <trkpt lat="52.2079480" lon="0.1292680">
    <ele>8.9</ele>
    <time>2022-08-18T16:39:18Z</time>
   </trkpt>
   <trkpt lat="52.2079340" lon="0.1292580">
    <ele>9.0</ele>
    <time>2022-08-18T16:39:19Z</time>
   </trkpt>
   <trkpt lat="52.2079220" lon="0.1292500">
    <ele>9.1</ele>
    <time>2022-08-18T16:39:20Z</time>
   </trkpt>
   <trkpt lat="52.2078960" lon="0.1292440">
    <ele>9.3</ele>
    <time>2022-08-18T16:39:21Z</time>
   </trkpt>
   <trkpt lat="52.2078790" lon="0.1292460">
    <ele>9.4</ele>
    <time>2022-08-18T16:39:22Z</time>
   </trkpt>
   <trkpt lat="52.2078360" lon="0.1292450">
    <ele>9.6</ele>
    <time>2022-08-18T16:39:23Z</time>
   </trkpt>
   <trkpt lat="52.2078260" lon="0.1292460">
    <ele>9.6</ele>
    <time>2022-08-18T16:39:24Z</time>
   </trkpt>
   <trkpt lat="52.2078090" lon="0.1292390">
    <ele>9.5</ele>
    <time>2022-08-18T16:39:25Z</time>
   </trkpt>
   <trkpt lat="52.2077790" lon="0.1292410">
    <ele>9.5</ele>
    <time>2022-08-18T16:39:26Z</time>
   </trkpt>
   <trkpt lat="52.2077560" lon="0.1292110">
    <ele>9.5</ele>
    <time>2022-08-18T16:39:27Z</time>
   </trkpt>
   <trkpt lat="52.2077420" lon="0.1292040">
    <ele>9.5</ele>
    <time>2022-08-18T16:39:28Z</time>
   </trkpt>
   <trkpt lat="52.2077020" lon="0.1291840">
    <ele>9.5</ele>
    <time>2022-08-18T16:39:29Z</time>
   </trkpt>
   <trkpt lat="52.2076660" lon="0.1291780">
    <ele>9.5</ele>
    <time>2022-08-18T16:39:30Z</time>
   </trkpt>
   <trkpt lat="52.2076320" lon="0.1291880">
    <ele>9.5</ele>
    <time>2022-08-18T16:39:31Z</time>
   </trkpt>
   <trkpt lat="52.2075920" lon="0.1291920">
    <ele>9.5</ele>
    <time>2022-08-18T16:39:32Z</time>
   </trkpt>
   <trkpt lat="52.2075470" lon="0.1291970">
    <ele>9.5</ele>
    <time>2022-08-18T16:39:33Z</time>
   </trkpt>
   <trkpt lat="52.2075060" lon="0.1291950">
    <ele>9.5</ele>
    <time>2022-08-18T16:39:34Z</time>
   </trkpt>
   <trkpt lat="52.2074580" lon="0.1291870">
    <ele>9.5</ele>
    <time>2022-08-18T16:39:35Z</time>
   </trkpt>
   <trkpt lat="52.2074150" lon="0.1291910">
    <ele>9.6</ele>
    <time>2022-08-18T16:39:36Z</time>
   </trkpt>
   <trkpt lat="52.2073720" lon="0.1292000">
    <ele>9.6</ele>
    <time>2022-08-18T16:39:37Z</time>
   </trkpt>
   <trkpt lat="52.2073340" lon="0.1292080">
    <ele>9.7</ele>
    <time>2022-08-18T16:39:38Z</time>
   </trkpt>
   <trkpt lat="52.2072960" lon="0.1292220">
    <ele>9.7</ele>
    <time>2022-08-18T16:39:39Z</time>
   </trkpt>
   <trkpt lat="52.2072490" lon="0.1292460">
    <ele>9.8</ele>
    <time>2022-08-18T16:39:40Z</time>
   </trkpt>
   <trkpt lat="52.2072060" lon="0.1292650">
    <ele>9.8</ele>
    <time>2022-08-18T16:39:41Z</time>
   </trkpt>
   <trkpt lat="52.2071650" lon="0.1292760">
    <ele>9.9</ele>
    <time>2022-08-18T16:39:42Z</time>
   </trkpt>
   <trkpt lat="52.2071240" lon="0.1292830">
    <ele>9.9</ele>
    <time>2022-08-18T16:39:43Z</time>
   </trkpt>
   <trkpt lat="52.2070830" lon="0.1292910">
    <ele>10.0</ele>
    <time>2022-08-18T16:39:44Z</time>
   </trkpt>
   <trkpt lat="52.2070430" lon="0.1292970">
    <ele>10.1</ele>
    <time>2022-08-18T16:39:45Z</time>
   </trkpt>
   <trkpt lat="52.2070100" lon="0.1293070">
    <ele>10.1</ele>
    <time>2022-08-18T16:39:46Z</time>
   </trkpt>
   <trkpt lat="52.2069700" lon="0.1293080">
    <ele>10.2</ele>
    <time>2022-08-18T16:39:47Z</time>
   </trkpt>
   <trkpt lat="52.2069350" lon="0.1293150">
    <ele>10.3</ele>
    <time>2022-08-18T16:39:48Z</time>
   </trkpt>
   <trkpt lat="52.2068960" lon="0.1293240">
    <ele>10.3</ele>
    <time>2022-08-18T16:39:49Z</time>
   </trkpt>
   <trkpt lat="52.2068610" lon="0.1293250">
    <ele>10.4</ele>
    <time>2022-08-18T16:39:50Z</time>
   </trkpt>
   <trkpt lat="52.2068280" lon="0.1293360">
    <ele>10.5</ele>
    <time>2022-08-18T16:39:51Z</time>
   </trkpt>
   <trkpt lat="52.2067970" lon="0.1293410">
    <ele>10.5</ele>
    <time>2022-08-18T16:39:52Z</time>
   </trkpt>
   <trkpt lat="52.2067650" lon="0.1293430">
    <ele>10.6</ele>
    <time>2022-08-18T16:39:53Z</time>
   </trkpt>
   <trkpt lat="52.2067260" lon="0.1293210">
    <ele>10.6</ele>
    <time>2022-08-18T16:39:54Z</time>
   </trkpt>
   <trkpt lat="52.2066960" lon="0.1293060">
    <ele>10.7</ele>
    <time>2022-08-18T16:39:55Z</time>
   </trkpt>
   <trkpt lat="52.2066630" lon="0.1292730">
    <ele>10.8</ele>
    <time>2022-08-18T16:39:56Z</time>
   </trkpt>
   <trkpt lat="52.2066330" lon="0.1292440">
    <ele>10.8</ele>
    <time>2022-08-18T16:39:57Z</time>
   </trkpt>
   <trkpt lat="52.2066090" lon="0.1292120">
    <ele>10.8</ele>
    <time>2022-08-18T16:39:58Z</time>
   </trkpt>
   <trkpt lat="52.2065830" lon="0.1291970">
    <ele>10.9</ele>
    <time>2022-08-18T16:39:59Z</time>
   </trkpt>
   <trkpt lat="52.2065510" lon="0.1291780">
    <ele>10.9</ele>
    <time>2022-08-18T16:40:00Z</time>
   </trkpt>
   <trkpt lat="52.2065210" lon="0.1291710">
    <ele>10.9</ele>
    <time>2022-08-18T16:40:01Z</time>
   </trkpt>
   <trkpt lat="52.2064840" lon="0.1291540">
    <ele>10.9</ele>
    <time>2022-08-18T16:40:02Z</time>
   </trkpt>
   <trkpt lat="52.2064550" lon="0.1291310">
    <ele>11.0</ele>
    <time>2022-08-18T16:40:03Z</time>
   </trkpt>
   <trkpt lat="52.2064230" lon="0.1291070">
    <ele>11.0</ele>
    <time>2022-08-18T16:40:04Z</time>
   </trkpt>
   <trkpt lat="52.2063970" lon="0.1290920">
    <ele>11.0</ele>
    <time>2022-08-18T16:40:05Z</time>
   </trkpt>
   <trkpt lat="52.2063660" lon="0.1290680">
    <ele>11.1</ele>
    <time>2022-08-18T16:40:06Z</time>
   </trkpt>
   <trkpt lat="52.2063320" lon="0.1290440">
    <ele>11.1</ele>
    <time>2022-08-18T16:40:07Z</time>
   </trkpt>
   <trkpt lat="52.2062940" lon="0.1290310">
    <ele>11.1</ele>
    <time>2022-08-18T16:40:08Z</time>
   </trkpt>
   <trkpt lat="52.2062570" lon="0.1290120">
    <ele>11.2</ele>
    <time>2022-08-18T16:40:09Z</time>
   </trkpt>
   <trkpt lat="52.2062240" lon="0.1289960">
    <ele>11.2</ele>
    <time>2022-08-18T16:40:10Z</time>
   </trkpt>
   <trkpt lat="52.2061870" lon="0.1289840">
    <ele>11.2</ele>
    <time>2022-08-18T16:40:11Z</time>
   </trkpt>
   <trkpt lat="52.2061540" lon="0.1289650">
    <ele>11.3</ele>
    <time>2022-08-18T16:40:12Z</time>
   </trkpt>
   <trkpt lat="52.2061250" lon="0.1289400">
    <ele>11.3</ele>
    <time>2022-08-18T16:40:13Z</time>
   </trkpt>
   <trkpt lat="52.2060920" lon="0.1289190">
    <ele>11.3</ele>
    <time>2022-08-18T16:40:14Z</time>
   </trkpt>
   <trkpt lat="52.2060540" lon="0.1289230">
    <ele>11.4</ele>
    <time>2022-08-18T16:40:15Z</time>
   </trkpt>
   <trkpt lat="52.2060180" lon="0.1289120">
    <ele>11.4</ele>
    <time>2022-08-18T16:40:16Z</time>
   </trkpt>
   <trkpt lat="52.2059850" lon="0.1288770">
    <ele>11.5</ele>
    <time>2022-08-18T16:40:17Z</time>
   </trkpt>
   <trkpt lat="52.2059500" lon="0.1288400">
    <ele>11.5</ele>
    <time>2022-08-18T16:40:18Z</time>
   </trkpt>
   <trkpt lat="52.2059180" lon="0.1288060">
    <ele>11.5</ele>
    <time>2022-08-18T16:40:19Z</time>
   </trkpt>
   <trkpt lat="52.2058910" lon="0.1287750">
    <ele>11.5</ele>
    <time>2022-08-18T16:40:20Z</time>
   </trkpt>
   <trkpt lat="52.2058650" lon="0.1287450">
    <ele>11.6</ele>
    <time>2022-08-18T16:40:21Z</time>
   </trkpt>
   <trkpt lat="52.2058350" lon="0.1287300">
    <ele>11.6</ele>
    <time>2022-08-18T16:40:22Z</time>
   </trkpt>
   <trkpt lat="52.2058050" lon="0.1287030">
    <ele>11.6</ele>
    <time>2022-08-18T16:40:23Z</time>
   </trkpt>
   <trkpt lat="52.2057740" lon="0.1286800">
    <ele>11.6</ele>
    <time>2022-08-18T16:40:24Z</time>
   </trkpt>
   <trkpt lat="52.2057380" lon="0.1286550">
    <ele>11.7</ele>
    <time>2022-08-18T16:40:25Z</time>
   </trkpt>
   <trkpt lat="52.2057050" lon="0.1286280">
    <ele>11.7</ele>
    <time>2022-08-18T16:40:26Z</time>
   </trkpt>
   <trkpt lat="52.2056760" lon="0.1285920">
    <ele>11.7</ele>
    <time>2022-08-18T16:40:27Z</time>
   </trkpt>
   <trkpt lat="52.2056460" lon="0.1285590">
    <ele>11.7</ele>
    <time>2022-08-18T16:40:28Z</time>
   </trkpt>
   <trkpt lat="52.2056120" lon="0.1285260">
    <ele>11.7</ele>
    <time>2022-08-18T16:40:29Z</time>
   </trkpt>
   <trkpt lat="52.2055850" lon="0.1285030">
    <ele>11.8</ele>
    <time>2022-08-18T16:40:30Z</time>
   </trkpt>
   <trkpt lat="52.2055580" lon="0.1284730">
    <ele>11.8</ele>
    <time>2022-08-18T16:40:31Z</time>
   </trkpt>
   <trkpt lat="52.2055260" lon="0.1284460">
    <ele>11.8</ele>
    <time>2022-08-18T16:40:32Z</time>
   </trkpt>
   <trkpt lat="52.2054990" lon="0.1284130">
    <ele>11.8</ele>
    <time>2022-08-18T16:40:33Z</time>
   </trkpt>
   <trkpt lat="52.2054590" lon="0.1283940">
    <ele>11.9</ele>
    <time>2022-08-18T16:40:34Z</time>
   </trkpt>
   <trkpt lat="52.2054310" lon="0.1283630">
    <ele>11.9</ele>
    <time>2022-08-18T16:40:35Z</time>
   </trkpt>
   <trkpt lat="52.2054020" lon="0.1283290">
    <ele>11.9</ele>
    <time>2022-08-18T16:40:36Z</time>
   </trkpt>
   <trkpt lat="52.2053710" lon="0.1282950">
    <ele>11.9</ele>
    <time>2022-08-18T16:40:37Z</time>
   </trkpt>
   <trkpt lat="52.2053370" lon="0.1282680">
    <ele>11.9</ele>
    <time>2022-08-18T16:40:38Z</time>
   </trkpt>
   <trkpt lat="52.2052980" lon="0.1282400">
    <ele>11.9</ele>
    <time>2022-08-18T16:40:39Z</time>
   </trkpt>
   <trkpt lat="52.2052660" lon="0.1282040">
    <ele>11.9</ele>
    <time>2022-08-18T16:40:40Z</time>
   </trkpt>
   <trkpt lat="52.2052370" lon="0.1281730">
    <ele>11.9</ele>
    <time>2022-08-18T16:40:41Z</time>
   </trkpt>
   <trkpt lat="52.2052060" lon="0.1281470">
    <ele>12.0</ele>
    <time>2022-08-18T16:40:42Z</time>
   </trkpt>
   <trkpt lat="52.2051670" lon="0.1281260">
    <ele>12.0</ele>
    <time>2022-08-18T16:40:43Z</time>
   </trkpt>
   <trkpt lat="52.2051270" lon="0.1281020">
    <ele>12.0</ele>
    <time>2022-08-18T16:40:44Z</time>
   </trkpt>
   <trkpt lat="52.2050940" lon="0.1280850">
    <ele>12.0</ele>
    <time>2022-08-18T16:40:45Z</time>
   </trkpt>
   <trkpt lat="52.2050640" lon="0.1280550">
    <ele>12.0</ele>
    <time>2022-08-18T16:40:46Z</time>
   </trkpt>
   <trkpt lat="52.2050350" lon="0.1280280">
    <ele>12.0</ele>
    <time>2022-08-18T16:40:47Z</time>
   </trkpt>
   <trkpt lat="52.2050070" lon="0.1279910">
    <ele>12.0</ele>
    <time>2022-08-18T16:40:48Z</time>
   </trkpt>
   <trkpt lat="52.2049780" lon="0.1279690">
    <ele>12.0</ele>
    <time>2022-08-18T16:40:49Z</time>
   </trkpt>
   <trkpt lat="52.2049400" lon="0.1279530">
    <ele>12.0</ele>
    <time>2022-08-18T16:40:50Z</time>
   </trkpt>
   <trkpt lat="52.2049050" lon="0.1279270">
    <ele>12.0</ele>
    <time>2022-08-18T16:40:51Z</time>
   </trkpt>
   <trkpt lat="52.2048780" lon="0.1279020">
    <ele>12.1</ele>
    <time>2022-08-18T16:40:52Z</time>
   </trkpt>
   <trkpt lat="52.2048510" lon="0.1278710">
    <ele>12.1</ele>
    <time>2022-08-18T16:40:53Z</time>
   </trkpt>
   <trkpt lat="52.2048210" lon="0.1278410">
    <ele>12.1</ele>
    <time>2022-08-18T16:40:54Z</time>
   </trkpt>
   <trkpt lat="52.2047910" lon="0.1278100">
    <ele>12.1</ele>
    <time>2022-08-18T16:40:55Z</time>
   </trkpt>
   <trkpt lat="52.2047630" lon="0.1277810">
    <ele>12.1</ele>
    <time>2022-08-18T16:40:56Z</time>
   </trkpt>
   <trkpt lat="52.2047280" lon="0.1277600">
    <ele>12.1</ele>
    <time>2022-08-18T16:40:57Z</time>
   </trkpt>
   <trkpt lat="52.2046920" lon="0.1277400">
    <ele>12.1</ele>
    <time>2022-08-18T16:40:58Z</time>
   </trkpt>
   <trkpt lat="52.2046590" lon="0.1277250">
    <ele>12.1</ele>
    <time>2022-08-18T16:40:59Z</time>
   </trkpt>
   <trkpt lat="52.2046260" lon="0.1276920">
    <ele>12.1</ele>
    <time>2022-08-18T16:41:00Z</time>
   </trkpt>
   <trkpt lat="52.2045970" lon="0.1276530">
    <ele>12.1</ele>
    <time>2022-08-18T16:41:01Z</time>
   </trkpt>
   <trkpt lat="52.2045690" lon="0.1276250">
    <ele>12.1</ele>
    <time>2022-08-18T16:41:02Z</time>
   </trkpt>
   <trkpt lat="52.2045370" lon="0.1275940">
    <ele>12.1</ele>
    <time>2022-08-18T16:41:03Z</time>
   </trkpt>
   <trkpt lat="52.2045080" lon="0.1275640">
    <ele>12.1</ele>
    <time>2022-08-18T16:41:04Z</time>
   </trkpt>
   <trkpt lat="52.2044800" lon="0.1275440">
    <ele>12.1</ele>
    <time>2022-08-18T16:41:05Z</time>
   </trkpt>
   <trkpt lat="52.2044500" lon="0.1275160">
    <ele>12.1</ele>
    <time>2022-08-18T16:41:06Z</time>
   </trkpt>
   <trkpt lat="52.2044170" lon="0.1274980">
    <ele>12.1</ele>
    <time>2022-08-18T16:41:07Z</time>
   </trkpt>
   <trkpt lat="52.2043780" lon="0.1274720">
    <ele>12.1</ele>
    <time>2022-08-18T16:41:08Z</time>
   </trkpt>
   <trkpt lat="52.2043490" lon="0.1274430">
    <ele>12.1</ele>
    <time>2022-08-18T16:41:09Z</time>
   </trkpt>
   <trkpt lat="52.2043250" lon="0.1274070">
    <ele>12.1</ele>
    <time>2022-08-18T16:41:10Z</time>
   </trkpt>
   <trkpt lat="52.2042880" lon="0.1273890">
    <ele>12.1</ele>
    <time>2022-08-18T16:41:11Z</time>
   </trkpt>
   <trkpt lat="52.2042560" lon="0.1273630">
    <ele>12.2</ele>
    <time>2022-08-18T16:41:12Z</time>
   </trkpt>
   <trkpt lat="52.2042280" lon="0.1273390">
    <ele>12.2</ele>
    <time>2022-08-18T16:41:13Z</time>
   </trkpt>
   <trkpt lat="52.2041830" lon="0.1273550">
    <ele>12.2</ele>
    <time>2022-08-18T16:41:14Z</time>
   </trkpt>
   <trkpt lat="52.2041420" lon="0.1274060">
    <ele>12.3</ele>
    <time>2022-08-18T16:41:15Z</time>
   </trkpt>
   <trkpt lat="52.2041150" lon="0.1274540">
    <ele>12.3</ele>
    <time>2022-08-18T16:41:16Z</time>
   </trkpt>
   <trkpt lat="52.2040910" lon="0.1275070">
    <ele>12.3</ele>
    <time>2022-08-18T16:41:17Z</time>
   </trkpt>
   <trkpt lat="52.2040730" lon="0.1275550">
    <ele>12.3</ele>
    <time>2022-08-18T16:41:18Z</time>
   </trkpt>
   <trkpt lat="52.2040470" lon="0.1275980">
    <ele>12.3</ele>
    <time>2022-08-18T16:41:19Z</time>
   </trkpt>
   <trkpt lat="52.2040230" lon="0.1276360">
    <ele>12.3</ele>
    <time>2022-08-18T16:41:20Z</time>
   </trkpt>
   <trkpt lat="52.2039970" lon="0.1276780">
    <ele>12.3</ele>
    <time>2022-08-18T16:41:21Z</time>
   </trkpt>
   <trkpt lat="52.2039760" lon="0.1277160">
    <ele>12.3</ele>
    <time>2022-08-18T16:41:22Z</time>
   </trkpt>
   <trkpt lat="52.2039560" lon="0.1277640">
    <ele>12.3</ele>
    <time>2022-08-18T16:41:23Z</time>
   </trkpt>
   <trkpt lat="52.2039320" lon="0.1278100">
    <ele>12.3</ele>
    <time>2022-08-18T16:41:24Z</time>
   </trkpt>
   <trkpt lat="52.2039140" lon="0.1278640">
    <ele>12.3</ele>
    <time>2022-08-18T16:41:25Z</time>
   </trkpt>
   <trkpt lat="52.2038870" lon="0.1279110">
    <ele>12.3</ele>
    <time>2022-08-18T16:41:26Z</time>
   </trkpt>
   <trkpt lat="52.2038640" lon="0.1279520">
    <ele>12.3</ele>
    <time>2022-08-18T16:41:27Z</time>
   </trkpt>
   <trkpt lat="52.2038380" lon="0.1280060">
    <ele>12.3</ele>
    <time>2022-08-18T16:41:28Z</time>
   </trkpt>
   <trkpt lat="52.2038270" lon="0.1280260">
    <ele>12.3</ele>
    <time>2022-08-18T16:41:29Z</time>
   </trkpt>
   <trkpt lat="52.2038130" lon="0.1280710">
    <ele>12.3</ele>
    <time>2022-08-18T16:41:30Z</time>
   </trkpt>
   <trkpt lat="52.2037980" lon="0.1281160">
    <ele>12.3</ele>
    <time>2022-08-18T16:41:31Z</time>
   </trkpt>
   <trkpt lat="52.2037850" lon="0.1281810">
    <ele>12.3</ele>
    <time>2022-08-18T16:41:32Z</time>
   </trkpt>
   <trkpt lat="52.2037790" lon="0.1282040">
    <ele>12.3</ele>
    <time>2022-08-18T16:41:33Z</time>
   </trkpt>
   <trkpt lat="52.2037450" lon="0.1282410">
    <ele>12.3</ele>
    <time>2022-08-18T16:41:34Z</time>
   </trkpt>
   <trkpt lat="52.2037210" lon="0.1282880">
    <ele>12.3</ele>
    <time>2022-08-18T16:41:35Z</time>
   </trkpt>
   <trkpt lat="52.2036890" lon="0.1283200">
    <ele>12.3</ele>
    <time>2022-08-18T16:41:36Z</time>
   </trkpt>
   <trkpt lat="52.2036590" lon="0.1283390">
    <ele>12.2</ele>
    <time>2022-08-18T16:41:37Z</time>
   </trkpt>
   <trkpt lat="52.2036220" lon="0.1283370">
    <ele>12.1</ele>
    <time>2022-08-18T16:41:38Z</time>
   </trkpt>
   <trkpt lat="52.2035810" lon="0.1283360">
    <ele>12.0</ele>
    <time>2022-08-18T16:41:39Z</time>
   </trkpt>
   <trkpt lat="52.2035410" lon="0.1283430">
    <ele>11.9</ele>
    <time>2022-08-18T16:41:40Z</time>
   </trkpt>
   <trkpt lat="52.2035040" lon="0.1283390">
    <ele>11.8</ele>
    <time>2022-08-18T16:41:41Z</time>
   </trkpt>
   <trkpt lat="52.2034660" lon="0.1283380">
    <ele>11.8</ele>
    <time>2022-08-18T16:41:42Z</time>
   </trkpt>
   <trkpt lat="52.2034270" lon="0.1283410">
    <ele>11.7</ele>
    <time>2022-08-18T16:41:43Z</time>
   </trkpt>
   <trkpt lat="52.2033860" lon="0.1283420">
    <ele>11.6</ele>
    <time>2022-08-18T16:41:44Z</time>
   </trkpt>
   <trkpt lat="52.2033520" lon="0.1283360">
    <ele>11.6</ele>
    <time>2022-08-18T16:41:45Z</time>
   </trkpt>
   <trkpt lat="52.2033220" lon="0.1283200">
    <ele>11.6</ele>
    <time>2022-08-18T16:41:46Z</time>
   </trkpt>
   <trkpt lat="52.2032870" lon="0.1283190">
    <ele>11.6</ele>
    <time>2022-08-18T16:41:47Z</time>
   </trkpt>
   <trkpt lat="52.2032480" lon="0.1283170">
    <ele>11.6</ele>
    <time>2022-08-18T16:41:48Z</time>
   </trkpt>
   <trkpt lat="52.2032160" lon="0.1283160">
    <ele>11.6</ele>
    <time>2022-08-18T16:41:49Z</time>
   </trkpt>
   <trkpt lat="52.2031820" lon="0.1283150">
    <ele>11.6</ele>
    <time>2022-08-18T16:41:50Z</time>
   </trkpt>
   <trkpt lat="52.2031490" lon="0.1283080">
    <ele>11.6</ele>
    <time>2022-08-18T16:41:51Z</time>
   </trkpt>
   <trkpt lat="52.2031170" lon="0.1283070">
    <ele>11.6</ele>
    <time>2022-08-18T16:41:52Z</time>
   </trkpt>
   <trkpt lat="52.2030850" lon="0.1283050">
    <ele>11.6</ele>
    <time>2022-08-18T16:41:53Z</time>
   </trkpt>
   <trkpt lat="52.2030540" lon="0.1282960">
    <ele>11.5</ele>
    <time>2022-08-18T16:41:54Z</time>
   </trkpt>
   <trkpt lat="52.2030150" lon="0.1282970">
    <ele>11.5</ele>
    <time>2022-08-18T16:41:55Z</time>
   </trkpt>
   <trkpt lat="52.2029850" lon="0.1282990">
    <ele>11.5</ele>
    <time>2022-08-18T16:41:56Z</time>
   </trkpt>
   <trkpt lat="52.2029500" lon="0.1283000">
    <ele>11.5</ele>
    <time>2022-08-18T16:41:57Z</time>
   </trkpt>
   <trkpt lat="52.2029160" lon="0.1283010">
    <ele>11.5</ele>
    <time>2022-08-18T16:41:58Z</time>
   </trkpt>
   <trkpt lat="52.2028810" lon="0.1282900">
    <ele>11.5</ele>
    <time>2022-08-18T16:41:59Z</time>
   </trkpt>
   <trkpt lat="52.2028480" lon="0.1282840">
    <ele>11.5</ele>
    <time>2022-08-18T16:42:00Z</time>
   </trkpt>
   <trkpt lat="52.2028120" lon="0.1282850">
    <ele>11.5</ele>
    <time>2022-08-18T16:42:01Z</time>
   </trkpt>
   <trkpt lat="52.2027840" lon="0.1282820">
    <ele>11.5</ele>
    <time>2022-08-18T16:42:02Z</time>
   </trkpt>
   <trkpt lat="52.2027490" lon="0.1282820">
    <ele>11.5</ele>
    <time>2022-08-18T16:42:03Z</time>
   </trkpt>
   <trkpt lat="52.2027180" lon="0.1282820">
    <ele>11.5</ele>
    <time>2022-08-18T16:42:04Z</time>
   </trkpt>
   <trkpt lat="52.2026820" lon="0.1282780">
    <ele>11.5</ele>
    <time>2022-08-18T16:42:05Z</time>
   </trkpt>
   <trkpt lat="52.2026500" lon="0.1282690">
    <ele>11.5</ele>
    <time>2022-08-18T16:42:06Z</time>
   </trkpt>
   <trkpt lat="52.2026200" lon="0.1282640">
    <ele>11.5</ele>
    <time>2022-08-18T16:42:07Z</time>
   </trkpt>
   <trkpt lat="52.2025830" lon="0.1282610">
    <ele>11.5</ele>
    <time>2022-08-18T16:42:08Z</time>
   </trkpt>
   <trkpt lat="52.2025500" lon="0.1282600">
    <ele>11.5</ele>
    <time>2022-08-18T16:42:09Z</time>
   </trkpt>
   <trkpt lat="52.2025180" lon="0.1282530">
    <ele>11.5</ele>
    <time>2022-08-18T16:42:10Z</time>
   </trkpt>
   <trkpt lat="52.2024830" lon="0.1282450">
    <ele>11.5</ele>
    <time>2022-08-18T16:42:11Z</time>
   </trkpt>
   <trkpt lat="52.2024500" lon="0.1282440">
    <ele>11.6</ele>
    <time>2022-08-18T16:42:12Z</time>
   </trkpt>
   <trkpt lat="52.2024140" lon="0.1282470">
    <ele>11.6</ele>
    <time>2022-08-18T16:42:13Z</time>
   </trkpt>
   <trkpt lat="52.2023870" lon="0.1282690">
    <ele>11.6</ele>
    <time>2022-08-18T16:42:14Z</time>
   </trkpt>
   <trkpt lat="52.2023510" lon="0.1282990">
    <ele>11.6</ele>
    <time>2022-08-18T16:42:15Z</time>
   </trkpt>
   <trkpt lat="52.2023260" lon="0.1283360">
    <ele>11.6</ele>
    <time>2022-08-18T16:42:16Z</time>
   </trkpt>
   <trkpt lat="52.2023100" lon="0.1283940">
    <ele>11.8</ele>
    <time>2022-08-18T16:42:17Z</time>
   </trkpt>
   <trkpt lat="52.2022920" lon="0.1284340">
    <ele>11.8</ele>
    <time>2022-08-18T16:42:18Z</time>
   </trkpt>
   <trkpt lat="52.2022800" lon="0.1284850">
    <ele>11.8</ele>
    <time>2022-08-18T16:42:19Z</time>
   </trkpt>
   <trkpt lat="52.2022690" lon="0.1285390">
    <ele>11.8</ele>
    <time>2022-08-18T16:42:20Z</time>
   </trkpt>
   <trkpt lat="52.2022540" lon="0.1285810">
    <ele>11.8</ele>
    <time>2022-08-18T16:42:21Z</time>
   </trkpt>
   <trkpt lat="52.2022460" lon="0.1286360">
    <ele>11.8</ele>
    <time>2022-08-18T16:42:22Z</time>
   </trkpt>
   <trkpt lat="52.2022410" lon="0.1286870">
    <ele>11.8</ele>
    <time>2022-08-18T16:42:23Z</time>
   </trkpt>
   <trkpt lat="52.2022340" lon="0.1287390">
    <ele>11.8</ele>
    <time>2022-08-18T16:42:24Z</time>
   </trkpt>
   <trkpt lat="52.2022270" lon="0.1287860">
    <ele>11.9</ele>
    <time>2022-08-18T16:42:25Z</time>
   </trkpt>
   <trkpt lat="52.2022190" lon="0.1288360">
    <ele>11.9</ele>
    <time>2022-08-18T16:42:26Z</time>
   </trkpt>
   <trkpt lat="52.2022130" lon="0.1288970">
    <ele>11.9</ele>
    <time>2022-08-18T16:42:27Z</time>
   </trkpt>
   <trkpt lat="52.2022030" lon="0.1289580">
    <ele>11.9</ele>
    <time>2022-08-18T16:42:28Z</time>
   </trkpt>
   <trkpt lat="52.2021950" lon="0.1290190">
    <ele>11.9</ele>
    <time>2022-08-18T16:42:29Z</time>
   </trkpt>
   <trkpt lat="52.2021920" lon="0.1290810">
    <ele>11.9</ele>
    <time>2022-08-18T16:42:30Z</time>
   </trkpt>
   <trkpt lat="52.2021830" lon="0.1291390">
    <ele>12.0</ele>
    <time>2022-08-18T16:42:31Z</time>
   </trkpt>
   <trkpt lat="52.2021770" lon="0.1291870">
    <ele>12.0</ele>
    <time>2022-08-18T16:42:32Z</time>
   </trkpt>
   <trkpt lat="52.2021750" lon="0.1292460">
    <ele>12.0</ele>
    <time>2022-08-18T16:42:33Z</time>
   </trkpt>
   <trkpt lat="52.2021670" lon="0.1293050">
    <ele>12.0</ele>
    <time>2022-08-18T16:42:34Z</time>
   </trkpt>
   <trkpt lat="52.2021650" lon="0.1293590">
    <ele>12.0</ele>
    <time>2022-08-18T16:42:35Z</time>
   </trkpt>
   <trkpt lat="52.2021630" lon="0.1294200">
    <ele>12.0</ele>
    <time>2022-08-18T16:42:36Z</time>
   </trkpt>
   <trkpt lat="52.2021640" lon="0.1294720">
    <ele>12.0</ele>
    <time>2022-08-18T16:42:37Z</time>
   </trkpt>
   <trkpt lat="52.2021690" lon="0.1295340">
    <ele>12.1</ele>
    <time>2022-08-18T16:42:38Z</time>
   </trkpt>
   <trkpt lat="52.2021710" lon="0.1295850">
    <ele>12.1</ele>
    <time>2022-08-18T16:42:39Z</time>
   </trkpt>
   <trkpt lat="52.2021680" lon="0.1296430">
    <ele>12.1</ele>
    <time>2022-08-18T16:42:40Z</time>
   </trkpt>
   <trkpt lat="52.2021700" lon="0.1296990">
    <ele>12.1</ele>
    <time>2022-08-18T16:42:41Z</time>
   </trkpt>
   <trkpt lat="52.2021610" lon="0.1297660">
    <ele>12.1</ele>
    <time>2022-08-18T16:42:42Z</time>
   </trkpt>
   <trkpt lat="52.2021610" lon="0.1297930">
    <ele>12.1</ele>
    <time>2022-08-18T16:42:43Z</time>
   </trkpt>
   <trkpt lat="52.2021580" lon="0.1298450">
    <ele>12.1</ele>
    <time>2022-08-18T16:42:44Z</time>
   </trkpt>
   <trkpt lat="52.2021540" lon="0.1299000">
    <ele>12.1</ele>
    <time>2022-08-18T16:42:45Z</time>
   </trkpt>
   <trkpt lat="52.2021510" lon="0.1299620">
    <ele>12.1</ele>
    <time>2022-08-18T16:42:46Z</time>
   </trkpt>
   <trkpt lat="52.2021480" lon="0.1300120">
    <ele>12.1</ele>
    <time>2022-08-18T16:42:47Z</time>
   </trkpt>
   <trkpt lat="52.2021500" lon="0.1300680">
    <ele>12.1</ele>
    <time>2022-08-18T16:42:48Z</time>
   </trkpt>
   <trkpt lat="52.2021430" lon="0.1301200">
    <ele>12.1</ele>
    <time>2022-08-18T16:42:49Z</time>
   </trkpt>
   <trkpt lat="52.2021320" lon="0.1301670">
    <ele>12.1</ele>
    <time>2022-08-18T16:42:50Z</time>
   </trkpt>
   <trkpt lat="52.2021340" lon="0.1302150">
    <ele>12.2</ele>
    <time>2022-08-18T16:42:51Z</time>
   </trkpt>
   <trkpt lat="52.2021250" lon="0.1302710">
    <ele>12.2</ele>
    <time>2022-08-18T16:42:52Z</time>
   </trkpt>
   <trkpt lat="52.2021120" lon="0.1303130">
    <ele>12.3</ele>
    <time>2022-08-18T16:42:53Z</time>
   </trkpt>
   <trkpt lat="52.2020840" lon="0.1303330">
    <ele>12.3</ele>
    <time>2022-08-18T16:42:54Z</time>
   </trkpt>
   <trkpt lat="52.2020590" lon="0.1303690">
    <ele>12.4</ele>
    <time>2022-08-18T16:42:55Z</time>
   </trkpt>
   <trkpt lat="52.2020460" lon="0.1304180">
    <ele>12.5</ele>
    <time>2022-08-18T16:42:56Z</time>
   </trkpt>
   <trkpt lat="52.2020250" lon="0.1304540">
    <ele>12.5</ele>
    <time>2022-08-18T16:42:57Z</time>
   </trkpt>
   <trkpt lat="52.2020180" lon="0.1304620">
    <ele>12.6</ele>
    <time>2022-08-18T16:42:58Z</time>
   </trkpt>
  </trkseg>
 </trk>
</gpx>
