<?xml version="1.0" encoding="UTF-8"?>
<gpx creator="StravaGPX" version="1.1" xmlns="http://www.topografix.com/GPX/1/1" xmlns:xsi="http://www.w3.org/2001/XMLSchema-instance" xsi:schemaLocation="http://www.topografix.com/GPX/1/1 http://www.topografix.com/GPX/1/1/gpx.xsd">
 <metadata>
  <time>2022-08-18T17:46:27Z</time>
 </metadata>
 <trk>
  <name>Evening Run</name>
  <type>running</type>
  <trkseg>
   <trkpt lat="52.2019890" lon="0.1304610">
    <ele>12.6</ele>
    <time>2022-08-18T17:46:27Z</time>
   </trkpt>
   <trkpt lat="52.2020070" lon="0.1304700">
    <ele>12.6</ele>
    <time>2022-08-18T17:46:28Z</time>
   </trkpt>
   <trkpt lat="52.2020150" lon="0.1304720">
    <ele>12.5</ele>
    <time>2022-08-18T17:46:29Z</time>
   </trkpt>
   <trkpt lat="52.2020350" lon="0.1304720">
    <ele>12.5</ele>
    <time>2022-08-18T17:46:30Z</time>
   </trkpt>
   <trkpt lat="52.2020430" lon="0.1304650">
    <ele>12.5</ele>
    <time>2022-08-18T17:46:31Z</time>
   </trkpt>
   <trkpt lat="52.2020660" lon="0.1304290">
    <ele>12.4</ele>
    <time>2022-08-18T17:46:32Z</time>
   </trkpt>
   <trkpt lat="52.2020910" lon="0.1303700">
    <ele>12.3</ele>
    <time>2022-08-18T17:46:33Z</time>
   </trkpt>
   <trkpt lat="52.2021310" lon="0.1303190">
    <ele>12.2</ele>
    <time>2022-08-18T17:46:34Z</time>
   </trkpt>
   <trkpt lat="52.2021480" lon="0.1302810">
    <ele>12.2</ele>
    <time>2022-08-18T17:46:35Z</time>
   </trkpt>
   <trkpt lat="52.2021700" lon="0.1302400">
    <ele>12.2</ele>
    <time>2022-08-18T17:46:36Z</time>
   </trkpt>
   <trkpt lat="52.2021900" lon="0.1301900">
    <ele>12.1</ele>
    <time>2022-08-18T17:46:37Z</time>
   </trkpt>
   <trkpt lat="52.2022110" lon="0.1301400">
    <ele>12.1</ele>
    <time>2022-08-18T17:46:38Z</time>
   </trkpt>
   <trkpt lat="52.2022340" lon="0.1300940">
    <ele>12.1</ele>
    <time>2022-08-18T17:46:39Z</time>
   </trkpt>
   <trkpt lat="52.2022500" lon="0.1300380">
    <ele>12.1</ele>
    <time>2022-08-18T17:46:40Z</time>
   </trkpt>
   <trkpt lat="52.2022630" lon="0.1299860">
    <ele>12.1</ele>
    <time>2022-08-18T17:46:41Z</time>
   </trkpt>
   <trkpt lat="52.2022710" lon="0.1299270">
    <ele>12.1</ele>
    <time>2022-08-18T17:46:42Z</time>
   </trkpt>
   <trkpt lat="52.2022870" lon="0.1298820">
    <ele>12.1</ele>
    <time>2022-08-18T17:46:43Z</time>
   </trkpt>
   <trkpt lat="52.2022950" lon="0.1298340">
    <ele>12.1</ele>
    <time>2022-08-18T17:46:44Z</time>
   </trkpt>
   <trkpt lat="52.2023070" lon="0.1297790">
    <ele>12.1</ele>
    <time>2022-08-18T17:46:45Z</time>
   </trkpt>
   <trkpt lat="52.2023130" lon="0.1297220">
    <ele>12.1</ele>
    <time>2022-08-18T17:46:46Z</time>
   </trkpt>
   <trkpt lat="52.2023170" lon="0.1296600">
    <ele>12.1</ele>
    <time>2022-08-18T17:46:47Z</time>
   </trkpt>
   <trkpt lat="52.2023290" lon="0.1296150">
    <ele>12.1</ele>
    <time>2022-08-18T17:46:48Z</time>
   </trkpt>
   <trkpt lat="52.2023400" lon="0.1295620">
    <ele>12.1</ele>
    <time>2022-08-18T17:46:49Z</time>
   </trkpt>
   <trkpt lat="52.2023500" lon="0.1295040">
    <ele>12.1</ele>
    <time>2022-08-18T17:46:50Z</time>
   </trkpt>
   <trkpt lat="52.2023420" lon="0.1294540">
    <ele>12.1</ele>
    <time>2022-08-18T17:46:51Z</time>
   </trkpt>
   <trkpt lat="52.2023360" lon="0.1294010">
    <ele>12.0</ele>
    <time>2022-08-18T17:46:52Z</time>
   </trkpt>
   <trkpt lat="52.2023270" lon="0.1293470">
    <ele>12.0</ele>
    <time>2022-08-18T17:46:53Z</time>
   </trkpt>
   <trkpt lat="52.2023070" lon="0.1293070">
    <ele>12.0</ele>
    <time>2022-08-18T17:46:54Z</time>
   </trkpt>
   <trkpt lat="52.2023000" lon="0.1292520">
    <ele>12.0</ele>
    <time>2022-08-18T17:46:55Z</time>
   </trkpt>
   <trkpt lat="52.2023040" lon="0.1292010">
    <ele>12.0</ele>
    <time>2022-08-18T17:46:56Z</time>
   </trkpt>
   <trkpt lat="52.2022950" lon="0.1291440">
    <ele>12.0</ele>
    <time>2022-08-18T17:46:57Z</time>
   </trkpt>
   <trkpt lat="52.2022890" lon="0.1290970">
    <ele>11.9</ele>
    <time>2022-08-18T17:46:58Z</time>
   </trkpt>
   <trkpt lat="52.2022790" lon="0.1290460">
    <ele>11.9</ele>
    <time>2022-08-18T17:46:59Z</time>
   </trkpt>
   <trkpt lat="52.2022800" lon="0.1289880">
    <ele>11.9</ele>
    <time>2022-08-18T17:47:00Z</time>
   </trkpt>
   <trkpt lat="52.2022690" lon="0.1289340">
    <ele>11.9</ele>
    <time>2022-08-18T17:47:01Z</time>
   </trkpt>
   <trkpt lat="52.2022640" lon="0.1288770">
    <ele>11.9</ele>
    <time>2022-08-18T17:47:02Z</time>
   </trkpt>
   <trkpt lat="52.2022630" lon="0.1288260">
    <ele>11.9</ele>
    <time>2022-08-18T17:47:03Z</time>
   </trkpt>
   <trkpt lat="52.2022590" lon="0.1287660">
    <ele>11.8</ele>
    <time>2022-08-18T17:47:04Z</time>
   </trkpt>
   <trkpt lat="52.2022600" lon="0.1287060">
    <ele>11.8</ele>
    <time>2022-08-18T17:47:05Z</time>
   </trkpt>
   <trkpt lat="52.2022480" lon="0.1286440">
    <ele>11.8</ele>
    <time>2022-08-18T17:47:06Z</time>
   </trkpt>
   <trkpt lat="52.2022520" lon="0.1285990">
    <ele>11.8</ele>
    <time>2022-08-18T17:47:07Z</time>
   </trkpt>
   <trkpt lat="52.2022440" lon="0.1285430">
    <ele>11.8</ele>
    <time>2022-08-18T17:47:08Z</time>
   </trkpt>
   <trkpt lat="52.2022420" lon="0.1284940">
    <ele>11.8</ele>
    <time>2022-08-18T17:47:09Z</time>
   </trkpt>
   <trkpt lat="52.2022380" lon="0.1284390">
    <ele>11.8</ele>
    <time>2022-08-18T17:47:10Z</time>
   </trkpt>
   <trkpt lat="52.2022260" lon="0.1283830">
    <ele>11.8</ele>
    <time>2022-08-18T17:47:11Z</time>
   </trkpt>
   <trkpt lat="52.2022200" lon="0.1283330">
    <ele>11.7</ele>
    <time>2022-08-18T17:47:12Z</time>
   </trkpt>
   <trkpt lat="52.2022190" lon="0.1282780">
    <ele>11.7</ele>
    <time>2022-08-18T17:47:13Z</time>
   </trkpt>
   <trkpt lat="52.2022200" lon="0.1282340">
    <ele>11.7</ele>
    <time>2022-08-18T17:47:14Z</time>
   </trkpt>
   <trkpt lat="52.2022480" lon="0.1282100">
    <ele>11.7</ele>
    <time>2022-08-18T17:47:15Z</time>
   </trkpt>
   <trkpt lat="52.2022970" lon="0.1282110">
    <ele>11.7</ele>
    <time>2022-08-18T17:47:16Z</time>
   </trkpt>
   <trkpt lat="52.2023380" lon="0.1282360">
    <ele>11.6</ele>
    <time>2022-08-18T17:47:17Z</time>
   </trkpt>
   <trkpt lat="52.2023670" lon="0.1282570">
    <ele>11.6</ele>
    <time>2022-08-18T17:47:18Z</time>
   </trkpt>
   <trkpt lat="52.2023990" lon="0.1282680">
    <ele>11.6</ele>
    <time>2022-08-18T17:47:19Z</time>
   </trkpt>
   <trkpt lat="52.2024130" lon="0.1282690">
    <ele>11.6</ele>
    <time>2022-08-18T17:47:20Z</time>
   </trkpt>
   <trkpt lat="52.2024440" lon="0.1282820">
    <ele>11.6</ele>
    <time>2022-08-18T17:47:21Z</time>
   </trkpt>
   <trkpt lat="52.2024850" lon="0.1282720">
    <ele>11.5</ele>
    <time>2022-08-18T17:47:22Z</time>
   </trkpt>
   <trkpt lat="52.2025160" lon="0.1282820">
    <ele>11.5</ele>
    <time>2022-08-18T17:47:23Z</time>
   </trkpt>
   <trkpt lat="52.2025550" lon="0.1282850">
    <ele>11.5</ele>
    <time>2022-08-18T17:47:24Z</time>
   </trkpt>
   <trkpt lat="52.2025950" lon="0.1282840">
    <ele>11.5</ele>
    <time>2022-08-18T17:47:25Z</time>
   </trkpt>
   <trkpt lat="52.2026270" lon="0.1282980">
    <ele>11.5</ele>
    <time>2022-08-18T17:47:26Z</time>
   </trkpt>
   <trkpt lat="52.2026650" lon="0.1283010">
    <ele>11.5</ele>
    <time>2022-08-18T17:47:27Z</time>
   </trkpt>
   <trkpt lat="52.2026980" lon="0.1283070">
    <ele>11.5</ele>
    <time>2022-08-18T17:47:28Z</time>
   </trkpt>
   <trkpt lat="52.2027380" lon="0.1283080">
    <ele>11.5</ele>
    <time>2022-08-18T17:47:29Z</time>
   </trkpt>
   <trkpt lat="52.2027730" lon="0.1283090">
    <ele>11.5</ele>
    <time>2022-08-18T17:47:30Z</time>
   </trkpt>
   <trkpt lat="52.2028100" lon="0.1283110">
    <ele>11.5</ele>
    <time>2022-08-18T17:47:31Z</time>
   </trkpt>
   <trkpt lat="52.2028450" lon="0.1283190">
    <ele>11.5</ele>
    <time>2022-08-18T17:47:32Z</time>
   </trkpt>
   <trkpt lat="52.2028720" lon="0.1283290">
    <ele>11.5</ele>
    <time>2022-08-18T17:47:33Z</time>
   </trkpt>
   <trkpt lat="52.2029070" lon="0.1283380">
    <ele>11.5</ele>
    <time>2022-08-18T17:47:35Z</time>
   </trkpt>
   <trkpt lat="52.2029430" lon="0.1283380">
    <ele>11.5</ele>
    <time>2022-08-18T17:47:36Z</time>
   </trkpt>
   <trkpt lat="52.2029790" lon="0.1283380">
    <ele>11.5</ele>
    <time>2022-08-18T17:47:37Z</time>
   </trkpt>
   <trkpt lat="52.2030080" lon="0.1283570">
    <ele>11.5</ele>
    <time>2022-08-18T17:47:38Z</time>
   </trkpt>
   <trkpt lat="52.2030410" lon="0.1283650">
    <ele>11.5</ele>
    <time>2022-08-18T17:47:39Z</time>
   </trkpt>
   <trkpt lat="52.2030750" lon="0.1283760">
    <ele>11.5</ele>
    <time>2022-08-18T17:47:40Z</time>
   </trkpt>
   <trkpt lat="52.2031070" lon="0.1283810">
    <ele>11.6</ele>
    <time>2022-08-18T17:47:41Z</time>
   </trkpt>
   <trkpt lat="52.2031440" lon="0.1283760">
    <ele>11.6</ele>
    <time>2022-08-18T17:47:42Z</time>
   </trkpt>
   <trkpt lat="52.2031800" lon="0.1283710">
    <ele>11.6</ele>
    <time>2022-08-18T17:47:43Z</time>
   </trkpt>
   <trkpt lat="52.2032200" lon="0.1283740">
    <ele>11.6</ele>
    <time>2022-08-18T17:47:44Z</time>
   </trkpt>
   <trkpt lat="52.2032530" lon="0.1283780">
    <ele>11.6</ele>
    <time>2022-08-18T17:47:45Z</time>
   </trkpt>
   <trkpt lat="52.2032870" lon="0.1283790">
    <ele>11.6</ele>
    <time>2022-08-18T17:47:46Z</time>
   </trkpt>
   <trkpt lat="52.2033210" lon="0.1283890">
    <ele>11.6</ele>
    <time>2022-08-18T17:47:47Z</time>
   </trkpt>
   <trkpt lat="52.2033550" lon="0.1283940">
    <ele>11.6</ele>
    <time>2022-08-18T17:47:48Z</time>
   </trkpt>
   <trkpt lat="52.2033920" lon="0.1283890">
    <ele>11.7</ele>
    <time>2022-08-18T17:47:49Z</time>
   </trkpt>
   <trkpt lat="52.2034250" lon="0.1283840">
    <ele>11.7</ele>
    <time>2022-08-18T17:47:50Z</time>
   </trkpt>
   <trkpt lat="52.2034610" lon="0.1283890">
    <ele>11.7</ele>
    <time>2022-08-18T17:47:51Z</time>
   </trkpt>
   <trkpt lat="52.2034970" lon="0.1283930">
    <ele>11.8</ele>
    <time>2022-08-18T17:47:52Z</time>
   </trkpt>
   <trkpt lat="52.2035370" lon="0.1284110">
    <ele>11.9</ele>
    <time>2022-08-18T17:47:53Z</time>
   </trkpt>
   <trkpt lat="52.2035680" lon="0.1284130">
    <ele>12.0</ele>
    <time>2022-08-18T17:47:54Z</time>
   </trkpt>
   <trkpt lat="52.2036010" lon="0.1284120">
    <ele>12.0</ele>
    <time>2022-08-18T17:47:55Z</time>
   </trkpt>
   <trkpt lat="52.2036310" lon="0.1284170">
    <ele>12.1</ele>
    <time>2022-08-18T17:47:56Z</time>
   </trkpt>
   <trkpt lat="52.2036590" lon="0.1284240">
    <ele>12.2</ele>
    <time>2022-08-18T17:47:57Z</time>
   </trkpt>
   <trkpt lat="52.2036970" lon="0.1284480">
    <ele>12.3</ele>
    <time>2022-08-18T17:47:58Z</time>
   </trkpt>
   <trkpt lat="52.2037140" lon="0.1284500">
    <ele>12.3</ele>
    <time>2022-08-18T17:47:59Z</time>
   </trkpt>
   <trkpt lat="52.2037410" lon="0.1284110">
    <ele>12.3</ele>
    <time>2022-08-18T17:48:00Z</time>
   </trkpt>
   <trkpt lat="52.2037680" lon="0.1283520">
    <ele>12.3</ele>
    <time>2022-08-18T17:48:01Z</time>
   </trkpt>
   <trkpt lat="52.2037770" lon="0.1283240">
    <ele>12.3</ele>
    <time>2022-08-18T17:48:02Z</time>
   </trkpt>
   <trkpt lat="52.2038060" lon="0.1282740">
    <ele>12.3</ele>
    <time>2022-08-18T17:48:03Z</time>
   </trkpt>
   <trkpt lat="52.2038280" lon="0.1282170">
    <ele>12.3</ele>
    <time>2022-08-18T17:48:04Z</time>
   </trkpt>
   <trkpt lat="52.2038530" lon="0.1281760">
    <ele>12.3</ele>
    <time>2022-08-18T17:48:05Z</time>
   </trkpt>
   <trkpt lat="52.2038740" lon="0.1281360">
    <ele>12.3</ele>
    <time>2022-08-18T17:48:06Z</time>
   </trkpt>
   <trkpt lat="52.2039060" lon="0.1280960">
    <ele>12.3</ele>
    <time>2022-08-18T17:48:07Z</time>
   </trkpt>
   <trkpt lat="52.2039240" lon="0.1280370">
    <ele>12.3</ele>
    <time>2022-08-18T17:48:08Z</time>
   </trkpt>
   <trkpt lat="52.2039370" lon="0.1279750">
    <ele>12.3</ele>
    <time>2022-08-18T17:48:09Z</time>
   </trkpt>
   <trkpt lat="52.2039590" lon="0.1279240">
    <ele>12.3</ele>
    <time>2022-08-18T17:48:10Z</time>
   </trkpt>
   <trkpt lat="52.2039870" lon="0.1278790">
    <ele>12.3</ele>
    <time>2022-08-18T17:48:11Z</time>
   </trkpt>
   <trkpt lat="52.2040070" lon="0.1278300">
    <ele>12.3</ele>
    <time>2022-08-18T17:48:12Z</time>
   </trkpt>
   <trkpt lat="52.2040280" lon="0.1277740">
    <ele>12.3</ele>
    <time>2022-08-18T17:48:13Z</time>
   </trkpt>
   <trkpt lat="52.2040560" lon="0.1277320">
    <ele>12.3</ele>
    <time>2022-08-18T17:48:14Z</time>
   </trkpt>
   <trkpt lat="52.2040690" lon="0.1276840">
    <ele>12.3</ele>
    <time>2022-08-18T17:48:15Z</time>
   </trkpt>
   <trkpt lat="52.2040860" lon="0.1276360">
    <ele>12.3</ele>
    <time>2022-08-18T17:48:16Z</time>
   </trkpt>
   <trkpt lat="52.2041120" lon="0.1275880">
    <ele>12.3</ele>
    <time>2022-08-18T17:48:17Z</time>
   </trkpt>
   <trkpt lat="52.2041270" lon="0.1275360">
    <ele>12.3</ele>
    <time>2022-08-18T17:48:18Z</time>
   </trkpt>
   <trkpt lat="52.2041600" lon="0.1274970">
    <ele>12.3</ele>
    <time>2022-08-18T17:48:19Z</time>
   </trkpt>
   <trkpt lat="52.2041800" lon="0.1274610">
    <ele>12.2</ele>
    <time>2022-08-18T17:48:20Z</time>
   </trkpt>
   <trkpt lat="52.2042070" lon="0.1274390">
    <ele>12.2</ele>
    <time>2022-08-18T17:48:21Z</time>
   </trkpt>
   <trkpt lat="52.2042340" lon="0.1274460">
    <ele>12.2</ele>
    <time>2022-08-18T17:48:22Z</time>
   </trkpt>
   <trkpt lat="52.2042630" lon="0.1274880">
    <ele>12.1</ele>
    <time>2022-08-18T17:48:23Z</time>
   </trkpt>
   <trkpt lat="52.2042970" lon="0.1275180">
    <ele>12.1</ele>
    <time>2022-08-18T17:48:24Z</time>
   </trkpt>
   <trkpt lat="52.2043270" lon="0.1275600">
    <ele>12.1</ele>
    <time>2022-08-18T17:48:25Z</time>
   </trkpt>
   <trkpt lat="52.2043530" lon="0.1275840">
    <ele>12.1</ele>
    <time>2022-08-18T17:48:26Z</time>
   </trkpt>
   <trkpt lat="52.2043860" lon="0.1275970">
    <ele>12.1</ele>
    <time>2022-08-18T17:48:27Z</time>
   </trkpt>
   <trkpt lat="52.2044220" lon="0.1276160">
    <ele>12.1</ele>
    <time>2022-08-18T17:48:28Z</time>
   </trkpt>
   <trkpt lat="52.2044350" lon="0.1276240">
    <ele>12.1</ele>
    <time>2022-08-18T17:48:29Z</time>
   </trkpt>
   <trkpt lat="52.2044620" lon="0.1276620">
    <ele>12.1</ele>
    <time>2022-08-18T17:48:30Z</time>
   </trkpt>
   <trkpt lat="52.2044880" lon="0.1276910">
    <ele>12.1</ele>
    <time>2022-08-18T17:48:31Z</time>
   </trkpt>
   <trkpt lat="52.2045160" lon="0.1277180">
    <ele>12.1</ele>
    <time>2022-08-18T17:48:32Z</time>
   </trkpt>
   <trkpt lat="52.2045440" lon="0.1277330">
    <ele>12.1</ele>
    <time>2022-08-18T17:48:33Z</time>
   </trkpt>
   <trkpt lat="52.2045730" lon="0.1277430">
    <ele>12.1</ele>
    <time>2022-08-18T17:48:34Z</time>
   </trkpt>
   <trkpt lat="52.2046090" lon="0.1277660">
    <ele>12.1</ele>
    <time>2022-08-18T17:48:35Z</time>
   </trkpt>
   <trkpt lat="52.2046430" lon="0.1277920">
    <ele>12.1</ele>
    <time>2022-08-18T17:48:36Z</time>
   </trkpt>
   <trkpt lat="52.2046800" lon="0.1278090">
    <ele>12.1</ele>
    <time>2022-08-18T17:48:37Z</time>
   </trkpt>
   <trkpt lat="52.2047110" lon="0.1278240">
    <ele>12.1</ele>
    <time>2022-08-18T17:48:38Z</time>
   </trkpt>
   <trkpt lat="52.2047390" lon="0.1278600">
    <ele>12.1</ele>
    <time>2022-08-18T17:48:39Z</time>
   </trkpt>
   <trkpt lat="52.2047650" lon="0.1278740">
    <ele>12.1</ele>
    <time>2022-08-18T17:48:40Z</time>
   </trkpt>
   <trkpt lat="52.2048010" lon="0.1278940">
    <ele>12.1</ele>
    <time>2022-08-18T17:48:41Z</time>
   </trkpt>
   <trkpt lat="52.2048270" lon="0.1279380">
    <ele>12.1</ele>
    <time>2022-08-18T17:48:42Z</time>
   </trkpt>
   <trkpt lat="52.2048640" lon="0.1279810">
    <ele>12.1</ele>
    <time>2022-08-18T17:48:43Z</time>
   </trkpt>
   <trkpt lat="52.2049000" lon="0.1280210">
    <ele>12.0</ele>
    <time>2022-08-18T17:48:44Z</time>
   </trkpt>
   <trkpt lat="52.2049360" lon="0.1280460">
    <ele>12.0</ele>
    <time>2022-08-18T17:48:45Z</time>
   </trkpt>
   <trkpt lat="52.2049690" lon="0.1280870">
    <ele>12.0</ele>
    <time>2022-08-18T17:48:46Z</time>
   </trkpt>
   <trkpt lat="52.2050070" lon="0.1281100">
    <ele>12.0</ele>
    <time>2022-08-18T17:48:47Z</time>
   </trkpt>
   <trkpt lat="52.2050370" lon="0.1281410">
    <ele>12.0</ele>
    <time>2022-08-18T17:48:48Z</time>
   </trkpt>
   <trkpt lat="52.2050670" lon="0.1281630">
    <ele>12.0</ele>
    <time>2022-08-18T17:48:49Z</time>
   </trkpt>
   <trkpt lat="52.2050970" lon="0.1281920">
    <ele>12.0</ele>
    <time>2022-08-18T17:48:50Z</time>
   </trkpt>
   <trkpt lat="52.2051330" lon="0.1282250">
    <ele>12.0</ele>
    <time>2022-08-18T17:48:51Z</time>
   </trkpt>
   <trkpt lat="52.2051610" lon="0.1282670">
    <ele>12.0</ele>
    <time>2022-08-18T17:48:52Z</time>
   </trkpt>
   <trkpt lat="52.2051980" lon="0.1282890">
    <ele>11.9</ele>
    <time>2022-08-18T17:48:53Z</time>
   </trkpt>
   <trkpt lat="52.2052270" lon="0.1283170">
    <ele>11.9</ele>
    <time>2022-08-18T17:48:54Z</time>
   </trkpt>
   <trkpt lat="52.2052660" lon="0.1283500">
    <ele>11.9</ele>
    <time>2022-08-18T17:48:55Z</time>
   </trkpt>
   <trkpt lat="52.2052980" lon="0.1283820">
    <ele>11.9</ele>
    <time>2022-08-18T17:48:56Z</time>
   </trkpt>
   <trkpt lat="52.2053290" lon="0.1284130">
    <ele>11.9</ele>
    <time>2022-08-18T17:48:57Z</time>
   </trkpt>
   <trkpt lat="52.2053610" lon="0.1284250">
    <ele>11.9</ele>
    <time>2022-08-18T17:48:58Z</time>
   </trkpt>
   <trkpt lat="52.2053970" lon="0.1284760">
    <ele>11.9</ele>
    <time>2022-08-18T17:48:59Z</time>
   </trkpt>
   <trkpt lat="52.2054290" lon="0.1284970">
    <ele>11.9</ele>
    <time>2022-08-18T17:49:00Z</time>
   </trkpt>
   <trkpt lat="52.2054600" lon="0.1285300">
    <ele>11.8</ele>
    <time>2022-08-18T17:49:01Z</time>
   </trkpt>
   <trkpt lat="52.2054900" lon="0.1285590">
    <ele>11.8</ele>
    <time>2022-08-18T17:49:02Z</time>
   </trkpt>
   <trkpt lat="52.2055280" lon="0.1286010">
    <ele>11.8</ele>
    <time>2022-08-18T17:49:03Z</time>
   </trkpt>
   <trkpt lat="52.2055500" lon="0.1286300">
    <ele>11.8</ele>
    <time>2022-08-18T17:49:04Z</time>
   </trkpt>
   <trkpt lat="52.2055800" lon="0.1286660">
    <ele>11.7</ele>
    <time>2022-08-18T17:49:05Z</time>
   </trkpt>
   <trkpt lat="52.2056040" lon="0.1286970">
    <ele>11.7</ele>
    <time>2022-08-18T17:49:06Z</time>
   </trkpt>
   <trkpt lat="52.2056380" lon="0.1287090">
    <ele>11.7</ele>
    <time>2022-08-18T17:49:07Z</time>
   </trkpt>
   <trkpt lat="52.2056720" lon="0.1287260">
    <ele>11.7</ele>
    <time>2022-08-18T17:49:08Z</time>
   </trkpt>
   <trkpt lat="52.2057080" lon="0.1287630">
    <ele>11.7</ele>
    <time>2022-08-18T17:49:09Z</time>
   </trkpt>
   <trkpt lat="52.2057410" lon="0.1287780">
    <ele>11.6</ele>
    <time>2022-08-18T17:49:10Z</time>
   </trkpt>
   <trkpt lat="52.2057770" lon="0.1288010">
    <ele>11.6</ele>
    <time>2022-08-18T17:49:11Z</time>
   </trkpt>
   <trkpt lat="52.2058120" lon="0.1288290">
    <ele>11.6</ele>
    <time>2022-08-18T17:49:12Z</time>
   </trkpt>
   <trkpt lat="52.2058530" lon="0.1288490">
    <ele>11.5</ele>
    <time>2022-08-18T17:49:13Z</time>
   </trkpt>
   <trkpt lat="52.2058870" lon="0.1288750">
    <ele>11.5</ele>
    <time>2022-08-18T17:49:14Z</time>
   </trkpt>
   <trkpt lat="52.2059220" lon="0.1289080">
    <ele>11.5</ele>
    <time>2022-08-18T17:49:15Z</time>
   </trkpt>
   <trkpt lat="52.2059620" lon="0.1289370">
    <ele>11.5</ele>
    <time>2022-08-18T17:49:16Z</time>
   </trkpt>
   <trkpt lat="52.2059930" lon="0.1289550">
    <ele>11.4</ele>
    <time>2022-08-18T17:49:17Z</time>
   </trkpt>
   <trkpt lat="52.2060220" lon="0.1289660">
    <ele>11.4</ele>
    <time>2022-08-18T17:49:18Z</time>
   </trkpt>
   <trkpt lat="52.2060580" lon="0.1289900">
    <ele>11.3</ele>
    <time>2022-08-18T17:49:19Z</time>
   </trkpt>
   <trkpt lat="52.2060940" lon="0.1290110">
    <ele>11.3</ele>
    <time>2022-08-18T17:49:20Z</time>
   </trkpt>
   <trkpt lat="52.2061300" lon="0.1290410">
    <ele>11.3</ele>
    <time>2022-08-18T17:49:21Z</time>
   </trkpt>
   <trkpt lat="52.2061660" lon="0.1290640">
    <ele>11.2</ele>
    <time>2022-08-18T17:49:22Z</time>
   </trkpt>
   <trkpt lat="52.2062000" lon="0.1290870">
    <ele>11.2</ele>
    <time>2022-08-18T17:49:23Z</time>
   </trkpt>
   <trkpt lat="52.2062370" lon="0.1291050">
    <ele>11.2</ele>
    <time>2022-08-18T17:49:24Z</time>
   </trkpt>
   <trkpt lat="52.2062680" lon="0.1291320">
    <ele>11.1</ele>
    <time>2022-08-18T17:49:25Z</time>
   </trkpt>
   <trkpt lat="52.2063050" lon="0.1291520">
    <ele>11.1</ele>
    <time>2022-08-18T17:49:26Z</time>
   </trkpt>
   <trkpt lat="52.2063370" lon="0.1291560">
    <ele>11.1</ele>
    <time>2022-08-18T17:49:27Z</time>
   </trkpt>
   <trkpt lat="52.2063660" lon="0.1291860">
    <ele>11.0</ele>
    <time>2022-08-18T17:49:28Z</time>
   </trkpt>
   <trkpt lat="52.2063950" lon="0.1292090">
    <ele>11.0</ele>
    <time>2022-08-18T17:49:29Z</time>
   </trkpt>
   <trkpt lat="52.2064370" lon="0.1292380">
    <ele>11.0</ele>
    <time>2022-08-18T17:49:30Z</time>
   </trkpt>
   <trkpt lat="52.2064740" lon="0.1292630">
    <ele>10.9</ele>
    <time>2022-08-18T17:49:31Z</time>
   </trkpt>
   <trkpt lat="52.2065040" lon="0.1293010">
    <ele>10.9</ele>
    <time>2022-08-18T17:49:32Z</time>
   </trkpt>
   <trkpt lat="52.2065390" lon="0.1293160">
    <ele>10.9</ele>
    <time>2022-08-18T17:49:33Z</time>
   </trkpt>
   <trkpt lat="52.2065740" lon="0.1293360">
    <ele>10.9</ele>
    <time>2022-08-18T17:49:34Z</time>
   </trkpt>
   <trkpt lat="52.2066090" lon="0.1293550">
    <ele>10.8</ele>
    <time>2022-08-18T17:49:35Z</time>
   </trkpt>
   <trkpt lat="52.2066380" lon="0.1293790">
    <ele>10.8</ele>
    <time>2022-08-18T17:49:36Z</time>
   </trkpt>
   <trkpt lat="52.2066630" lon="0.1294070">
    <ele>10.8</ele>
    <time>2022-08-18T17:49:37Z</time>
   </trkpt>
   <trkpt lat="52.2066910" lon="0.1294280">
    <ele>10.6</ele>
    <time>2022-08-18T17:49:38Z</time>
   </trkpt>
   <trkpt lat="52.2067190" lon="0.1294420">
    <ele>10.6</ele>
    <time>2022-08-18T17:49:39Z</time>
   </trkpt>
   <trkpt lat="52.2067560" lon="0.1294070">
    <ele>10.5</ele>
    <time>2022-08-18T17:49:40Z</time>
   </trkpt>
   <trkpt lat="52.2067920" lon="0.1293780">
    <ele>10.5</ele>
    <time>2022-08-18T17:49:41Z</time>
   </trkpt>
   <trkpt lat="52.2068290" lon="0.1293680">
    <ele>10.4</ele>
    <time>2022-08-18T17:49:42Z</time>
   </trkpt>
   <trkpt lat="52.2068610" lon="0.1293560">
    <ele>10.4</ele>
    <time>2022-08-18T17:49:43Z</time>
   </trkpt>
   <trkpt lat="52.2069030" lon="0.1293600">
    <ele>10.3</ele>
    <time>2022-08-18T17:49:44Z</time>
   </trkpt>
   <trkpt lat="52.2069210" lon="0.1293640">
    <ele>10.3</ele>
    <time>2022-08-18T17:49:45Z</time>
   </trkpt>
   <trkpt lat="52.2069630" lon="0.1293620">
    <ele>10.2</ele>
    <time>2022-08-18T17:49:46Z</time>
   </trkpt>
   <trkpt lat="52.2069960" lon="0.1293620">
    <ele>10.2</ele>
    <time>2022-08-18T17:49:47Z</time>
   </trkpt>
   <trkpt lat="52.2070280" lon="0.1293590">
    <ele>10.1</ele>
    <time>2022-08-18T17:49:48Z</time>
   </trkpt>
   <trkpt lat="52.2070680" lon="0.1293550">
    <ele>10.0</ele>
    <time>2022-08-18T17:49:49Z</time>
   </trkpt>
   <trkpt lat="52.2071060" lon="0.1293510">
    <ele>10.0</ele>
    <time>2022-08-18T17:49:50Z</time>
   </trkpt>
   <trkpt lat="52.2071390" lon="0.1293430">
    <ele>9.9</ele>
    <time>2022-08-18T17:49:51Z</time>
   </trkpt>
   <trkpt lat="52.2071760" lon="0.1293290">
    <ele>9.9</ele>
    <time>2022-08-18T17:49:52Z</time>
   </trkpt>
   <trkpt lat="52.2072150" lon="0.1293330">
    <ele>9.8</ele>
    <time>2022-08-18T17:49:53Z</time>
   </trkpt>
   <trkpt lat="52.2072510" lon="0.1293200">
    <ele>9.8</ele>
    <time>2022-08-18T17:49:54Z</time>
   </trkpt>
   <trkpt lat="52.2072950" lon="0.1293050">
    <ele>9.7</ele>
    <time>2022-08-18T17:49:55Z</time>
   </trkpt>
   <trkpt lat="52.2073320" lon="0.1293020">
    <ele>9.7</ele>
    <time>2022-08-18T17:49:56Z</time>
   </trkpt>
   <trkpt lat="52.2073690" lon="0.1292930">
    <ele>9.6</ele>
    <time>2022-08-18T17:49:57Z</time>
   </trkpt>
   <trkpt lat="52.2074080" lon="0.1293000">
    <ele>9.6</ele>
    <time>2022-08-18T17:49:58Z</time>
   </trkpt>
   <trkpt lat="52.2074510" lon="0.1292920">
    <ele>9.5</ele>
    <time>2022-08-18T17:49:59Z</time>
   </trkpt>
   <trkpt lat="52.2074920" lon="0.1292860">
    <ele>9.5</ele>
    <time>2022-08-18T17:50:00Z</time>
   </trkpt>
   <trkpt lat="52.2075290" lon="0.1292830">
    <ele>9.5</ele>
    <time>2022-08-18T17:50:01Z</time>
   </trkpt>
   <trkpt lat="52.2075630" lon="0.1292840">
    <ele>9.5</ele>
    <time>2022-08-18T17:50:02Z</time>
   </trkpt>
   <trkpt lat="52.2076040" lon="0.1292830">
    <ele>9.5</ele>
    <time>2022-08-18T17:50:03Z</time>
   </trkpt>
   <trkpt lat="52.2076450" lon="0.1292670">
    <ele>9.5</ele>
    <time>2022-08-18T17:50:04Z</time>
   </trkpt>
   <trkpt lat="52.2076900" lon="0.1292550">
    <ele>9.5</ele>
    <time>2022-08-18T17:50:05Z</time>
   </trkpt>
   <trkpt lat="52.2077300" lon="0.1292810">
    <ele>9.5</ele>
    <time>2022-08-18T17:50:06Z</time>
   </trkpt>
   <trkpt lat="52.2077480" lon="0.1292730">
    <ele>9.5</ele>
    <time>2022-08-18T17:50:07Z</time>
   </trkpt>
   <trkpt lat="52.2077620" lon="0.1292800">
    <ele>9.5</ele>
    <time>2022-08-18T17:50:08Z</time>
   </trkpt>
   <trkpt lat="52.2077880" lon="0.1292910">
    <ele>9.5</ele>
    <time>2022-08-18T17:50:09Z</time>
   </trkpt>
   <trkpt lat="52.2078020" lon="0.1292930">
    <ele>9.5</ele>
    <time>2022-08-18T17:50:10Z</time>
   </trkpt>
   <trkpt lat="52.2078380" lon="0.1293080">
    <ele>9.6</ele>
    <time>2022-08-18T17:50:11Z</time>
   </trkpt>
   <trkpt lat="52.2078690" lon="0.1293170">
    <ele>9.4</ele>
    <time>2022-08-18T17:50:12Z</time>
   </trkpt>
   <trkpt lat="52.2078960" lon="0.1293210">
    <ele>9.2</ele>
    <time>2022-08-18T17:50:13Z</time>
   </trkpt>
   <trkpt lat="52.2079360" lon="0.1293180">
    <ele>9.0</ele>
    <time>2022-08-18T17:50:14Z</time>
   </trkpt>
   <trkpt lat="52.2079840" lon="0.1293160">
    <ele>8.7</ele>
    <time>2022-08-18T17:50:15Z</time>
   </trkpt>
   <trkpt lat="52.2080340" lon="0.1293170">
    <ele>8.3</ele>
    <time>2022-08-18T17:50:16Z</time>
   </trkpt>
   <trkpt lat="52.2080750" lon="0.1293050">
    <ele>8.0</ele>
    <time>2022-08-18T17:50:17Z</time>
   </trkpt>
   <trkpt lat="52.2081230" lon="0.1293060">
    <ele>7.7</ele>
    <time>2022-08-18T17:50:18Z</time>
   </trkpt>
   <trkpt lat="52.2081640" lon="0.1292860">
    <ele>7.6</ele>
    <time>2022-08-18T17:50:19Z</time>
   </trkpt>
   <trkpt lat="52.2082110" lon="0.1292670">
    <ele>7.4</ele>
    <time>2022-08-18T17:50:20Z</time>
   </trkpt>
   <trkpt lat="52.2082600" lon="0.1292560">
    <ele>7.2</ele>
    <time>2022-08-18T17:50:21Z</time>
   </trkpt>
   <trkpt lat="52.2083040" lon="0.1292380">
    <ele>7.1</ele>
    <time>2022-08-18T17:50:22Z</time>
   </trkpt>
   <trkpt lat="52.2083470" lon="0.1292280">
    <ele>6.9</ele>
    <time>2022-08-18T17:50:23Z</time>
   </trkpt>
   <trkpt lat="52.2083940" lon="0.1292150">
    <ele>6.8</ele>
    <time>2022-08-18T17:50:24Z</time>
   </trkpt>
   <trkpt lat="52.2084360" lon="0.1291920">
    <ele>6.7</ele>
    <time>2022-08-18T17:50:25Z</time>
   </trkpt>
   <trkpt lat="52.2084690" lon="0.1291640">
    <ele>6.6</ele>
    <time>2022-08-18T17:50:26Z</time>
   </trkpt>
   <trkpt lat="52.2084980" lon="0.1291490">
    <ele>6.6</ele>
    <time>2022-08-18T17:50:27Z</time>
   </trkpt>
   <trkpt lat="52.2085390" lon="0.1291170">
    <ele>6.5</ele>
    <time>2022-08-18T17:50:28Z</time>
   </trkpt>
   <trkpt lat="52.2085790" lon="0.1291000">
    <ele>6.4</ele>
    <time>2022-08-18T17:50:29Z</time>
   </trkpt>
   <trkpt lat="52.2086090" lon="0.1290890">
    <ele>6.4</ele>
    <time>2022-08-18T17:50:30Z</time>
   </trkpt>
   <trkpt lat="52.2086420" lon="0.1290620">
    <ele>6.3</ele>
    <time>2022-08-18T17:50:31Z</time>
   </trkpt>
   <trkpt lat="52.2086740" lon="0.1290300">
    <ele>6.3</ele>
    <time>2022-08-18T17:50:32Z</time>
   </trkpt>
   <trkpt lat="52.2087120" lon="0.1289820">
    <ele>6.2</ele>
    <time>2022-08-18T17:50:33Z</time>
   </trkpt>
   <trkpt lat="52.2087490" lon="0.1289590">
    <ele>6.2</ele>
    <time>2022-08-18T17:50:34Z</time>
   </trkpt>
   <trkpt lat="52.2087870" lon="0.1289280">
    <ele>6.2</ele>
    <time>2022-08-18T17:50:35Z</time>
   </trkpt>
   <trkpt lat="52.2088200" lon="0.1288930">
    <ele>6.1</ele>
    <time>2022-08-18T17:50:36Z</time>
   </trkpt>
   <trkpt lat="52.2088510" lon="0.1288570">
    <ele>6.1</ele>
    <time>2022-08-18T17:50:37Z</time>
   </trkpt>
   <trkpt lat="52.2088820" lon="0.1288230">
    <ele>6.1</ele>
    <time>2022-08-18T17:50:38Z</time>
   </trkpt>
   <trkpt lat="52.2089200" lon="0.1287890">
    <ele>6.1</ele>
    <time>2022-08-18T17:50:39Z</time>
   </trkpt>
   <trkpt lat="52.2089540" lon="0.1287570">
    <ele>6.1</ele>
    <time>2022-08-18T17:50:40Z</time>
   </trkpt>
   <trkpt lat="52.2089870" lon="0.1287270">
    <ele>6.0</ele>
    <time>2022-08-18T17:50:41Z</time>
   </trkpt>
   <trkpt lat="52.2090240" lon="0.1287060">
    <ele>6.0</ele>
    <time>2022-08-18T17:50:42Z</time>
   </trkpt>
   <trkpt lat="52.2090550" lon="0.1286730">
    <ele>6.0</ele>
    <time>2022-08-18T17:50:43Z</time>
   </trkpt>
   <trkpt lat="52.2090870" lon="0.1286380">
    <ele>6.0</ele>
    <time>2022-08-18T17:50:44Z</time>
   </trkpt>
   <trkpt lat="52.2091210" lon="0.1286090">
    <ele>6.0</ele>
    <time>2022-08-18T17:50:45Z</time>
   </trkpt>
   <trkpt lat="52.2091500" lon="0.1285860">
    <ele>6.0</ele>
    <time>2022-08-18T17:50:46Z</time>
   </trkpt>
   <trkpt lat="52.2091870" lon="0.1285640">
    <ele>6.0</ele>
    <time>2022-08-18T17:50:47Z</time>
   </trkpt>
   <trkpt lat="52.2092240" lon="0.1285220">
    <ele>5.9</ele>
    <time>2022-08-18T17:50:48Z</time>
   </trkpt>
   <trkpt lat="52.2092550" lon="0.1284850">
    <ele>5.9</ele>
    <time>2022-08-18T17:50:49Z</time>
   </trkpt>
   <trkpt lat="52.2092910" lon="0.1284580">
    <ele>5.9</ele>
    <time>2022-08-18T17:50:50Z</time>
   </trkpt>
   <trkpt lat="52.2093300" lon="0.1284330">
    <ele>5.9</ele>
    <time>2022-08-18T17:50:51Z</time>
   </trkpt>
   <trkpt lat="52.2093610" lon="0.1283960">
    <ele>5.9</ele>
    <time>2022-08-18T17:50:52Z</time>
   </trkpt>
   <trkpt lat="52.2093900" lon="0.1283630">
    <ele>5.9</ele>
    <time>2022-08-18T17:50:53Z</time>
   </trkpt>
   <trkpt lat="52.2094240" lon="0.1283330">
    <ele>5.9</ele>
    <time>2022-08-18T17:50:54Z</time>
   </trkpt>
   <trkpt lat="52.2094520" lon="0.1283080">
    <ele>5.9</ele>
    <time>2022-08-18T17:50:55Z</time>
   </trkpt>
   <trkpt lat="52.2094850" lon="0.1282800">
    <ele>5.9</ele>
    <time>2022-08-18T17:50:56Z</time>
   </trkpt>
   <trkpt lat="52.2095200" lon="0.1282540">
    <ele>5.9</ele>
    <time>2022-08-18T17:50:57Z</time>
   </trkpt>
   <trkpt lat="52.2095590" lon="0.1282250">
    <ele>5.9</ele>
    <time>2022-08-18T17:50:58Z</time>
   </trkpt>
   <trkpt lat="52.2095900" lon="0.1281960">
    <ele>5.9</ele>
    <time>2022-08-18T17:50:59Z</time>
   </trkpt>
   <trkpt lat="52.2096250" lon="0.1281760">
    <ele>5.9</ele>
    <time>2022-08-18T17:51:00Z</time>
   </trkpt>
   <trkpt lat="52.2096620" lon="0.1281440">
    <ele>5.9</ele>
    <time>2022-08-18T17:51:01Z</time>
   </trkpt>
   <trkpt lat="52.2096910" lon="0.1281220">
    <ele>5.9</ele>
    <time>2022-08-18T17:51:02Z</time>
   </trkpt>
   <trkpt lat="52.2097180" lon="0.1280870">
    <ele>5.9</ele>
    <time>2022-08-18T17:51:03Z</time>
   </trkpt>
   <trkpt lat="52.2097850" lon="0.1280300">
    <ele>5.9</ele>
    <time>2022-08-18T17:51:04Z</time>
   </trkpt>
   <trkpt lat="52.2098150" lon="0.1279970">
    <ele>5.9</ele>
    <time>2022-08-18T17:51:05Z</time>
   </trkpt>
   <trkpt lat="52.2098510" lon="0.1279700">
    <ele>5.9</ele>
    <time>2022-08-18T17:51:06Z</time>
   </trkpt>
   <trkpt lat="52.2098800" lon="0.1279470">
    <ele>5.9</ele>
    <time>2022-08-18T17:51:07Z</time>
   </trkpt>
   <trkpt lat="52.2099130" lon="0.1279180">
    <ele>5.9</ele>
    <time>2022-08-18T17:51:08Z</time>
   </trkpt>
   <trkpt lat="52.2099470" lon="0.1278870">
    <ele>5.9</ele>
    <time>2022-08-18T17:51:09Z</time>
   </trkpt>
   <trkpt lat="52.2099860" lon="0.1278650">
    <ele>5.9</ele>
    <time>2022-08-18T17:51:10Z</time>
   </trkpt>
   <trkpt lat="52.2100180" lon="0.1278430">
    <ele>5.9</ele>
    <time>2022-08-18T17:51:11Z</time>
   </trkpt>
   <trkpt lat="52.2100550" lon="0.1278240">
    <ele>5.9</ele>
    <time>2022-08-18T17:51:12Z</time>
   </trkpt>
   <trkpt lat="52.2100890" lon="0.1277980">
    <ele>5.9</ele>
    <time>2022-08-18T17:51:13Z</time>
   </trkpt>
   <trkpt lat="52.2101160" lon="0.1277680">
    <ele>5.9</ele>
    <time>2022-08-18T17:51:14Z</time>
   </trkpt>
   <trkpt lat="52.2101490" lon="0.1277590">
    <ele>5.9</ele>
    <time>2022-08-18T17:51:15Z</time>
   </trkpt>
   <trkpt lat="52.2101870" lon="0.1277360">
    <ele>5.9</ele>
    <time>2022-08-18T17:51:16Z</time>
   </trkpt>
   <trkpt lat="52.2102290" lon="0.1277190">
    <ele>5.9</ele>
    <time>2022-08-18T17:51:17Z</time>
   </trkpt>
   <trkpt lat="52.2102600" lon="0.1277020">
    <ele>5.9</ele>
    <time>2022-08-18T17:51:18Z</time>
   </trkpt>
   <trkpt lat="52.2102970" lon="0.1276880">
    <ele>6.0</ele>
    <time>2022-08-18T17:51:19Z</time>
   </trkpt>
   <trkpt lat="52.2103420" lon="0.1276910">
    <ele>6.0</ele>
    <time>2022-08-18T17:51:20Z</time>
   </trkpt>
   <trkpt lat="52.2103750" lon="0.1276870">
    <ele>6.0</ele>
    <time>2022-08-18T17:51:21Z</time>
   </trkpt>
   <trkpt lat="52.2104120" lon="0.1276760">
    <ele>6.0</ele>
    <time>2022-08-18T17:51:22Z</time>
   </trkpt>
   <trkpt lat="52.2104500" lon="0.1276690">
    <ele>6.0</ele>
    <time>2022-08-18T17:51:23Z</time>
   </trkpt>
   <trkpt lat="52.2104890" lon="0.1276640">
    <ele>6.0</ele>
    <time>2022-08-18T17:51:24Z</time>
   </trkpt>
   <trkpt lat="52.2105210" lon="0.1276570">
    <ele>6.0</ele>
    <time>2022-08-18T17:51:25Z</time>
   </trkpt>
   <trkpt lat="52.2105580" lon="0.1276570">
    <ele>6.0</ele>
    <time>2022-08-18T17:51:26Z</time>
   </trkpt>
   <trkpt lat="52.2105920" lon="0.1276560">
    <ele>6.0</ele>
    <time>2022-08-18T17:51:27Z</time>
   </trkpt>
   <trkpt lat="52.2106280" lon="0.1276420">
    <ele>6.0</ele>
    <time>2022-08-18T17:51:28Z</time>
   </trkpt>
   <trkpt lat="52.2106620" lon="0.1276330">
    <ele>6.0</ele>
    <time>2022-08-18T17:51:29Z</time>
   </trkpt>
   <trkpt lat="52.2106980" lon="0.1276340">
    <ele>5.9</ele>
    <time>2022-08-18T17:51:30Z</time>
   </trkpt>
   <trkpt lat="52.2107320" lon="0.1276240">
    <ele>5.9</ele>
    <time>2022-08-18T17:51:31Z</time>
   </trkpt>
   <trkpt lat="52.2107680" lon="0.1276040">
    <ele>5.9</ele>
    <time>2022-08-18T17:51:32Z</time>
   </trkpt>
   <trkpt lat="52.2108030" lon="0.1275850">
    <ele>5.9</ele>
    <time>2022-08-18T17:51:33Z</time>
   </trkpt>
   <trkpt lat="52.2108400" lon="0.1275640">
    <ele>5.9</ele>
    <time>2022-08-18T17:51:34Z</time>
   </trkpt>
   <trkpt lat="52.2108740" lon="0.1275500">
    <ele>5.9</ele>
    <time>2022-08-18T17:51:35Z</time>
   </trkpt>
   <trkpt lat="52.2109020" lon="0.1275230">
    <ele>5.9</ele>
    <time>2022-08-18T17:51:36Z</time>
   </trkpt>
   <trkpt lat="52.2109340" lon="0.1274900">
    <ele>5.8</ele>
    <time>2022-08-18T17:51:37Z</time>
   </trkpt>
   <trkpt lat="52.2109660" lon="0.1274750">
    <ele>5.8</ele>
    <time>2022-08-18T17:51:38Z</time>
   </trkpt>
   <trkpt lat="52.2109990" lon="0.1274490">
    <ele>5.8</ele>
    <time>2022-08-18T17:51:39Z</time>
   </trkpt>
   <trkpt lat="52.2110360" lon="0.1274280">
    <ele>5.7</ele>
    <time>2022-08-18T17:51:40Z</time>
   </trkpt>
   <trkpt lat="52.2110730" lon="0.1274210">
    <ele>5.6</ele>
    <time>2022-08-18T17:51:41Z</time>
   </trkpt>
   <trkpt lat="52.2111090" lon="0.1274180">
    <ele>5.6</ele>
    <time>2022-08-18T17:51:42Z</time>
   </trkpt>
   <trkpt lat="52.2111500" lon="0.1274250">
    <ele>5.5</ele>
    <time>2022-08-18T17:51:43Z</time>
   </trkpt>
   <trkpt lat="52.2111910" lon="0.1274410">
    <ele>5.4</ele>
    <time>2022-08-18T17:51:44Z</time>
   </trkpt>
   <trkpt lat="52.2112330" lon="0.1274460">
    <ele>5.4</ele>
    <time>2022-08-18T17:51:45Z</time>
   </trkpt>
   <trkpt lat="52.2112750" lon="0.1274450">
    <ele>5.3</ele>
    <time>2022-08-18T17:51:46Z</time>
   </trkpt>
   <trkpt lat="52.2113110" lon="0.1274600">
    <ele>5.3</ele>
    <time>2022-08-18T17:51:47Z</time>
   </trkpt>
   <trkpt lat="52.2113510" lon="0.1274740">
    <ele>5.3</ele>
    <time>2022-08-18T17:51:48Z</time>
   </trkpt>
   <trkpt lat="52.2113860" lon="0.1274880">
    <ele>5.2</ele>
    <time>2022-08-18T17:51:49Z</time>
   </trkpt>
   <trkpt lat="52.2114220" lon="0.1275090">
    <ele>5.2</ele>
    <time>2022-08-18T17:51:50Z</time>
   </trkpt>
   <trkpt lat="52.2114600" lon="0.1275180">
    <ele>5.2</ele>
    <time>2022-08-18T17:51:51Z</time>
   </trkpt>
   <trkpt lat="52.2114900" lon="0.1275350">
    <ele>5.2</ele>
    <time>2022-08-18T17:51:52Z</time>
   </trkpt>
   <trkpt lat="52.2115260" lon="0.1275520">
    <ele>5.1</ele>
    <time>2022-08-18T17:51:53Z</time>
   </trkpt>
   <trkpt lat="52.2115670" lon="0.1275580">
    <ele>5.1</ele>
    <time>2022-08-18T17:51:54Z</time>
   </trkpt>
   <trkpt lat="52.2116020" lon="0.1275740">
    <ele>5.1</ele>
    <time>2022-08-18T17:51:55Z</time>
   </trkpt>
   <trkpt lat="52.2116380" lon="0.1275880">
    <ele>5.1</ele>
    <time>2022-08-18T17:51:56Z</time>
   </trkpt>
   <trkpt lat="52.2116700" lon="0.1276120">
    <ele>5.1</ele>
    <time>2022-08-18T17:51:57Z</time>
   </trkpt>
   <trkpt lat="52.2117020" lon="0.1276200">
    <ele>5.1</ele>
    <time>2022-08-18T17:51:58Z</time>
   </trkpt>
   <trkpt lat="52.2117380" lon="0.1276420">
    <ele>5.1</ele>
    <time>2022-08-18T17:51:59Z</time>
   </trkpt>
   <trkpt lat="52.2117680" lon="0.1276470">
    <ele>5.2</ele>
    <time>2022-08-18T17:52:00Z</time>
   </trkpt>
   <trkpt lat="52.2118090" lon="0.1276680">
    <ele>5.2</ele>
    <time>2022-08-18T17:52:02Z</time>
   </trkpt>
   <trkpt lat="52.2118410" lon="0.1276790">
    <ele>5.2</ele>
    <time>2022-08-18T17:52:03Z</time>
   </trkpt>
   <trkpt lat="52.2118810" lon="0.1277000">
    <ele>5.2</ele>
    <time>2022-08-18T17:52:04Z</time>
   </trkpt>
   <trkpt lat="52.2119120" lon="0.1277130">
    <ele>5.2</ele>
    <time>2022-08-18T17:52:05Z</time>
   </trkpt>
   <trkpt lat="52.2119420" lon="0.1277140">
    <ele>5.3</ele>
    <time>2022-08-18T17:52:06Z</time>
   </trkpt>
   <trkpt lat="52.2119740" lon="0.1277340">
    <ele>5.3</ele>
    <time>2022-08-18T17:52:07Z</time>
   </trkpt>
   <trkpt lat="52.2120100" lon="0.1277420">
    <ele>5.3</ele>
    <time>2022-08-18T17:52:08Z</time>
   </trkpt>
   <trkpt lat="52.2120450" lon="0.1277630">
    <ele>5.4</ele>
    <time>2022-08-18T17:52:09Z</time>
   </trkpt>
   <trkpt lat="52.2120760" lon="0.1277720">
    <ele>5.4</ele>
    <time>2022-08-18T17:52:10Z</time>
   </trkpt>
   <trkpt lat="52.2121140" lon="0.1277940">
    <ele>5.4</ele>
    <time>2022-08-18T17:52:11Z</time>
   </trkpt>
   <trkpt lat="52.2121420" lon="0.1277990">
    <ele>5.5</ele>
    <time>2022-08-18T17:52:12Z</time>
   </trkpt>
   <trkpt lat="52.2121750" lon="0.1278090">
    <ele>5.5</ele>
    <time>2022-08-18T17:52:13Z</time>
   </trkpt>
   <trkpt lat="52.2122080" lon="0.1278100">
    <ele>5.8</ele>
    <time>2022-08-18T17:52:14Z</time>
   </trkpt>
   <trkpt lat="52.2122410" lon="0.1278250">
    <ele>5.9</ele>
    <time>2022-08-18T17:52:15Z</time>
   </trkpt>
   <trkpt lat="52.2122510" lon="0.1278350">
    <ele>6.0</ele>
    <time>2022-08-18T17:52:16Z</time>
   </trkpt>
   <trkpt lat="52.2122650" lon="0.1278880">
    <ele>6.1</ele>
    <time>2022-08-18T17:52:17Z</time>
   </trkpt>
   <trkpt lat="52.2122280" lon="0.1279310">
    <ele>6.3</ele>
    <time>2022-08-18T17:52:18Z</time>
   </trkpt>
   <trkpt lat="52.2122120" lon="0.1279510">
    <ele>6.4</ele>
    <time>2022-08-18T17:52:19Z</time>
   </trkpt>
   <trkpt lat="52.2121920" lon="0.1280040">
    <ele>6.7</ele>
    <time>2022-08-18T17:52:20Z</time>
   </trkpt>
   <trkpt lat="52.2121840" lon="0.1280220">
    <ele>6.7</ele>
    <time>2022-08-18T17:52:21Z</time>
   </trkpt>
   <trkpt lat="52.2121990" lon="0.1280600">
    <ele>6.9</ele>
    <time>2022-08-18T17:52:22Z</time>
   </trkpt>
   <trkpt lat="52.2122130" lon="0.1280740">
    <ele>7.0</ele>
    <time>2022-08-18T17:52:23Z</time>
   </trkpt>
   <trkpt lat="52.2122400" lon="0.1280970">
    <ele>7.2</ele>
    <time>2022-08-18T17:52:24Z</time>
   </trkpt>
   <trkpt lat="52.2122660" lon="0.1281330">
    <ele>7.4</ele>
    <time>2022-08-18T17:52:25Z</time>
   </trkpt>
   <trkpt lat="52.2122920" lon="0.1281760">
    <ele>7.6</ele>
    <time>2022-08-18T17:52:26Z</time>
   </trkpt>
   <trkpt lat="52.2123140" lon="0.1282080">
    <ele>7.7</ele>
    <time>2022-08-18T17:52:27Z</time>
   </trkpt>
   <trkpt lat="52.2123440" lon="0.1282390">
    <ele>7.9</ele>
    <time>2022-08-18T17:52:28Z</time>
   </trkpt>
   <trkpt lat="52.2123760" lon="0.1282930">
    <ele>8.0</ele>
    <time>2022-08-18T17:52:29Z</time>
   </trkpt>
   <trkpt lat="52.2123890" lon="0.1283170">
    <ele>8.1</ele>
    <time>2022-08-18T17:52:30Z</time>
   </trkpt>
   <trkpt lat="52.2124110" lon="0.1283430">
    <ele>8.1</ele>
    <time>2022-08-18T17:52:31Z</time>
   </trkpt>
   <trkpt lat="52.2124400" lon="0.1283760">
    <ele>8.1</ele>
    <time>2022-08-18T17:52:32Z</time>
   </trkpt>
   <trkpt lat="52.2124490" lon="0.1283880">
    <ele>8.1</ele>
    <time>2022-08-18T17:52:33Z</time>
   </trkpt>
   <trkpt lat="52.2124750" lon="0.1284270">
    <ele>8.1</ele>
    <time>2022-08-18T17:52:34Z</time>
   </trkpt>
   <trkpt lat="52.2124860" lon="0.1284450">
    <ele>8.1</ele>
    <time>2022-08-18T17:52:35Z</time>
   </trkpt>
   <trkpt lat="52.2125100" lon="0.1284790">
    <ele>8.0</ele>
    <time>2022-08-18T17:52:36Z</time>
   </trkpt>
   <trkpt lat="52.2125360" lon="0.1285220">
    <ele>7.9</ele>
    <time>2022-08-18T17:52:37Z</time>
   </trkpt>
   <trkpt lat="52.2125770" lon="0.1285470">
    <ele>7.8</ele>
    <time>2022-08-18T17:52:38Z</time>
   </trkpt>
   <trkpt lat="52.2126150" lon="0.1285800">
    <ele>7.6</ele>
    <time>2022-08-18T17:52:39Z</time>
   </trkpt>
   <trkpt lat="52.2126510" lon="0.1286090">
    <ele>7.6</ele>
    <time>2022-08-18T17:52:40Z</time>
   </trkpt>
   <trkpt lat="52.2126860" lon="0.1286250">
    <ele>7.5</ele>
    <time>2022-08-18T17:52:41Z</time>
   </trkpt>
   <trkpt lat="52.2127140" lon="0.1286280">
    <ele>7.5</ele>
    <time>2022-08-18T17:52:42Z</time>
   </trkpt>
   <trkpt lat="52.2127520" lon="0.1286420">
    <ele>7.4</ele>
    <time>2022-08-18T17:52:43Z</time>
   </trkpt>
   <trkpt lat="52.2127810" lon="0.1286490">
    <ele>7.3</ele>
    <time>2022-08-18T17:52:44Z</time>
   </trkpt>
   <trkpt lat="52.2128150" lon="0.1286960">
    <ele>7.3</ele>
    <time>2022-08-18T17:52:45Z</time>
   </trkpt>
   <trkpt lat="52.2128470" lon="0.1287160">
    <ele>7.3</ele>
    <time>2022-08-18T17:52:46Z</time>
   </trkpt>
   <trkpt lat="52.2128580" lon="0.1287750">
    <ele>7.2</ele>
    <time>2022-08-18T17:52:47Z</time>
   </trkpt>
   <trkpt lat="52.2128710" lon="0.1288480">
    <ele>7.2</ele>
    <time>2022-08-18T17:52:48Z</time>
   </trkpt>
   <trkpt lat="52.2128730" lon="0.1289220">
    <ele>7.1</ele>
    <time>2022-08-18T17:52:49Z</time>
   </trkpt>
   <trkpt lat="52.2128620" lon="0.1289860">
    <ele>7.1</ele>
    <time>2022-08-18T17:52:50Z</time>
   </trkpt>
   <trkpt lat="52.2128580" lon="0.1290480">
    <ele>7.1</ele>
    <time>2022-08-18T17:52:51Z</time>
   </trkpt>
   <trkpt lat="52.2128540" lon="0.1291030">
    <ele>7.1</ele>
    <time>2022-08-18T17:52:52Z</time>
   </trkpt>
   <trkpt lat="52.2128480" lon="0.1291700">
    <ele>7.1</ele>
    <time>2022-08-18T17:52:53Z</time>
   </trkpt>
   <trkpt lat="52.2128370" lon="0.1292270">
    <ele>7.1</ele>
    <time>2022-08-18T17:52:54Z</time>
   </trkpt>
   <trkpt lat="52.2128370" lon="0.1292800">
    <ele>7.1</ele>
    <time>2022-08-18T17:52:55Z</time>
   </trkpt>
   <trkpt lat="52.2128340" lon="0.1293430">
    <ele>7.1</ele>
    <time>2022-08-18T17:52:56Z</time>
   </trkpt>
   <trkpt lat="52.2128250" lon="0.1293990">
    <ele>7.1</ele>
    <time>2022-08-18T17:52:57Z</time>
   </trkpt>
   <trkpt lat="52.2128160" lon="0.1294520">
    <ele>7.1</ele>
    <time>2022-08-18T17:52:58Z</time>
   </trkpt>
   <trkpt lat="52.2128160" lon="0.1295130">
    <ele>7.1</ele>
    <time>2022-08-18T17:52:59Z</time>
   </trkpt>
   <trkpt lat="52.2128140" lon="0.1295680">
    <ele>7.1</ele>
    <time>2022-08-18T17:53:00Z</time>
   </trkpt>
   <trkpt lat="52.2128030" lon="0.1296250">
    <ele>7.1</ele>
    <time>2022-08-18T17:53:01Z</time>
   </trkpt>
   <trkpt lat="52.2127980" lon="0.1296940">
    <ele>7.1</ele>
    <time>2022-08-18T17:53:02Z</time>
   </trkpt>
   <trkpt lat="52.2127920" lon="0.1297490">
    <ele>7.1</ele>
    <time>2022-08-18T17:53:03Z</time>
   </trkpt>
   <trkpt lat="52.2127850" lon="0.1298110">
    <ele>7.1</ele>
    <time>2022-08-18T17:53:04Z</time>
   </trkpt>
   <trkpt lat="52.2127770" lon="0.1298670">
    <ele>7.1</ele>
    <time>2022-08-18T17:53:05Z</time>
   </trkpt>
   <trkpt lat="52.2127790" lon="0.1299360">
    <ele>7.1</ele>
    <time>2022-08-18T17:53:06Z</time>
   </trkpt>
   <trkpt lat="52.2127720" lon="0.1299950">
    <ele>7.1</ele>
    <time>2022-08-18T17:53:07Z</time>
   </trkpt>
   <trkpt lat="52.2127650" lon="0.1300530">
    <ele>7.1</ele>
    <time>2022-08-18T17:53:08Z</time>
   </trkpt>
   <trkpt lat="52.2127620" lon="0.1301040">
    <ele>7.1</ele>
    <time>2022-08-18T17:53:09Z</time>
   </trkpt>
   <trkpt lat="52.2127620" lon="0.1301620">
    <ele>7.1</ele>
    <time>2022-08-18T17:53:10Z</time>
   </trkpt>
   <trkpt lat="52.2127570" lon="0.1302240">
    <ele>7.1</ele>
    <time>2022-08-18T17:53:11Z</time>
   </trkpt>
   <trkpt lat="52.2127510" lon="0.1302780">
    <ele>7.1</ele>
    <time>2022-08-18T17:53:12Z</time>
   </trkpt>
   <trkpt lat="52.2127510" lon="0.1303320">
    <ele>7.1</ele>
    <time>2022-08-18T17:53:13Z</time>
   </trkpt>
   <trkpt lat="52.2127430" lon="0.1303910">
    <ele>7.1</ele>
    <time>2022-08-18T17:53:14Z</time>
   </trkpt>
   <trkpt lat="52.2127420" lon="0.1304570">
    <ele>7.1</ele>
    <time>2022-08-18T17:53:15Z</time>
   </trkpt>
   <trkpt lat="52.2127370" lon="0.1305180">
    <ele>7.1</ele>
    <time>2022-08-18T17:53:16Z</time>
   </trkpt>
   <trkpt lat="52.2127450" lon="0.1305760">
    <ele>7.1</ele>
    <time>2022-08-18T17:53:17Z</time>
   </trkpt>
   <trkpt lat="52.2127390" lon="0.1306360">
    <ele>7.2</ele>
    <time>2022-08-18T17:53:18Z</time>
   </trkpt>
   <trkpt lat="52.2127430" lon="0.1306910">
    <ele>7.2</ele>
    <time>2022-08-18T17:53:19Z</time>
   </trkpt>
   <trkpt lat="52.2127430" lon="0.1307490">
    <ele>7.2</ele>
    <time>2022-08-18T17:53:20Z</time>
   </trkpt>
   <trkpt lat="52.2127330" lon="0.1308050">
    <ele>7.2</ele>
    <time>2022-08-18T17:53:21Z</time>
   </trkpt>
   <trkpt lat="52.2127310" lon="0.1308560">
    <ele>7.2</ele>
    <time>2022-08-18T17:53:22Z</time>
   </trkpt>
   <trkpt lat="52.2127260" lon="0.1309140">
    <ele>7.2</ele>
    <time>2022-08-18T17:53:23Z</time>
   </trkpt>
   <trkpt lat="52.2127170" lon="0.1309600">
    <ele>7.3</ele>
    <time>2022-08-18T17:53:24Z</time>
   </trkpt>
   <trkpt lat="52.2127200" lon="0.1310250">
    <ele>7.3</ele>
    <time>2022-08-18T17:53:25Z</time>
   </trkpt>
   <trkpt lat="52.2127200" lon="0.1310830">
    <ele>7.3</ele>
    <time>2022-08-18T17:53:26Z</time>
   </trkpt>
   <trkpt lat="52.2127220" lon="0.1311530">
    <ele>7.3</ele>
    <time>2022-08-18T17:53:27Z</time>
   </trkpt>
   <trkpt lat="52.2127250" lon="0.1312060">
    <ele>7.3</ele>
    <time>2022-08-18T17:53:28Z</time>
   </trkpt>
   <trkpt lat="52.2127220" lon="0.1312750">
    <ele>7.4</ele>
    <time>2022-08-18T17:53:29Z</time>
   </trkpt>
   <trkpt lat="52.2127180" lon="0.1313260">
    <ele>7.4</ele>
    <time>2022-08-18T17:53:30Z</time>
   </trkpt>
   <trkpt lat="52.2127310" lon="0.1313710">
    <ele>7.4</ele>
    <time>2022-08-18T17:53:31Z</time>
   </trkpt>
   <trkpt lat="52.2127820" lon="0.1313980">
    <ele>7.4</ele>
    <time>2022-08-18T17:53:32Z</time>
   </trkpt>
   <trkpt lat="52.2128150" lon="0.1314120">
    <ele>7.4</ele>
    <time>2022-08-18T17:53:33Z</time>
   </trkpt>
   <trkpt lat="52.2128510" lon="0.1314220">
    <ele>7.4</ele>
    <time>2022-08-18T17:53:34Z</time>
   </trkpt>
   <trkpt lat="52.2128820" lon="0.1314440">
    <ele>7.5</ele>
    <time>2022-08-18T17:53:35Z</time>
   </trkpt>
   <trkpt lat="52.2129180" lon="0.1314720">
    <ele>7.5</ele>
    <time>2022-08-18T17:53:36Z</time>
   </trkpt>
   <trkpt lat="52.2129470" lon="0.1314860">
    <ele>7.5</ele>
    <time>2022-08-18T17:53:37Z</time>
   </trkpt>
   <trkpt lat="52.2129850" lon="0.1314830">
    <ele>7.5</ele>
    <time>2022-08-18T17:53:38Z</time>
   </trkpt>
   <trkpt lat="52.2130190" lon="0.1314900">
    <ele>7.5</ele>
    <time>2022-08-18T17:53:39Z</time>
   </trkpt>
   <trkpt lat="52.2130490" lon="0.1314990">
    <ele>7.5</ele>
    <time>2022-08-18T17:53:40Z</time>
   </trkpt>
   <trkpt lat="52.2130850" lon="0.1315060">
    <ele>7.5</ele>
    <time>2022-08-18T17:53:41Z</time>
   </trkpt>
   <trkpt lat="52.2131180" lon="0.1315200">
    <ele>7.5</ele>
    <time>2022-08-18T17:53:42Z</time>
   </trkpt>
   <trkpt lat="52.2131480" lon="0.1315170">
    <ele>7.5</ele>
    <time>2022-08-18T17:53:43Z</time>
   </trkpt>
   <trkpt lat="52.2131790" lon="0.1315240">
    <ele>7.5</ele>
    <time>2022-08-18T17:53:44Z</time>
   </trkpt>
   <trkpt lat="52.2132180" lon="0.1315450">
    <ele>7.6</ele>
    <time>2022-08-18T17:53:45Z</time>
   </trkpt>
   <trkpt lat="52.2132590" lon="0.1315500">
    <ele>7.6</ele>
    <time>2022-08-18T17:53:46Z</time>
   </trkpt>
   <trkpt lat="52.2132930" lon="0.1315380">
    <ele>7.6</ele>
    <time>2022-08-18T17:53:47Z</time>
   </trkpt>
   <trkpt lat="52.2133310" lon="0.1315530">
    <ele>7.6</ele>
    <time>2022-08-18T17:53:48Z</time>
   </trkpt>
   <trkpt lat="52.2133730" lon="0.1315680">
    <ele>7.6</ele>
    <time>2022-08-18T17:53:49Z</time>
   </trkpt>
   <trkpt lat="52.2134190" lon="0.1315820">
    <ele>7.7</ele>
    <time>2022-08-18T17:53:50Z</time>
   </trkpt>
   <trkpt lat="52.2134490" lon="0.1315830">
    <ele>7.7</ele>
    <time>2022-08-18T17:53:51Z</time>
   </trkpt>
   <trkpt lat="52.2134850" lon="0.1315820">
    <ele>7.7</ele>
    <time>2022-08-18T17:53:52Z</time>
   </trkpt>
   <trkpt lat="52.2135120" lon="0.1315740">
    <ele>7.7</ele>
    <time>2022-08-18T17:53:53Z</time>
   </trkpt>
   <trkpt lat="52.2135580" lon="0.1315850">
    <ele>7.7</ele>
    <time>2022-08-18T17:53:54Z</time>
   </trkpt>
   <trkpt lat="52.2136050" lon="0.1315830">
    <ele>7.7</ele>
    <time>2022-08-18T17:53:55Z</time>
   </trkpt>
   <trkpt lat="52.2136460" lon="0.1315910">
    <ele>7.7</ele>
    <time>2022-08-18T17:53:56Z</time>
   </trkpt>
   <trkpt lat="52.2136880" lon="0.1315990">
    <ele>7.7</ele>
    <time>2022-08-18T17:53:57Z</time>
   </trkpt>
   <trkpt lat="52.2137200" lon="0.1316180">
    <ele>7.7</ele>
    <time>2022-08-18T17:53:58Z</time>
   </trkpt>
   <trkpt lat="52.2137610" lon="0.1316210">
    <ele>7.7</ele>
    <time>2022-08-18T17:53:59Z</time>
   </trkpt>
   <trkpt lat="52.2137920" lon="0.1316360">
    <ele>7.7</ele>
    <time>2022-08-18T17:54:00Z</time>
   </trkpt>
   <trkpt lat="52.2138220" lon="0.1316510">
    <ele>7.7</ele>
    <time>2022-08-18T17:54:01Z</time>
   </trkpt>
   <trkpt lat="52.2138500" lon="0.1316330">
    <ele>7.7</ele>
    <time>2022-08-18T17:54:02Z</time>
   </trkpt>
  </trkseg>
 </trk>
</gpx>
