<?xml version="1.0" encoding="UTF-8"?>
<gpx creator="StravaGPX" version="1.1" xmlns="http://www.topografix.com/GPX/1/1" xmlns:xsi="http://www.w3.org/2001/XMLSchema-instance" xsi:schemaLocation="http://www.topografix.com/GPX/1/1 http://www.topografix.com/GPX/1/1/gpx.xsd">
 <metadata>
  <time>2022-11-21T18:05:55Z</time>
 </metadata>
 <trk>
  <name>Evening Run</name>
  <type>running</type>
  <trkseg>
   <trkpt lat="51.5628300" lon="-0.0739470">
    <ele>25.0</ele>
    <time>2022-11-21T18:05:55Z</time>
   </trkpt>
   <trkpt lat="51.5628010" lon="-0.0740250">
    <ele>25.1</ele>
    <time>2022-11-21T18:05:59Z</time>
   </trkpt>
   <trkpt lat="51.5627550" lon="-0.0740670">
    <ele>25.2</ele>
    <time>2022-11-21T18:06:02Z</time>
   </trkpt>
   <trkpt lat="51.5627140" lon="-0.0741020">
    <ele>25.3</ele>
    <time>2022-11-21T18:06:04Z</time>
   </trkpt>
   <trkpt lat="51.5626660" lon="-0.0740990">
    <ele>25.3</ele>
    <time>2022-11-21T18:06:07Z</time>
   </trkpt>
   <trkpt lat="51.5626150" lon="-0.0741340">
    <ele>25.4</ele>
    <time>2022-11-21T18:06:09Z</time>
   </trkpt>
   <trkpt lat="51.5625450" lon="-0.0741800">
    <ele>25.6</ele>
    <time>2022-11-21T18:06:12Z</time>
   </trkpt>
   <trkpt lat="51.5624680" lon="-0.0742000">
    <ele>25.7</ele>
    <time>2022-11-21T18:06:15Z</time>
   </trkpt>
   <trkpt lat="51.5624340" lon="-0.0741850">
    <ele>25.8</ele>
    <time>2022-11-21T18:06:17Z</time>
   </trkpt>
   <trkpt lat="51.5623890" lon="-0.0742500">
    <ele>25.9</ele>
    <time>2022-11-21T18:06:20Z</time>
   </trkpt>
   <trkpt lat="51.5623740" lon="-0.0743140">
    <ele>26.0</ele>
    <time>2022-11-21T18:06:22Z</time>
   </trkpt>
   <trkpt lat="51.5623570" lon="-0.0744660">
    <ele>26.1</ele>
    <time>2022-11-21T18:06:25Z</time>
   </trkpt>
   <trkpt lat="51.5623580" lon="-0.0746010">
    <ele>26.3</ele>
    <time>2022-11-21T18:06:28Z</time>
   </trkpt>
   <trkpt lat="51.5623600" lon="-0.0746450">
    <ele>26.3</ele>
    <time>2022-11-21T18:06:29Z</time>
   </trkpt>
   <trkpt lat="51.5623550" lon="-0.0747790">
    <ele>26.4</ele>
    <time>2022-11-21T18:06:32Z</time>
   </trkpt>
   <trkpt lat="51.5623350" lon="-0.0748510">
    <ele>26.5</ele>
    <time>2022-11-21T18:06:34Z</time>
   </trkpt>
   <trkpt lat="51.5623360" lon="-0.0749120">
    <ele>26.6</ele>
    <time>2022-11-21T18:06:37Z</time>
   </trkpt>
   <trkpt lat="51.5623160" lon="-0.0749510">
    <ele>26.6</ele>
    <time>2022-11-21T18:06:40Z</time>
   </trkpt>
   <trkpt lat="51.5622630" lon="-0.0750260">
    <ele>27.0</ele>
    <time>2022-11-21T18:06:42Z</time>
   </trkpt>
   <trkpt lat="51.5621870" lon="-0.0750430">
    <ele>27.3</ele>
    <time>2022-11-21T18:06:45Z</time>
   </trkpt>
   <trkpt lat="51.5621680" lon="-0.0750630">
    <ele>27.7</ele>
    <time>2022-11-21T18:06:48Z</time>
   </trkpt>
   <trkpt lat="51.5621630" lon="-0.0751230">
    <ele>27.7</ele>
    <time>2022-11-21T18:06:50Z</time>
   </trkpt>
   <trkpt lat="51.5621800" lon="-0.0752850">
    <ele>27.8</ele>
    <time>2022-11-21T18:06:53Z</time>
   </trkpt>
   <trkpt lat="51.5621860" lon="-0.0753690">
    <ele>27.9</ele>
    <time>2022-11-21T18:06:55Z</time>
   </trkpt>
   <trkpt lat="51.5621880" lon="-0.0754390">
    <ele>27.9</ele>
    <time>2022-11-21T18:06:58Z</time>
   </trkpt>
   <trkpt lat="51.5622040" lon="-0.0755920">
    <ele>28.0</ele>
    <time>2022-11-21T18:07:01Z</time>
   </trkpt>
   <trkpt lat="51.5622100" lon="-0.0756280">
    <ele>28.0</ele>
    <time>2022-11-21T18:07:03Z</time>
   </trkpt>
   <trkpt lat="51.5621900" lon="-0.0757640">
    <ele>28.1</ele>
    <time>2022-11-21T18:07:05Z</time>
   </trkpt>
   <trkpt lat="51.5621420" lon="-0.0759530">
    <ele>28.1</ele>
    <time>2022-11-21T18:07:08Z</time>
   </trkpt>
   <trkpt lat="51.5621240" lon="-0.0760340">
    <ele>28.2</ele>
    <time>2022-11-21T18:07:10Z</time>
   </trkpt>
   <trkpt lat="51.5621380" lon="-0.0761630">
    <ele>28.2</ele>
    <time>2022-11-21T18:07:13Z</time>
   </trkpt>
   <trkpt lat="51.5621580" lon="-0.0762450">
    <ele>28.2</ele>
    <time>2022-11-21T18:07:15Z</time>
   </trkpt>
   <trkpt lat="51.5621860" lon="-0.0763680">
    <ele>28.2</ele>
    <time>2022-11-21T18:07:18Z</time>
   </trkpt>
   <trkpt lat="51.5621950" lon="-0.0764800">
    <ele>28.3</ele>
    <time>2022-11-21T18:07:21Z</time>
   </trkpt>
   <trkpt lat="51.5621920" lon="-0.0765690">
    <ele>28.3</ele>
    <time>2022-11-21T18:07:23Z</time>
   </trkpt>
   <trkpt lat="51.5621670" lon="-0.0766900">
    <ele>28.3</ele>
    <time>2022-11-21T18:07:26Z</time>
   </trkpt>
   <trkpt lat="51.5621760" lon="-0.0767670">
    <ele>28.3</ele>
    <time>2022-11-21T18:07:28Z</time>
   </trkpt>
   <trkpt lat="51.5621800" lon="-0.0768790">
    <ele>28.3</ele>
    <time>2022-11-21T18:07:31Z</time>
   </trkpt>
   <trkpt lat="51.5621810" lon="-0.0770040">
    <ele>28.4</ele>
    <time>2022-11-21T18:07:34Z</time>
   </trkpt>
   <trkpt lat="51.5621890" lon="-0.0770930">
    <ele>28.4</ele>
    <time>2022-11-21T18:07:36Z</time>
   </trkpt>
   <trkpt lat="51.5621970" lon="-0.0772060">
    <ele>28.4</ele>
    <time>2022-11-21T18:07:39Z</time>
   </trkpt>
   <trkpt lat="51.5621860" lon="-0.0772840">
    <ele>28.4</ele>
    <time>2022-11-21T18:07:41Z</time>
   </trkpt>
   <trkpt lat="51.5621860" lon="-0.0774130">
    <ele>28.5</ele>
    <time>2022-11-21T18:07:44Z</time>
   </trkpt>
   <trkpt lat="51.5621930" lon="-0.0774940">
    <ele>28.5</ele>
    <time>2022-11-21T18:07:46Z</time>
   </trkpt>
   <trkpt lat="51.5622120" lon="-0.0776040">
    <ele>28.6</ele>
    <time>2022-11-21T18:07:49Z</time>
   </trkpt>
   <trkpt lat="51.5622000" lon="-0.0776830">
    <ele>28.6</ele>
    <time>2022-11-21T18:07:51Z</time>
   </trkpt>
   <trkpt lat="51.5622060" lon="-0.0778020">
    <ele>28.7</ele>
    <time>2022-11-21T18:07:54Z</time>
   </trkpt>
   <trkpt lat="51.5622370" lon="-0.0779150">
    <ele>28.7</ele>
    <time>2022-11-21T18:07:57Z</time>
   </trkpt>
   <trkpt lat="51.5622280" lon="-0.0779800">
    <ele>28.8</ele>
    <time>2022-11-21T18:07:59Z</time>
   </trkpt>
   <trkpt lat="51.5622230" lon="-0.0781080">
    <ele>28.8</ele>
    <time>2022-11-21T18:08:02Z</time>
   </trkpt>
   <trkpt lat="51.5622130" lon="-0.0781940">
    <ele>28.9</ele>
    <time>2022-11-21T18:08:04Z</time>
   </trkpt>
   <trkpt lat="51.5622200" lon="-0.0782980">
    <ele>28.9</ele>
    <time>2022-11-21T18:08:07Z</time>
   </trkpt>
   <trkpt lat="51.5622080" lon="-0.0783800">
    <ele>28.9</ele>
    <time>2022-11-21T18:08:09Z</time>
   </trkpt>
   <trkpt lat="51.5621840" lon="-0.0785350">
    <ele>29.0</ele>
    <time>2022-11-21T18:08:12Z</time>
   </trkpt>
   <trkpt lat="51.5622020" lon="-0.0786180">
    <ele>29.0</ele>
    <time>2022-11-21T18:08:14Z</time>
   </trkpt>
   <trkpt lat="51.5621940" lon="-0.0787240">
    <ele>29.1</ele>
    <time>2022-11-21T18:08:17Z</time>
   </trkpt>
   <trkpt lat="51.5621530" lon="-0.0788540">
    <ele>29.2</ele>
    <time>2022-11-21T18:08:20Z</time>
   </trkpt>
   <trkpt lat="51.5621470" lon="-0.0789420">
    <ele>29.2</ele>
    <time>2022-11-21T18:08:22Z</time>
   </trkpt>
   <trkpt lat="51.5621150" lon="-0.0790630">
    <ele>29.3</ele>
    <time>2022-11-21T18:08:25Z</time>
   </trkpt>
   <trkpt lat="51.5621180" lon="-0.0791450">
    <ele>29.3</ele>
    <time>2022-11-21T18:08:27Z</time>
   </trkpt>
   <trkpt lat="51.5621070" lon="-0.0792560">
    <ele>29.3</ele>
    <time>2022-11-21T18:08:30Z</time>
   </trkpt>
   <trkpt lat="51.5620970" lon="-0.0793420">
    <ele>29.4</ele>
    <time>2022-11-21T18:08:32Z</time>
   </trkpt>
   <trkpt lat="51.5620960" lon="-0.0794530">
    <ele>29.4</ele>
    <time>2022-11-21T18:08:35Z</time>
   </trkpt>
   <trkpt lat="51.5620950" lon="-0.0795800">
    <ele>29.5</ele>
    <time>2022-11-21T18:08:38Z</time>
   </trkpt>
   <trkpt lat="51.5620980" lon="-0.0796610">
    <ele>29.5</ele>
    <time>2022-11-21T18:08:40Z</time>
   </trkpt>
   <trkpt lat="51.5621020" lon="-0.0797860">
    <ele>29.5</ele>
    <time>2022-11-21T18:08:43Z</time>
   </trkpt>
   <trkpt lat="51.5621020" lon="-0.0798690">
    <ele>29.5</ele>
    <time>2022-11-21T18:08:45Z</time>
   </trkpt>
   <trkpt lat="51.5620940" lon="-0.0799900">
    <ele>29.5</ele>
    <time>2022-11-21T18:08:48Z</time>
   </trkpt>
   <trkpt lat="51.5620650" lon="-0.0800910">
    <ele>29.5</ele>
    <time>2022-11-21T18:08:50Z</time>
   </trkpt>
   <trkpt lat="51.5620370" lon="-0.0802020">
    <ele>29.6</ele>
    <time>2022-11-21T18:08:53Z</time>
   </trkpt>
   <trkpt lat="51.5620220" lon="-0.0803330">
    <ele>29.6</ele>
    <time>2022-11-21T18:08:56Z</time>
   </trkpt>
   <trkpt lat="51.5619960" lon="-0.0804160">
    <ele>29.6</ele>
    <time>2022-11-21T18:08:58Z</time>
   </trkpt>
   <trkpt lat="51.5619650" lon="-0.0805400">
    <ele>29.7</ele>
    <time>2022-11-21T18:09:01Z</time>
   </trkpt>
   <trkpt lat="51.5619510" lon="-0.0806040">
    <ele>29.7</ele>
    <time>2022-11-21T18:09:03Z</time>
   </trkpt>
   <trkpt lat="51.5618970" lon="-0.0807290">
    <ele>29.7</ele>
    <time>2022-11-21T18:09:06Z</time>
   </trkpt>
   <trkpt lat="51.5618610" lon="-0.0807960">
    <ele>29.8</ele>
    <time>2022-11-21T18:09:08Z</time>
   </trkpt>
   <trkpt lat="51.5618200" lon="-0.0809130">
    <ele>29.8</ele>
    <time>2022-11-21T18:09:11Z</time>
   </trkpt>
   <trkpt lat="51.5617910" lon="-0.0810290">
    <ele>29.8</ele>
    <time>2022-11-21T18:09:14Z</time>
   </trkpt>
   <trkpt lat="51.5617770" lon="-0.0811010">
    <ele>29.9</ele>
    <time>2022-11-21T18:09:16Z</time>
   </trkpt>
   <trkpt lat="51.5617340" lon="-0.0812260">
    <ele>29.9</ele>
    <time>2022-11-21T18:09:19Z</time>
   </trkpt>
   <trkpt lat="51.5617120" lon="-0.0812950">
    <ele>29.9</ele>
    <time>2022-11-21T18:09:21Z</time>
   </trkpt>
   <trkpt lat="51.5616840" lon="-0.0813990">
    <ele>29.9</ele>
    <time>2022-11-21T18:09:24Z</time>
   </trkpt>
   <trkpt lat="51.5616590" lon="-0.0814650">
    <ele>29.9</ele>
    <time>2022-11-21T18:09:26Z</time>
   </trkpt>
   <trkpt lat="51.5616230" lon="-0.0815760">
    <ele>30.0</ele>
    <time>2022-11-21T18:09:29Z</time>
   </trkpt>
   <trkpt lat="51.5615910" lon="-0.0816380">
    <ele>30.0</ele>
    <time>2022-11-21T18:09:31Z</time>
   </trkpt>
   <trkpt lat="51.5615310" lon="-0.0817470">
    <ele>30.0</ele>
    <time>2022-11-21T18:09:34Z</time>
   </trkpt>
   <trkpt lat="51.5614550" lon="-0.0818400">
    <ele>30.0</ele>
    <time>2022-11-21T18:09:37Z</time>
   </trkpt>
   <trkpt lat="51.5614170" lon="-0.0819020">
    <ele>30.1</ele>
    <time>2022-11-21T18:09:39Z</time>
   </trkpt>
   <trkpt lat="51.5613920" lon="-0.0820190">
    <ele>30.1</ele>
    <time>2022-11-21T18:09:42Z</time>
   </trkpt>
   <trkpt lat="51.5613780" lon="-0.0821050">
    <ele>30.1</ele>
    <time>2022-11-21T18:09:44Z</time>
   </trkpt>
   <trkpt lat="51.5613560" lon="-0.0822270">
    <ele>30.1</ele>
    <time>2022-11-21T18:09:47Z</time>
   </trkpt>
   <trkpt lat="51.5613320" lon="-0.0823240">
    <ele>30.1</ele>
    <time>2022-11-21T18:09:50Z</time>
   </trkpt>
   <trkpt lat="51.5613050" lon="-0.0824220">
    <ele>30.1</ele>
    <time>2022-11-21T18:09:52Z</time>
   </trkpt>
   <trkpt lat="51.5612720" lon="-0.0825560">
    <ele>30.1</ele>
    <time>2022-11-21T18:09:55Z</time>
   </trkpt>
   <trkpt lat="51.5612630" lon="-0.0826360">
    <ele>30.1</ele>
    <time>2022-11-21T18:09:57Z</time>
   </trkpt>
   <trkpt lat="51.5612430" lon="-0.0827610">
    <ele>30.1</ele>
    <time>2022-11-21T18:10:00Z</time>
   </trkpt>
   <trkpt lat="51.5612370" lon="-0.0828420">
    <ele>30.1</ele>
    <time>2022-11-21T18:10:02Z</time>
   </trkpt>
   <trkpt lat="51.5612200" lon="-0.0829850">
    <ele>30.1</ele>
    <time>2022-11-21T18:10:05Z</time>
   </trkpt>
   <trkpt lat="51.5612250" lon="-0.0830790">
    <ele>30.1</ele>
    <time>2022-11-21T18:10:07Z</time>
   </trkpt>
   <trkpt lat="51.5612140" lon="-0.0832030">
    <ele>30.1</ele>
    <time>2022-11-21T18:10:10Z</time>
   </trkpt>
   <trkpt lat="51.5611960" lon="-0.0833370">
    <ele>30.0</ele>
    <time>2022-11-21T18:10:13Z</time>
   </trkpt>
   <trkpt lat="51.5611820" lon="-0.0834060">
    <ele>30.0</ele>
    <time>2022-11-21T18:10:15Z</time>
   </trkpt>
   <trkpt lat="51.5611830" lon="-0.0835170">
    <ele>30.0</ele>
    <time>2022-11-21T18:10:18Z</time>
   </trkpt>
   <trkpt lat="51.5611850" lon="-0.0836000">
    <ele>30.0</ele>
    <time>2022-11-21T18:10:20Z</time>
   </trkpt>
   <trkpt lat="51.5611810" lon="-0.0837350">
    <ele>29.9</ele>
    <time>2022-11-21T18:10:23Z</time>
   </trkpt>
   <trkpt lat="51.5611870" lon="-0.0838180">
    <ele>29.9</ele>
    <time>2022-11-21T18:10:25Z</time>
   </trkpt>
   <trkpt lat="51.5611720" lon="-0.0839510">
    <ele>29.8</ele>
    <time>2022-11-21T18:10:28Z</time>
   </trkpt>
   <trkpt lat="51.5611800" lon="-0.0840950">
    <ele>29.8</ele>
    <time>2022-11-21T18:10:31Z</time>
   </trkpt>
   <trkpt lat="51.5611660" lon="-0.0841870">
    <ele>29.8</ele>
    <time>2022-11-21T18:10:33Z</time>
   </trkpt>
   <trkpt lat="51.5611440" lon="-0.0843020">
    <ele>29.8</ele>
    <time>2022-11-21T18:10:36Z</time>
   </trkpt>
   <trkpt lat="51.5611220" lon="-0.0843880">
    <ele>29.8</ele>
    <time>2022-11-21T18:10:38Z</time>
   </trkpt>
   <trkpt lat="51.5610840" lon="-0.0845040">
    <ele>29.7</ele>
    <time>2022-11-21T18:10:41Z</time>
   </trkpt>
   <trkpt lat="51.5610490" lon="-0.0845780">
    <ele>29.7</ele>
    <time>2022-11-21T18:10:43Z</time>
   </trkpt>
   <trkpt lat="51.5609950" lon="-0.0846730">
    <ele>29.6</ele>
    <time>2022-11-21T18:10:46Z</time>
   </trkpt>
   <trkpt lat="51.5609250" lon="-0.0847540">
    <ele>29.6</ele>
    <time>2022-11-21T18:10:49Z</time>
   </trkpt>
   <trkpt lat="51.5608830" lon="-0.0848020">
    <ele>29.5</ele>
    <time>2022-11-21T18:10:52Z</time>
   </trkpt>
   <trkpt lat="51.5608130" lon="-0.0848760">
    <ele>29.5</ele>
    <time>2022-11-21T18:10:54Z</time>
   </trkpt>
   <trkpt lat="51.5607640" lon="-0.0849190">
    <ele>29.5</ele>
    <time>2022-11-21T18:10:56Z</time>
   </trkpt>
   <trkpt lat="51.5607070" lon="-0.0849870">
    <ele>29.5</ele>
    <time>2022-11-21T18:10:59Z</time>
   </trkpt>
   <trkpt lat="51.5606680" lon="-0.0850530">
    <ele>29.5</ele>
    <time>2022-11-21T18:11:01Z</time>
   </trkpt>
   <trkpt lat="51.5606120" lon="-0.0851560">
    <ele>29.5</ele>
    <time>2022-11-21T18:11:04Z</time>
   </trkpt>
   <trkpt lat="51.5605500" lon="-0.0852350">
    <ele>29.4</ele>
    <time>2022-11-21T18:11:07Z</time>
   </trkpt>
   <trkpt lat="51.5605150" lon="-0.0853120">
    <ele>29.4</ele>
    <time>2022-11-21T18:11:09Z</time>
   </trkpt>
   <trkpt lat="51.5604780" lon="-0.0854440">
    <ele>29.4</ele>
    <time>2022-11-21T18:11:12Z</time>
   </trkpt>
   <trkpt lat="51.5604300" lon="-0.0855300">
    <ele>29.5</ele>
    <time>2022-11-21T18:11:14Z</time>
   </trkpt>
   <trkpt lat="51.5603720" lon="-0.0856500">
    <ele>29.5</ele>
    <time>2022-11-21T18:11:17Z</time>
   </trkpt>
   <trkpt lat="51.5603400" lon="-0.0857070">
    <ele>29.5</ele>
    <time>2022-11-21T18:11:19Z</time>
   </trkpt>
   <trkpt lat="51.5602950" lon="-0.0858130">
    <ele>29.6</ele>
    <time>2022-11-21T18:11:22Z</time>
   </trkpt>
   <trkpt lat="51.5602760" lon="-0.0858830">
    <ele>29.6</ele>
    <time>2022-11-21T18:11:24Z</time>
   </trkpt>
   <trkpt lat="51.5602270" lon="-0.0859600">
    <ele>29.6</ele>
    <time>2022-11-21T18:11:27Z</time>
   </trkpt>
   <trkpt lat="51.5601700" lon="-0.0860480">
    <ele>29.5</ele>
    <time>2022-11-21T18:11:30Z</time>
   </trkpt>
   <trkpt lat="51.5601240" lon="-0.0860850">
    <ele>29.5</ele>
    <time>2022-11-21T18:11:32Z</time>
   </trkpt>
   <trkpt lat="51.5600600" lon="-0.0861430">
    <ele>29.5</ele>
    <time>2022-11-21T18:11:35Z</time>
   </trkpt>
   <trkpt lat="51.5600080" lon="-0.0861860">
    <ele>29.5</ele>
    <time>2022-11-21T18:11:37Z</time>
   </trkpt>
   <trkpt lat="51.5599380" lon="-0.0862580">
    <ele>29.5</ele>
    <time>2022-11-21T18:11:40Z</time>
   </trkpt>
   <trkpt lat="51.5598900" lon="-0.0863140">
    <ele>29.6</ele>
    <time>2022-11-21T18:11:42Z</time>
   </trkpt>
   <trkpt lat="51.5598220" lon="-0.0863750">
    <ele>29.6</ele>
    <time>2022-11-21T18:11:45Z</time>
   </trkpt>
   <trkpt lat="51.5597520" lon="-0.0864390">
    <ele>29.6</ele>
    <time>2022-11-21T18:11:48Z</time>
   </trkpt>
   <trkpt lat="51.5597090" lon="-0.0864890">
    <ele>29.6</ele>
    <time>2022-11-21T18:11:50Z</time>
   </trkpt>
   <trkpt lat="51.5596460" lon="-0.0865500">
    <ele>29.6</ele>
    <time>2022-11-21T18:11:53Z</time>
   </trkpt>
   <trkpt lat="51.5596140" lon="-0.0866010">
    <ele>29.6</ele>
    <time>2022-11-21T18:11:55Z</time>
   </trkpt>
   <trkpt lat="51.5595440" lon="-0.0866800">
    <ele>29.6</ele>
    <time>2022-11-21T18:11:58Z</time>
   </trkpt>
   <trkpt lat="51.5594970" lon="-0.0867400">
    <ele>29.6</ele>
    <time>2022-11-21T18:12:00Z</time>
   </trkpt>
   <trkpt lat="51.5594390" lon="-0.0868500">
    <ele>29.6</ele>
    <time>2022-11-21T18:12:03Z</time>
   </trkpt>
   <trkpt lat="51.5593820" lon="-0.0869600">
    <ele>29.6</ele>
    <time>2022-11-21T18:12:06Z</time>
   </trkpt>
   <trkpt lat="51.5593350" lon="-0.0870230">
    <ele>29.6</ele>
    <time>2022-11-21T18:12:08Z</time>
   </trkpt>
   <trkpt lat="51.5592740" lon="-0.0871660">
    <ele>29.6</ele>
    <time>2022-11-21T18:12:11Z</time>
   </trkpt>
   <trkpt lat="51.5592320" lon="-0.0872260">
    <ele>29.7</ele>
    <time>2022-11-21T18:12:13Z</time>
   </trkpt>
   <trkpt lat="51.5591810" lon="-0.0873260">
    <ele>29.7</ele>
    <time>2022-11-21T18:12:16Z</time>
   </trkpt>
   <trkpt lat="51.5591330" lon="-0.0873810">
    <ele>29.7</ele>
    <time>2022-11-21T18:12:18Z</time>
   </trkpt>
   <trkpt lat="51.5590920" lon="-0.0874830">
    <ele>29.7</ele>
    <time>2022-11-21T18:12:21Z</time>
   </trkpt>
   <trkpt lat="51.5590640" lon="-0.0875500">
    <ele>29.7</ele>
    <time>2022-11-21T18:12:23Z</time>
   </trkpt>
   <trkpt lat="51.5590050" lon="-0.0876480">
    <ele>29.7</ele>
    <time>2022-11-21T18:12:26Z</time>
   </trkpt>
   <trkpt lat="51.5589630" lon="-0.0877350">
    <ele>29.7</ele>
    <time>2022-11-21T18:12:29Z</time>
   </trkpt>
   <trkpt lat="51.5589320" lon="-0.0877870">
    <ele>29.7</ele>
    <time>2022-11-21T18:12:31Z</time>
   </trkpt>
   <trkpt lat="51.5588710" lon="-0.0878820">
    <ele>29.8</ele>
    <time>2022-11-21T18:12:34Z</time>
   </trkpt>
   <trkpt lat="51.5588330" lon="-0.0879480">
    <ele>29.8</ele>
    <time>2022-11-21T18:12:36Z</time>
   </trkpt>
   <trkpt lat="51.5587820" lon="-0.0880350">
    <ele>29.8</ele>
    <time>2022-11-21T18:12:39Z</time>
   </trkpt>
   <trkpt lat="51.5587490" lon="-0.0880920">
    <ele>29.8</ele>
    <time>2022-11-21T18:12:41Z</time>
   </trkpt>
   <trkpt lat="51.5587060" lon="-0.0881450">
    <ele>29.8</ele>
    <time>2022-11-21T18:12:44Z</time>
   </trkpt>
   <trkpt lat="51.5586330" lon="-0.0883020">
    <ele>29.8</ele>
    <time>2022-11-21T18:12:47Z</time>
   </trkpt>
   <trkpt lat="51.5585930" lon="-0.0883740">
    <ele>29.8</ele>
    <time>2022-11-21T18:12:49Z</time>
   </trkpt>
   <trkpt lat="51.5585520" lon="-0.0884770">
    <ele>29.8</ele>
    <time>2022-11-21T18:12:52Z</time>
   </trkpt>
   <trkpt lat="51.5585070" lon="-0.0885490">
    <ele>29.8</ele>
    <time>2022-11-21T18:12:54Z</time>
   </trkpt>
   <trkpt lat="51.5584530" lon="-0.0886510">
    <ele>29.8</ele>
    <time>2022-11-21T18:12:57Z</time>
   </trkpt>
   <trkpt lat="51.5584120" lon="-0.0887060">
    <ele>29.8</ele>
    <time>2022-11-21T18:12:59Z</time>
   </trkpt>
   <trkpt lat="51.5583660" lon="-0.0888140">
    <ele>29.8</ele>
    <time>2022-11-21T18:13:02Z</time>
   </trkpt>
   <trkpt lat="51.5583090" lon="-0.0889400">
    <ele>29.8</ele>
    <time>2022-11-21T18:13:05Z</time>
   </trkpt>
   <trkpt lat="51.5582770" lon="-0.0890010">
    <ele>29.8</ele>
    <time>2022-11-21T18:13:07Z</time>
   </trkpt>
   <trkpt lat="51.5582230" lon="-0.0891110">
    <ele>29.8</ele>
    <time>2022-11-21T18:13:10Z</time>
   </trkpt>
   <trkpt lat="51.5581880" lon="-0.0892050">
    <ele>29.8</ele>
    <time>2022-11-21T18:13:12Z</time>
   </trkpt>
   <trkpt lat="51.5581380" lon="-0.0893120">
    <ele>29.8</ele>
    <time>2022-11-21T18:13:15Z</time>
   </trkpt>
   <trkpt lat="51.5581060" lon="-0.0893860">
    <ele>29.8</ele>
    <time>2022-11-21T18:13:17Z</time>
   </trkpt>
   <trkpt lat="51.5580470" lon="-0.0894970">
    <ele>29.9</ele>
    <time>2022-11-21T18:13:20Z</time>
   </trkpt>
   <trkpt lat="51.5580130" lon="-0.0895690">
    <ele>29.9</ele>
    <time>2022-11-21T18:13:22Z</time>
   </trkpt>
   <trkpt lat="51.5579670" lon="-0.0896690">
    <ele>30.0</ele>
    <time>2022-11-21T18:13:25Z</time>
   </trkpt>
   <trkpt lat="51.5579230" lon="-0.0897530">
    <ele>30.0</ele>
    <time>2022-11-21T18:13:28Z</time>
   </trkpt>
   <trkpt lat="51.5578920" lon="-0.0898120">
    <ele>30.1</ele>
    <time>2022-11-21T18:13:30Z</time>
   </trkpt>
   <trkpt lat="51.5578570" lon="-0.0899330">
    <ele>30.2</ele>
    <time>2022-11-21T18:13:33Z</time>
   </trkpt>
   <trkpt lat="51.5578370" lon="-0.0899990">
    <ele>30.2</ele>
    <time>2022-11-21T18:13:35Z</time>
   </trkpt>
   <trkpt lat="51.5577940" lon="-0.0901030">
    <ele>30.3</ele>
    <time>2022-11-21T18:13:38Z</time>
   </trkpt>
   <trkpt lat="51.5577910" lon="-0.0902000">
    <ele>30.6</ele>
    <time>2022-11-21T18:13:40Z</time>
   </trkpt>
   <trkpt lat="51.5578780" lon="-0.0902630">
    <ele>30.7</ele>
    <time>2022-11-21T18:13:43Z</time>
   </trkpt>
   <trkpt lat="51.5579450" lon="-0.0903540">
    <ele>30.8</ele>
    <time>2022-11-21T18:13:46Z</time>
   </trkpt>
   <trkpt lat="51.5579910" lon="-0.0903970">
    <ele>30.8</ele>
    <time>2022-11-21T18:13:48Z</time>
   </trkpt>
   <trkpt lat="51.5580840" lon="-0.0904920">
    <ele>31.0</ele>
    <time>2022-11-21T18:13:51Z</time>
   </trkpt>
   <trkpt lat="51.5581310" lon="-0.0905320">
    <ele>31.0</ele>
    <time>2022-11-21T18:13:53Z</time>
   </trkpt>
   <trkpt lat="51.5581910" lon="-0.0906130">
    <ele>31.1</ele>
    <time>2022-11-21T18:13:56Z</time>
   </trkpt>
   <trkpt lat="51.5582310" lon="-0.0906720">
    <ele>31.1</ele>
    <time>2022-11-21T18:13:58Z</time>
   </trkpt>
   <trkpt lat="51.5583170" lon="-0.0907230">
    <ele>31.2</ele>
    <time>2022-11-21T18:14:01Z</time>
   </trkpt>
   <trkpt lat="51.5583600" lon="-0.0907890">
    <ele>31.2</ele>
    <time>2022-11-21T18:14:03Z</time>
   </trkpt>
   <trkpt lat="51.5584400" lon="-0.0908660">
    <ele>31.3</ele>
    <time>2022-11-21T18:14:06Z</time>
   </trkpt>
   <trkpt lat="51.5585360" lon="-0.0909000">
    <ele>31.4</ele>
    <time>2022-11-21T18:14:09Z</time>
   </trkpt>
   <trkpt lat="51.5585840" lon="-0.0909290">
    <ele>31.5</ele>
    <time>2022-11-21T18:14:11Z</time>
   </trkpt>
   <trkpt lat="51.5586730" lon="-0.0909460">
    <ele>31.6</ele>
    <time>2022-11-21T18:14:14Z</time>
   </trkpt>
   <trkpt lat="51.5587230" lon="-0.0909640">
    <ele>31.6</ele>
    <time>2022-11-21T18:14:16Z</time>
   </trkpt>
   <trkpt lat="51.5588010" lon="-0.0910100">
    <ele>31.7</ele>
    <time>2022-11-21T18:14:19Z</time>
   </trkpt>
   <trkpt lat="51.5588630" lon="-0.0910330">
    <ele>31.7</ele>
    <time>2022-11-21T18:14:21Z</time>
   </trkpt>
   <trkpt lat="51.5589400" lon="-0.0910690">
    <ele>31.7</ele>
    <time>2022-11-21T18:14:24Z</time>
   </trkpt>
   <trkpt lat="51.5590130" lon="-0.0911120">
    <ele>31.7</ele>
    <time>2022-11-21T18:14:27Z</time>
   </trkpt>
   <trkpt lat="51.5590640" lon="-0.0911320">
    <ele>31.7</ele>
    <time>2022-11-21T18:14:29Z</time>
   </trkpt>
   <trkpt lat="51.5591310" lon="-0.0911880">
    <ele>31.6</ele>
    <time>2022-11-21T18:14:32Z</time>
   </trkpt>
   <trkpt lat="51.5591870" lon="-0.0912350">
    <ele>31.6</ele>
    <time>2022-11-21T18:14:34Z</time>
   </trkpt>
   <trkpt lat="51.5592650" lon="-0.0912680">
    <ele>31.6</ele>
    <time>2022-11-21T18:14:37Z</time>
   </trkpt>
   <trkpt lat="51.5593180" lon="-0.0913180">
    <ele>31.5</ele>
    <time>2022-11-21T18:14:39Z</time>
   </trkpt>
   <trkpt lat="51.5593850" lon="-0.0913770">
    <ele>31.4</ele>
    <time>2022-11-21T18:14:42Z</time>
   </trkpt>
   <trkpt lat="51.5594520" lon="-0.0914140">
    <ele>31.3</ele>
    <time>2022-11-21T18:14:45Z</time>
   </trkpt>
   <trkpt lat="51.5595020" lon="-0.0914340">
    <ele>31.2</ele>
    <time>2022-11-21T18:14:47Z</time>
   </trkpt>
   <trkpt lat="51.5595750" lon="-0.0914610">
    <ele>31.1</ele>
    <time>2022-11-21T18:14:50Z</time>
   </trkpt>
   <trkpt lat="51.5596170" lon="-0.0915030">
    <ele>30.9</ele>
    <time>2022-11-21T18:14:52Z</time>
   </trkpt>
   <trkpt lat="51.5596840" lon="-0.0915560">
    <ele>30.8</ele>
    <time>2022-11-21T18:14:55Z</time>
   </trkpt>
   <trkpt lat="51.5597320" lon="-0.0915880">
    <ele>30.7</ele>
    <time>2022-11-21T18:14:57Z</time>
   </trkpt>
   <trkpt lat="51.5598010" lon="-0.0916480">
    <ele>30.5</ele>
    <time>2022-11-21T18:15:00Z</time>
   </trkpt>
   <trkpt lat="51.5598800" lon="-0.0917120">
    <ele>30.3</ele>
    <time>2022-11-21T18:15:03Z</time>
   </trkpt>
   <trkpt lat="51.5599260" lon="-0.0917510">
    <ele>30.2</ele>
    <time>2022-11-21T18:15:05Z</time>
   </trkpt>
   <trkpt lat="51.5600000" lon="-0.0918110">
    <ele>29.9</ele>
    <time>2022-11-21T18:15:08Z</time>
   </trkpt>
   <trkpt lat="51.5600530" lon="-0.0918260">
    <ele>29.7</ele>
    <time>2022-11-21T18:15:10Z</time>
   </trkpt>
   <trkpt lat="51.5601520" lon="-0.0918530">
    <ele>29.4</ele>
    <time>2022-11-21T18:15:13Z</time>
   </trkpt>
   <trkpt lat="51.5602120" lon="-0.0918530">
    <ele>29.2</ele>
    <time>2022-11-21T18:15:15Z</time>
   </trkpt>
   <trkpt lat="51.5603010" lon="-0.0918690">
    <ele>28.9</ele>
    <time>2022-11-21T18:15:18Z</time>
   </trkpt>
   <trkpt lat="51.5603900" lon="-0.0918940">
    <ele>28.4</ele>
    <time>2022-11-21T18:15:21Z</time>
   </trkpt>
   <trkpt lat="51.5604390" lon="-0.0919000">
    <ele>28.2</ele>
    <time>2022-11-21T18:15:23Z</time>
   </trkpt>
   <trkpt lat="51.5605110" lon="-0.0919320">
    <ele>27.8</ele>
    <time>2022-11-21T18:15:26Z</time>
   </trkpt>
   <trkpt lat="51.5605690" lon="-0.0919170">
    <ele>27.5</ele>
    <time>2022-11-21T18:15:28Z</time>
   </trkpt>
   <trkpt lat="51.5606300" lon="-0.0919560">
    <ele>26.9</ele>
    <time>2022-11-21T18:15:31Z</time>
   </trkpt>
   <trkpt lat="51.5606900" lon="-0.0919870">
    <ele>26.7</ele>
    <time>2022-11-21T18:15:33Z</time>
   </trkpt>
   <trkpt lat="51.5607720" lon="-0.0920470">
    <ele>26.7</ele>
    <time>2022-11-21T18:15:36Z</time>
   </trkpt>
   <trkpt lat="51.5608190" lon="-0.0920860">
    <ele>26.7</ele>
    <time>2022-11-21T18:15:38Z</time>
   </trkpt>
   <trkpt lat="51.5608620" lon="-0.0921920">
    <ele>26.6</ele>
    <time>2022-11-21T18:15:41Z</time>
   </trkpt>
   <trkpt lat="51.5609140" lon="-0.0922710">
    <ele>26.5</ele>
    <time>2022-11-21T18:15:44Z</time>
   </trkpt>
   <trkpt lat="51.5609450" lon="-0.0923190">
    <ele>26.5</ele>
    <time>2022-11-21T18:15:46Z</time>
   </trkpt>
   <trkpt lat="51.5609880" lon="-0.0924090">
    <ele>26.4</ele>
    <time>2022-11-21T18:15:49Z</time>
   </trkpt>
   <trkpt lat="51.5610120" lon="-0.0924690">
    <ele>26.4</ele>
    <time>2022-11-21T18:15:51Z</time>
   </trkpt>
   <trkpt lat="51.5610510" lon="-0.0925520">
    <ele>26.3</ele>
    <time>2022-11-21T18:15:54Z</time>
   </trkpt>
   <trkpt lat="51.5610840" lon="-0.0926090">
    <ele>26.3</ele>
    <time>2022-11-21T18:15:56Z</time>
   </trkpt>
   <trkpt lat="51.5611150" lon="-0.0927200">
    <ele>26.2</ele>
    <time>2022-11-21T18:15:59Z</time>
   </trkpt>
   <trkpt lat="51.5611680" lon="-0.0928360">
    <ele>26.1</ele>
    <time>2022-11-21T18:16:02Z</time>
   </trkpt>
   <trkpt lat="51.5611980" lon="-0.0929090">
    <ele>26.1</ele>
    <time>2022-11-21T18:16:04Z</time>
   </trkpt>
   <trkpt lat="51.5612380" lon="-0.0930120">
    <ele>26.1</ele>
    <time>2022-11-21T18:16:07Z</time>
   </trkpt>
   <trkpt lat="51.5612630" lon="-0.0930810">
    <ele>26.1</ele>
    <time>2022-11-21T18:16:09Z</time>
   </trkpt>
   <trkpt lat="51.5612960" lon="-0.0931970">
    <ele>26.0</ele>
    <time>2022-11-21T18:16:12Z</time>
   </trkpt>
   <trkpt lat="51.5613170" lon="-0.0932460">
    <ele>26.0</ele>
    <time>2022-11-21T18:16:14Z</time>
   </trkpt>
   <trkpt lat="51.5613500" lon="-0.0933170">
    <ele>26.0</ele>
    <time>2022-11-21T18:16:17Z</time>
   </trkpt>
   <trkpt lat="51.5613730" lon="-0.0933890">
    <ele>26.0</ele>
    <time>2022-11-21T18:16:19Z</time>
   </trkpt>
   <trkpt lat="51.5614230" lon="-0.0934990">
    <ele>26.0</ele>
    <time>2022-11-21T18:16:22Z</time>
   </trkpt>
   <trkpt lat="51.5614760" lon="-0.0936160">
    <ele>26.0</ele>
    <time>2022-11-21T18:16:25Z</time>
   </trkpt>
   <trkpt lat="51.5615060" lon="-0.0936810">
    <ele>25.9</ele>
    <time>2022-11-21T18:16:27Z</time>
   </trkpt>
   <trkpt lat="51.5615620" lon="-0.0937830">
    <ele>25.9</ele>
    <time>2022-11-21T18:16:30Z</time>
   </trkpt>
   <trkpt lat="51.5615880" lon="-0.0938570">
    <ele>25.9</ele>
    <time>2022-11-21T18:16:32Z</time>
   </trkpt>
   <trkpt lat="51.5616260" lon="-0.0939590">
    <ele>25.9</ele>
    <time>2022-11-21T18:16:35Z</time>
   </trkpt>
   <trkpt lat="51.5616500" lon="-0.0940220">
    <ele>25.9</ele>
    <time>2022-11-21T18:16:37Z</time>
   </trkpt>
   <trkpt lat="51.5616850" lon="-0.0941380">
    <ele>25.9</ele>
    <time>2022-11-21T18:16:40Z</time>
   </trkpt>
   <trkpt lat="51.5617300" lon="-0.0942220">
    <ele>25.9</ele>
    <time>2022-11-21T18:16:43Z</time>
   </trkpt>
   <trkpt lat="51.5617540" lon="-0.0942880">
    <ele>25.9</ele>
    <time>2022-11-21T18:16:45Z</time>
   </trkpt>
   <trkpt lat="51.5618000" lon="-0.0944060">
    <ele>25.9</ele>
    <time>2022-11-21T18:16:48Z</time>
   </trkpt>
   <trkpt lat="51.5618410" lon="-0.0944910">
    <ele>25.9</ele>
    <time>2022-11-21T18:16:50Z</time>
   </trkpt>
   <trkpt lat="51.5618920" lon="-0.0945980">
    <ele>25.9</ele>
    <time>2022-11-21T18:16:53Z</time>
   </trkpt>
   <trkpt lat="51.5619120" lon="-0.0946780">
    <ele>25.9</ele>
    <time>2022-11-21T18:16:55Z</time>
   </trkpt>
   <trkpt lat="51.5619580" lon="-0.0947740">
    <ele>25.9</ele>
    <time>2022-11-21T18:16:58Z</time>
   </trkpt>
   <trkpt lat="51.5620030" lon="-0.0948910">
    <ele>25.9</ele>
    <time>2022-11-21T18:17:01Z</time>
   </trkpt>
   <trkpt lat="51.5620220" lon="-0.0949600">
    <ele>25.9</ele>
    <time>2022-11-21T18:17:03Z</time>
   </trkpt>
   <trkpt lat="51.5620890" lon="-0.0950760">
    <ele>26.0</ele>
    <time>2022-11-21T18:17:06Z</time>
   </trkpt>
   <trkpt lat="51.5621340" lon="-0.0951310">
    <ele>26.0</ele>
    <time>2022-11-21T18:17:08Z</time>
   </trkpt>
   <trkpt lat="51.5621720" lon="-0.0952290">
    <ele>26.0</ele>
    <time>2022-11-21T18:17:11Z</time>
   </trkpt>
   <trkpt lat="51.5621950" lon="-0.0953090">
    <ele>26.0</ele>
    <time>2022-11-21T18:17:13Z</time>
   </trkpt>
   <trkpt lat="51.5622430" lon="-0.0954040">
    <ele>26.1</ele>
    <time>2022-11-21T18:17:16Z</time>
   </trkpt>
   <trkpt lat="51.5622790" lon="-0.0954970">
    <ele>26.1</ele>
    <time>2022-11-21T18:17:19Z</time>
   </trkpt>
   <trkpt lat="51.5623150" lon="-0.0955660">
    <ele>26.2</ele>
    <time>2022-11-21T18:17:21Z</time>
   </trkpt>
   <trkpt lat="51.5623730" lon="-0.0956500">
    <ele>26.2</ele>
    <time>2022-11-21T18:17:24Z</time>
   </trkpt>
   <trkpt lat="51.5624090" lon="-0.0957180">
    <ele>26.2</ele>
    <time>2022-11-21T18:17:26Z</time>
   </trkpt>
   <trkpt lat="51.5624490" lon="-0.0958130">
    <ele>26.3</ele>
    <time>2022-11-21T18:17:29Z</time>
   </trkpt>
   <trkpt lat="51.5624870" lon="-0.0958850">
    <ele>26.4</ele>
    <time>2022-11-21T18:17:31Z</time>
   </trkpt>
   <trkpt lat="51.5625300" lon="-0.0959750">
    <ele>26.5</ele>
    <time>2022-11-21T18:17:34Z</time>
   </trkpt>
   <trkpt lat="51.5625690" lon="-0.0960380">
    <ele>26.5</ele>
    <time>2022-11-21T18:17:36Z</time>
   </trkpt>
   <trkpt lat="51.5626270" lon="-0.0961560">
    <ele>26.7</ele>
    <time>2022-11-21T18:17:39Z</time>
   </trkpt>
   <trkpt lat="51.5626670" lon="-0.0962570">
    <ele>26.7</ele>
    <time>2022-11-21T18:17:42Z</time>
   </trkpt>
   <trkpt lat="51.5626940" lon="-0.0963270">
    <ele>26.8</ele>
    <time>2022-11-21T18:17:44Z</time>
   </trkpt>
   <trkpt lat="51.5627450" lon="-0.0964190">
    <ele>26.8</ele>
    <time>2022-11-21T18:17:47Z</time>
   </trkpt>
   <trkpt lat="51.5627890" lon="-0.0964900">
    <ele>26.8</ele>
    <time>2022-11-21T18:17:49Z</time>
   </trkpt>
   <trkpt lat="51.5628450" lon="-0.0965900">
    <ele>26.9</ele>
    <time>2022-11-21T18:17:52Z</time>
   </trkpt>
   <trkpt lat="51.5628810" lon="-0.0966360">
    <ele>26.9</ele>
    <time>2022-11-21T18:17:54Z</time>
   </trkpt>
   <trkpt lat="51.5629300" lon="-0.0967290">
    <ele>27.0</ele>
    <time>2022-11-21T18:17:57Z</time>
   </trkpt>
   <trkpt lat="51.5629940" lon="-0.0968150">
    <ele>27.1</ele>
    <time>2022-11-21T18:18:00Z</time>
   </trkpt>
   <trkpt lat="51.5630280" lon="-0.0968780">
    <ele>27.2</ele>
    <time>2022-11-21T18:18:02Z</time>
   </trkpt>
   <trkpt lat="51.5630820" lon="-0.0969840">
    <ele>27.3</ele>
    <time>2022-11-21T18:18:05Z</time>
   </trkpt>
   <trkpt lat="51.5631130" lon="-0.0970320">
    <ele>27.3</ele>
    <time>2022-11-21T18:18:07Z</time>
   </trkpt>
   <trkpt lat="51.5631640" lon="-0.0971200">
    <ele>27.4</ele>
    <time>2022-11-21T18:18:10Z</time>
   </trkpt>
   <trkpt lat="51.5632080" lon="-0.0971700">
    <ele>27.5</ele>
    <time>2022-11-21T18:18:12Z</time>
   </trkpt>
   <trkpt lat="51.5632620" lon="-0.0972720">
    <ele>27.6</ele>
    <time>2022-11-21T18:18:15Z</time>
   </trkpt>
   <trkpt lat="51.5633140" lon="-0.0973570">
    <ele>27.7</ele>
    <time>2022-11-21T18:18:18Z</time>
   </trkpt>
   <trkpt lat="51.5633440" lon="-0.0974200">
    <ele>27.7</ele>
    <time>2022-11-21T18:18:20Z</time>
   </trkpt>
   <trkpt lat="51.5634100" lon="-0.0974990">
    <ele>27.8</ele>
    <time>2022-11-21T18:18:23Z</time>
   </trkpt>
   <trkpt lat="51.5634450" lon="-0.0975490">
    <ele>27.9</ele>
    <time>2022-11-21T18:18:25Z</time>
   </trkpt>
   <trkpt lat="51.5635080" lon="-0.0976260">
    <ele>28.0</ele>
    <time>2022-11-21T18:18:28Z</time>
   </trkpt>
   <trkpt lat="51.5635420" lon="-0.0976760">
    <ele>28.1</ele>
    <time>2022-11-21T18:18:30Z</time>
   </trkpt>
   <trkpt lat="51.5635950" lon="-0.0977790">
    <ele>28.3</ele>
    <time>2022-11-21T18:18:33Z</time>
   </trkpt>
   <trkpt lat="51.5636330" lon="-0.0978280">
    <ele>28.4</ele>
    <time>2022-11-21T18:18:35Z</time>
   </trkpt>
   <trkpt lat="51.5636880" lon="-0.0979240">
    <ele>28.5</ele>
    <time>2022-11-21T18:18:38Z</time>
   </trkpt>
   <trkpt lat="51.5637400" lon="-0.0980220">
    <ele>28.6</ele>
    <time>2022-11-21T18:18:41Z</time>
   </trkpt>
   <trkpt lat="51.5637750" lon="-0.0980840">
    <ele>28.7</ele>
    <time>2022-11-21T18:18:43Z</time>
   </trkpt>
   <trkpt lat="51.5638470" lon="-0.0981540">
    <ele>28.9</ele>
    <time>2022-11-21T18:18:46Z</time>
   </trkpt>
   <trkpt lat="51.5638840" lon="-0.0982100">
    <ele>29.0</ele>
    <time>2022-11-21T18:18:48Z</time>
   </trkpt>
   <trkpt lat="51.5639330" lon="-0.0982990">
    <ele>29.1</ele>
    <time>2022-11-21T18:18:51Z</time>
   </trkpt>
   <trkpt lat="51.5639900" lon="-0.0983830">
    <ele>29.3</ele>
    <time>2022-11-21T18:18:54Z</time>
   </trkpt>
   <trkpt lat="51.5640200" lon="-0.0984400">
    <ele>29.3</ele>
    <time>2022-11-21T18:18:56Z</time>
   </trkpt>
   <trkpt lat="51.5640710" lon="-0.0985120">
    <ele>29.5</ele>
    <time>2022-11-21T18:18:59Z</time>
   </trkpt>
   <trkpt lat="51.5641200" lon="-0.0985620">
    <ele>29.6</ele>
    <time>2022-11-21T18:19:01Z</time>
   </trkpt>
   <trkpt lat="51.5641720" lon="-0.0986490">
    <ele>29.7</ele>
    <time>2022-11-21T18:19:04Z</time>
   </trkpt>
   <trkpt lat="51.5642150" lon="-0.0987020">
    <ele>29.8</ele>
    <time>2022-11-21T18:19:06Z</time>
   </trkpt>
   <trkpt lat="51.5642690" lon="-0.0988050">
    <ele>29.9</ele>
    <time>2022-11-21T18:19:09Z</time>
   </trkpt>
   <trkpt lat="51.5643010" lon="-0.0988590">
    <ele>30.0</ele>
    <time>2022-11-21T18:19:11Z</time>
   </trkpt>
   <trkpt lat="51.5643560" lon="-0.0989420">
    <ele>30.1</ele>
    <time>2022-11-21T18:19:14Z</time>
   </trkpt>
   <trkpt lat="51.5644060" lon="-0.0990360">
    <ele>30.2</ele>
    <time>2022-11-21T18:19:17Z</time>
   </trkpt>
   <trkpt lat="51.5644500" lon="-0.0991070">
    <ele>30.3</ele>
    <time>2022-11-21T18:19:19Z</time>
   </trkpt>
   <trkpt lat="51.5644990" lon="-0.0991990">
    <ele>30.4</ele>
    <time>2022-11-21T18:19:22Z</time>
   </trkpt>
   <trkpt lat="51.5645400" lon="-0.0992400">
    <ele>30.5</ele>
    <time>2022-11-21T18:19:24Z</time>
   </trkpt>
   <trkpt lat="51.5645840" lon="-0.0993370">
    <ele>30.6</ele>
    <time>2022-11-21T18:19:27Z</time>
   </trkpt>
   <trkpt lat="51.5646210" lon="-0.0993730">
    <ele>30.7</ele>
    <time>2022-11-21T18:19:29Z</time>
   </trkpt>
   <trkpt lat="51.5646720" lon="-0.0994430">
    <ele>30.8</ele>
    <time>2022-11-21T18:19:32Z</time>
   </trkpt>
   <trkpt lat="51.5647140" lon="-0.0995220">
    <ele>30.9</ele>
    <time>2022-11-21T18:19:35Z</time>
   </trkpt>
   <trkpt lat="51.5647400" lon="-0.0995820">
    <ele>31.0</ele>
    <time>2022-11-21T18:19:37Z</time>
   </trkpt>
   <trkpt lat="51.5647910" lon="-0.0996700">
    <ele>31.1</ele>
    <time>2022-11-21T18:19:40Z</time>
   </trkpt>
   <trkpt lat="51.5648290" lon="-0.0997340">
    <ele>31.1</ele>
    <time>2022-11-21T18:19:42Z</time>
   </trkpt>
   <trkpt lat="51.5648810" lon="-0.0998390">
    <ele>31.2</ele>
    <time>2022-11-21T18:19:45Z</time>
   </trkpt>
   <trkpt lat="51.5649160" lon="-0.0998890">
    <ele>31.3</ele>
    <time>2022-11-21T18:19:47Z</time>
   </trkpt>
   <trkpt lat="51.5649780" lon="-0.0999790">
    <ele>31.6</ele>
    <time>2022-11-21T18:19:50Z</time>
   </trkpt>
   <trkpt lat="51.5650270" lon="-0.1000710">
    <ele>31.8</ele>
    <time>2022-11-21T18:19:53Z</time>
   </trkpt>
   <trkpt lat="51.5650690" lon="-0.1001350">
    <ele>32.0</ele>
    <time>2022-11-21T18:19:55Z</time>
   </trkpt>
   <trkpt lat="51.5651280" lon="-0.1002200">
    <ele>32.3</ele>
    <time>2022-11-21T18:19:58Z</time>
   </trkpt>
   <trkpt lat="51.5651540" lon="-0.1002730">
    <ele>32.4</ele>
    <time>2022-11-21T18:20:00Z</time>
   </trkpt>
   <trkpt lat="51.5652050" lon="-0.1003770">
    <ele>32.6</ele>
    <time>2022-11-21T18:20:03Z</time>
   </trkpt>
   <trkpt lat="51.5652640" lon="-0.1004780">
    <ele>32.8</ele>
    <time>2022-11-21T18:20:06Z</time>
   </trkpt>
   <trkpt lat="51.5652990" lon="-0.1005260">
    <ele>32.9</ele>
    <time>2022-11-21T18:20:08Z</time>
   </trkpt>
   <trkpt lat="51.5653560" lon="-0.1006050">
    <ele>33.0</ele>
    <time>2022-11-21T18:20:11Z</time>
   </trkpt>
   <trkpt lat="51.5653970" lon="-0.1006600">
    <ele>33.2</ele>
    <time>2022-11-21T18:20:13Z</time>
   </trkpt>
   <trkpt lat="51.5654480" lon="-0.1007410">
    <ele>33.3</ele>
    <time>2022-11-21T18:20:16Z</time>
   </trkpt>
   <trkpt lat="51.5654690" lon="-0.1008130">
    <ele>33.4</ele>
    <time>2022-11-21T18:20:18Z</time>
   </trkpt>
   <trkpt lat="51.5655100" lon="-0.1009170">
    <ele>33.6</ele>
    <time>2022-11-21T18:20:21Z</time>
   </trkpt>
   <trkpt lat="51.5655410" lon="-0.1009820">
    <ele>33.7</ele>
    <time>2022-11-21T18:20:23Z</time>
   </trkpt>
   <trkpt lat="51.5655890" lon="-0.1010750">
    <ele>33.8</ele>
    <time>2022-11-21T18:20:26Z</time>
   </trkpt>
   <trkpt lat="51.5656260" lon="-0.1011340">
    <ele>33.9</ele>
    <time>2022-11-21T18:20:28Z</time>
   </trkpt>
   <trkpt lat="51.5656840" lon="-0.1012290">
    <ele>34.0</ele>
    <time>2022-11-21T18:20:31Z</time>
   </trkpt>
   <trkpt lat="51.5657390" lon="-0.1013190">
    <ele>34.1</ele>
    <time>2022-11-21T18:20:34Z</time>
   </trkpt>
   <trkpt lat="51.5657660" lon="-0.1013820">
    <ele>34.1</ele>
    <time>2022-11-21T18:20:36Z</time>
   </trkpt>
   <trkpt lat="51.5658200" lon="-0.1014710">
    <ele>34.1</ele>
    <time>2022-11-21T18:20:39Z</time>
   </trkpt>
   <trkpt lat="51.5658650" lon="-0.1015190">
    <ele>34.2</ele>
    <time>2022-11-21T18:20:41Z</time>
   </trkpt>
   <trkpt lat="51.5659390" lon="-0.1015910">
    <ele>34.3</ele>
    <time>2022-11-21T18:20:44Z</time>
   </trkpt>
   <trkpt lat="51.5659860" lon="-0.1016530">
    <ele>34.3</ele>
    <time>2022-11-21T18:20:46Z</time>
   </trkpt>
   <trkpt lat="51.5660500" lon="-0.1017130">
    <ele>34.3</ele>
    <time>2022-11-21T18:20:49Z</time>
   </trkpt>
   <trkpt lat="51.5661130" lon="-0.1018070">
    <ele>34.4</ele>
    <time>2022-11-21T18:20:52Z</time>
   </trkpt>
   <trkpt lat="51.5661430" lon="-0.1018550">
    <ele>34.3</ele>
    <time>2022-11-21T18:20:54Z</time>
   </trkpt>
   <trkpt lat="51.5661630" lon="-0.1018980">
    <ele>34.3</ele>
    <time>2022-11-21T18:20:57Z</time>
   </trkpt>
   <trkpt lat="51.5661480" lon="-0.1018550">
    <ele>34.3</ele>
    <time>2022-11-21T18:20:59Z</time>
   </trkpt>
   <trkpt lat="51.5660290" lon="-0.1016120">
    <ele>34.3</ele>
    <time>2022-11-21T18:21:07Z</time>
   </trkpt>
   <trkpt lat="51.5660270" lon="-0.1015490">
    <ele>34.3</ele>
    <time>2022-11-21T18:21:10Z</time>
   </trkpt>
   <trkpt lat="51.5660170" lon="-0.1015280">
    <ele>34.3</ele>
    <time>2022-11-21T18:21:12Z</time>
   </trkpt>
   <trkpt lat="51.5659480" lon="-0.1014810">
    <ele>34.2</ele>
    <time>2022-11-21T18:21:15Z</time>
   </trkpt>
   <trkpt lat="51.5658160" lon="-0.1014310">
    <ele>34.1</ele>
    <time>2022-11-21T18:21:20Z</time>
   </trkpt>
   <trkpt lat="51.5657840" lon="-0.1013800">
    <ele>34.1</ele>
    <time>2022-11-21T18:21:22Z</time>
   </trkpt>
   <trkpt lat="51.5657290" lon="-0.1013040">
    <ele>34.1</ele>
    <time>2022-11-21T18:21:25Z</time>
   </trkpt>
   <trkpt lat="51.5657140" lon="-0.1011530">
    <ele>34.0</ele>
    <time>2022-11-21T18:21:27Z</time>
   </trkpt>
   <trkpt lat="51.5657340" lon="-0.1009880">
    <ele>33.9</ele>
    <time>2022-11-21T18:21:30Z</time>
   </trkpt>
   <trkpt lat="51.5657230" lon="-0.1008830">
    <ele>33.9</ele>
    <time>2022-11-21T18:21:33Z</time>
   </trkpt>
   <trkpt lat="51.5656880" lon="-0.1008250">
    <ele>33.7</ele>
    <time>2022-11-21T18:21:35Z</time>
   </trkpt>
   <trkpt lat="51.5656170" lon="-0.1007490">
    <ele>33.6</ele>
    <time>2022-11-21T18:21:38Z</time>
   </trkpt>
   <trkpt lat="51.5655710" lon="-0.1006980">
    <ele>33.5</ele>
    <time>2022-11-21T18:21:40Z</time>
   </trkpt>
   <trkpt lat="51.5655060" lon="-0.1006160">
    <ele>33.3</ele>
    <time>2022-11-21T18:21:43Z</time>
   </trkpt>
   <trkpt lat="51.5654530" lon="-0.1005670">
    <ele>33.2</ele>
    <time>2022-11-21T18:21:45Z</time>
   </trkpt>
   <trkpt lat="51.5653840" lon="-0.1005090">
    <ele>33.0</ele>
    <time>2022-11-21T18:21:48Z</time>
   </trkpt>
   <trkpt lat="51.5653090" lon="-0.1004330">
    <ele>32.8</ele>
    <time>2022-11-21T18:21:51Z</time>
   </trkpt>
   <trkpt lat="51.5652810" lon="-0.1003450">
    <ele>32.7</ele>
    <time>2022-11-21T18:21:53Z</time>
   </trkpt>
   <trkpt lat="51.5652160" lon="-0.1002900">
    <ele>32.5</ele>
    <time>2022-11-21T18:21:56Z</time>
   </trkpt>
   <trkpt lat="51.5651750" lon="-0.1001960">
    <ele>32.3</ele>
    <time>2022-11-21T18:21:58Z</time>
   </trkpt>
   <trkpt lat="51.5651130" lon="-0.1000850">
    <ele>32.1</ele>
    <time>2022-11-21T18:22:01Z</time>
   </trkpt>
   <trkpt lat="51.5650880" lon="-0.1000100">
    <ele>31.9</ele>
    <time>2022-11-21T18:22:03Z</time>
   </trkpt>
   <trkpt lat="51.5650260" lon="-0.0999050">
    <ele>31.6</ele>
    <time>2022-11-21T18:22:06Z</time>
   </trkpt>
   <trkpt lat="51.5649830" lon="-0.0998490">
    <ele>31.4</ele>
    <time>2022-11-21T18:22:08Z</time>
   </trkpt>
   <trkpt lat="51.5649340" lon="-0.0997630">
    <ele>31.2</ele>
    <time>2022-11-21T18:22:11Z</time>
   </trkpt>
   <trkpt lat="51.5648760" lon="-0.0996630">
    <ele>31.2</ele>
    <time>2022-11-21T18:22:14Z</time>
   </trkpt>
   <trkpt lat="51.5648510" lon="-0.0996030">
    <ele>31.1</ele>
    <time>2022-11-21T18:22:16Z</time>
   </trkpt>
   <trkpt lat="51.5647920" lon="-0.0995140">
    <ele>31.0</ele>
    <time>2022-11-21T18:22:19Z</time>
   </trkpt>
   <trkpt lat="51.5647520" lon="-0.0994530">
    <ele>30.9</ele>
    <time>2022-11-21T18:22:21Z</time>
   </trkpt>
   <trkpt lat="51.5646940" lon="-0.0993600">
    <ele>30.8</ele>
    <time>2022-11-21T18:22:24Z</time>
   </trkpt>
   <trkpt lat="51.5646590" lon="-0.0993090">
    <ele>30.7</ele>
    <time>2022-11-21T18:22:26Z</time>
   </trkpt>
   <trkpt lat="51.5646200" lon="-0.0992310">
    <ele>30.6</ele>
    <time>2022-11-21T18:22:29Z</time>
   </trkpt>
   <trkpt lat="51.5645680" lon="-0.0991520">
    <ele>30.5</ele>
    <time>2022-11-21T18:22:32Z</time>
   </trkpt>
   <trkpt lat="51.5645310" lon="-0.0991050">
    <ele>30.4</ele>
    <time>2022-11-21T18:22:34Z</time>
   </trkpt>
   <trkpt lat="51.5644650" lon="-0.0990440">
    <ele>30.3</ele>
    <time>2022-11-21T18:22:37Z</time>
   </trkpt>
   <trkpt lat="51.5644220" lon="-0.0990190">
    <ele>30.2</ele>
    <time>2022-11-21T18:22:39Z</time>
   </trkpt>
   <trkpt lat="51.5643380" lon="-0.0989630">
    <ele>30.1</ele>
    <time>2022-11-21T18:22:42Z</time>
   </trkpt>
   <trkpt lat="51.5643270" lon="-0.0988030">
    <ele>30.0</ele>
    <time>2022-11-21T18:22:44Z</time>
   </trkpt>
   <trkpt lat="51.5642760" lon="-0.0986920">
    <ele>29.8</ele>
    <time>2022-11-21T18:22:47Z</time>
   </trkpt>
   <trkpt lat="51.5642440" lon="-0.0986320">
    <ele>29.8</ele>
    <time>2022-11-21T18:22:49Z</time>
   </trkpt>
   <trkpt lat="51.5641970" lon="-0.0985310">
    <ele>29.6</ele>
    <time>2022-11-21T18:22:52Z</time>
   </trkpt>
   <trkpt lat="51.5641520" lon="-0.0984630">
    <ele>29.5</ele>
    <time>2022-11-21T18:22:55Z</time>
   </trkpt>
   <trkpt lat="51.5641180" lon="-0.0984210">
    <ele>29.5</ele>
    <time>2022-11-21T18:22:57Z</time>
   </trkpt>
   <trkpt lat="51.5640540" lon="-0.0983510">
    <ele>29.3</ele>
    <time>2022-11-21T18:23:00Z</time>
   </trkpt>
   <trkpt lat="51.5640070" lon="-0.0982890">
    <ele>29.2</ele>
    <time>2022-11-21T18:23:02Z</time>
   </trkpt>
   <trkpt lat="51.5639500" lon="-0.0982020">
    <ele>29.1</ele>
    <time>2022-11-21T18:23:05Z</time>
   </trkpt>
   <trkpt lat="51.5639140" lon="-0.0981560">
    <ele>29.0</ele>
    <time>2022-11-21T18:23:07Z</time>
   </trkpt>
   <trkpt lat="51.5638490" lon="-0.0980600">
    <ele>28.8</ele>
    <time>2022-11-21T18:23:10Z</time>
   </trkpt>
   <trkpt lat="51.5638000" lon="-0.0979690">
    <ele>28.7</ele>
    <time>2022-11-21T18:23:13Z</time>
   </trkpt>
   <trkpt lat="51.5637710" lon="-0.0979060">
    <ele>28.6</ele>
    <time>2022-11-21T18:23:15Z</time>
   </trkpt>
   <trkpt lat="51.5637170" lon="-0.0978100">
    <ele>28.4</ele>
    <time>2022-11-21T18:23:18Z</time>
   </trkpt>
   <trkpt lat="51.5636720" lon="-0.0977480">
    <ele>28.3</ele>
    <time>2022-11-21T18:23:20Z</time>
   </trkpt>
   <trkpt lat="51.5636090" lon="-0.0976550">
    <ele>28.2</ele>
    <time>2022-11-21T18:23:23Z</time>
   </trkpt>
   <trkpt lat="51.5635660" lon="-0.0975950">
    <ele>28.1</ele>
    <time>2022-11-21T18:23:25Z</time>
   </trkpt>
   <trkpt lat="51.5635110" lon="-0.0975200">
    <ele>28.0</ele>
    <time>2022-11-21T18:23:28Z</time>
   </trkpt>
   <trkpt lat="51.5634630" lon="-0.0974290">
    <ele>27.8</ele>
    <time>2022-11-21T18:23:31Z</time>
   </trkpt>
   <trkpt lat="51.5634320" lon="-0.0973670">
    <ele>27.8</ele>
    <time>2022-11-21T18:23:33Z</time>
   </trkpt>
   <trkpt lat="51.5633840" lon="-0.0972820">
    <ele>27.7</ele>
    <time>2022-11-21T18:23:36Z</time>
   </trkpt>
   <trkpt lat="51.5633410" lon="-0.0972250">
    <ele>27.6</ele>
    <time>2022-11-21T18:23:38Z</time>
   </trkpt>
   <trkpt lat="51.5632840" lon="-0.0971540">
    <ele>27.5</ele>
    <time>2022-11-21T18:23:41Z</time>
   </trkpt>
   <trkpt lat="51.5632480" lon="-0.0970790">
    <ele>27.5</ele>
    <time>2022-11-21T18:23:43Z</time>
   </trkpt>
   <trkpt lat="51.5631890" lon="-0.0969800">
    <ele>27.4</ele>
    <time>2022-11-21T18:23:46Z</time>
   </trkpt>
   <trkpt lat="51.5631100" lon="-0.0968980">
    <ele>27.3</ele>
    <time>2022-11-21T18:23:49Z</time>
   </trkpt>
   <trkpt lat="51.5630740" lon="-0.0968470">
    <ele>27.2</ele>
    <time>2022-11-21T18:23:51Z</time>
   </trkpt>
   <trkpt lat="51.5630240" lon="-0.0967560">
    <ele>27.1</ele>
    <time>2022-11-21T18:23:54Z</time>
   </trkpt>
   <trkpt lat="51.5629980" lon="-0.0967070">
    <ele>27.0</ele>
    <time>2022-11-21T18:23:56Z</time>
   </trkpt>
   <trkpt lat="51.5629340" lon="-0.0966370">
    <ele>26.9</ele>
    <time>2022-11-21T18:23:59Z</time>
   </trkpt>
   <trkpt lat="51.5629070" lon="-0.0965830">
    <ele>26.9</ele>
    <time>2022-11-21T18:24:01Z</time>
   </trkpt>
   <trkpt lat="51.5628560" lon="-0.0964900">
    <ele>26.9</ele>
    <time>2022-11-21T18:24:04Z</time>
   </trkpt>
   <trkpt lat="51.5627970" lon="-0.0964190">
    <ele>26.8</ele>
    <time>2022-11-21T18:24:07Z</time>
   </trkpt>
   <trkpt lat="51.5627750" lon="-0.0963420">
    <ele>26.8</ele>
    <time>2022-11-21T18:24:09Z</time>
   </trkpt>
   <trkpt lat="51.5627550" lon="-0.0962290">
    <ele>26.8</ele>
    <time>2022-11-21T18:24:12Z</time>
   </trkpt>
   <trkpt lat="51.5627230" lon="-0.0961510">
    <ele>26.7</ele>
    <time>2022-11-21T18:24:14Z</time>
   </trkpt>
   <trkpt lat="51.5626720" lon="-0.0961060">
    <ele>26.7</ele>
    <time>2022-11-21T18:24:17Z</time>
   </trkpt>
   <trkpt lat="51.5626420" lon="-0.0960630">
    <ele>26.6</ele>
    <time>2022-11-21T18:24:19Z</time>
   </trkpt>
   <trkpt lat="51.5625780" lon="-0.0959720">
    <ele>26.5</ele>
    <time>2022-11-21T18:24:22Z</time>
   </trkpt>
   <trkpt lat="51.5625250" lon="-0.0958990">
    <ele>26.4</ele>
    <time>2022-11-21T18:24:25Z</time>
   </trkpt>
   <trkpt lat="51.5624800" lon="-0.0958470">
    <ele>26.3</ele>
    <time>2022-11-21T18:24:27Z</time>
   </trkpt>
   <trkpt lat="51.5624250" lon="-0.0957450">
    <ele>26.3</ele>
    <time>2022-11-21T18:24:30Z</time>
   </trkpt>
   <trkpt lat="51.5623840" lon="-0.0957080">
    <ele>26.2</ele>
    <time>2022-11-21T18:24:32Z</time>
   </trkpt>
   <trkpt lat="51.5623210" lon="-0.0956100">
    <ele>26.2</ele>
    <time>2022-11-21T18:24:35Z</time>
   </trkpt>
   <trkpt lat="51.5622980" lon="-0.0955530">
    <ele>26.1</ele>
    <time>2022-11-21T18:24:37Z</time>
   </trkpt>
   <trkpt lat="51.5622420" lon="-0.0954870">
    <ele>26.1</ele>
    <time>2022-11-21T18:24:40Z</time>
   </trkpt>
   <trkpt lat="51.5622100" lon="-0.0954390">
    <ele>26.1</ele>
    <time>2022-11-21T18:24:42Z</time>
   </trkpt>
   <trkpt lat="51.5621600" lon="-0.0953090">
    <ele>26.0</ele>
    <time>2022-11-21T18:24:45Z</time>
   </trkpt>
   <trkpt lat="51.5621280" lon="-0.0951880">
    <ele>26.0</ele>
    <time>2022-11-21T18:24:48Z</time>
   </trkpt>
   <trkpt lat="51.5621140" lon="-0.0950940">
    <ele>26.0</ele>
    <time>2022-11-21T18:24:50Z</time>
   </trkpt>
   <trkpt lat="51.5620740" lon="-0.0949980">
    <ele>26.0</ele>
    <time>2022-11-21T18:24:53Z</time>
   </trkpt>
   <trkpt lat="51.5620470" lon="-0.0949550">
    <ele>26.0</ele>
    <time>2022-11-21T18:24:55Z</time>
   </trkpt>
   <trkpt lat="51.5619870" lon="-0.0948510">
    <ele>25.9</ele>
    <time>2022-11-21T18:24:58Z</time>
   </trkpt>
   <trkpt lat="51.5619760" lon="-0.0947600">
    <ele>25.9</ele>
    <time>2022-11-21T18:25:00Z</time>
   </trkpt>
   <trkpt lat="51.5619720" lon="-0.0946090">
    <ele>25.9</ele>
    <time>2022-11-21T18:25:03Z</time>
   </trkpt>
   <trkpt lat="51.5619640" lon="-0.0945190">
    <ele>25.9</ele>
    <time>2022-11-21T18:25:05Z</time>
   </trkpt>
   <trkpt lat="51.5619500" lon="-0.0944030">
    <ele>25.9</ele>
    <time>2022-11-21T18:25:08Z</time>
   </trkpt>
   <trkpt lat="51.5619080" lon="-0.0943110">
    <ele>25.9</ele>
    <time>2022-11-21T18:25:11Z</time>
   </trkpt>
   <trkpt lat="51.5618780" lon="-0.0942550">
    <ele>25.9</ele>
    <time>2022-11-21T18:25:13Z</time>
   </trkpt>
   <trkpt lat="51.5618510" lon="-0.0941570">
    <ele>25.9</ele>
    <time>2022-11-21T18:25:16Z</time>
   </trkpt>
   <trkpt lat="51.5618410" lon="-0.0941210">
    <ele>25.9</ele>
    <time>2022-11-21T18:25:18Z</time>
   </trkpt>
   <trkpt lat="51.5618310" lon="-0.0940500">
    <ele>25.9</ele>
    <time>2022-11-21T18:25:21Z</time>
   </trkpt>
   <trkpt lat="51.5617640" lon="-0.0938330">
    <ele>25.9</ele>
    <time>2022-11-21T18:25:26Z</time>
   </trkpt>
   <trkpt lat="51.5617260" lon="-0.0937110">
    <ele>25.9</ele>
    <time>2022-11-21T18:25:29Z</time>
   </trkpt>
   <trkpt lat="51.5617140" lon="-0.0936120">
    <ele>25.9</ele>
    <time>2022-11-21T18:25:31Z</time>
   </trkpt>
   <trkpt lat="51.5616840" lon="-0.0935050">
    <ele>25.9</ele>
    <time>2022-11-21T18:25:34Z</time>
   </trkpt>
   <trkpt lat="51.5616540" lon="-0.0934310">
    <ele>26.0</ele>
    <time>2022-11-21T18:25:36Z</time>
   </trkpt>
   <trkpt lat="51.5616370" lon="-0.0933190">
    <ele>26.0</ele>
    <time>2022-11-21T18:25:39Z</time>
   </trkpt>
   <trkpt lat="51.5616260" lon="-0.0932460">
    <ele>26.0</ele>
    <time>2022-11-21T18:25:42Z</time>
   </trkpt>
   <trkpt lat="51.5616120" lon="-0.0932220">
    <ele>26.0</ele>
    <time>2022-11-21T18:25:44Z</time>
   </trkpt>
   <trkpt lat="51.5615520" lon="-0.0931040">
    <ele>26.0</ele>
    <time>2022-11-21T18:25:47Z</time>
   </trkpt>
   <trkpt lat="51.5615280" lon="-0.0930190">
    <ele>26.0</ele>
    <time>2022-11-21T18:25:49Z</time>
   </trkpt>
   <trkpt lat="51.5614870" lon="-0.0929000">
    <ele>26.0</ele>
    <time>2022-11-21T18:25:52Z</time>
   </trkpt>
   <trkpt lat="51.5614540" lon="-0.0928400">
    <ele>26.1</ele>
    <time>2022-11-21T18:25:54Z</time>
   </trkpt>
   <trkpt lat="51.5614240" lon="-0.0927000">
    <ele>26.1</ele>
    <time>2022-11-21T18:25:57Z</time>
   </trkpt>
   <trkpt lat="51.5614080" lon="-0.0926310">
    <ele>26.1</ele>
    <time>2022-11-21T18:25:59Z</time>
   </trkpt>
   <trkpt lat="51.5613510" lon="-0.0925230">
    <ele>26.2</ele>
    <time>2022-11-21T18:26:02Z</time>
   </trkpt>
   <trkpt lat="51.5613000" lon="-0.0924100">
    <ele>26.3</ele>
    <time>2022-11-21T18:26:05Z</time>
   </trkpt>
   <trkpt lat="51.5612730" lon="-0.0923420">
    <ele>26.3</ele>
    <time>2022-11-21T18:26:07Z</time>
   </trkpt>
   <trkpt lat="51.5612170" lon="-0.0922470">
    <ele>26.4</ele>
    <time>2022-11-21T18:26:10Z</time>
   </trkpt>
   <trkpt lat="51.5611730" lon="-0.0922080">
    <ele>26.4</ele>
    <time>2022-11-21T18:26:12Z</time>
   </trkpt>
   <trkpt lat="51.5611140" lon="-0.0920900">
    <ele>26.5</ele>
    <time>2022-11-21T18:26:15Z</time>
   </trkpt>
   <trkpt lat="51.5610740" lon="-0.0920240">
    <ele>26.6</ele>
    <time>2022-11-21T18:26:17Z</time>
   </trkpt>
   <trkpt lat="51.5610180" lon="-0.0919300">
    <ele>26.7</ele>
    <time>2022-11-21T18:26:20Z</time>
   </trkpt>
   <trkpt lat="51.5609850" lon="-0.0918660">
    <ele>26.7</ele>
    <time>2022-11-21T18:26:22Z</time>
   </trkpt>
   <trkpt lat="51.5609230" lon="-0.0918040">
    <ele>26.7</ele>
    <time>2022-11-21T18:26:25Z</time>
   </trkpt>
   <trkpt lat="51.5608170" lon="-0.0918170">
    <ele>26.7</ele>
    <time>2022-11-21T18:26:28Z</time>
   </trkpt>
   <trkpt lat="51.5607670" lon="-0.0918220">
    <ele>26.7</ele>
    <time>2022-11-21T18:26:30Z</time>
   </trkpt>
   <trkpt lat="51.5607490" lon="-0.0916950">
    <ele>26.8</ele>
    <time>2022-11-21T18:26:33Z</time>
   </trkpt>
   <trkpt lat="51.5607090" lon="-0.0916540">
    <ele>26.8</ele>
    <time>2022-11-21T18:26:35Z</time>
   </trkpt>
   <trkpt lat="51.5606200" lon="-0.0916310">
    <ele>27.2</ele>
    <time>2022-11-21T18:26:38Z</time>
   </trkpt>
   <trkpt lat="51.5605740" lon="-0.0916300">
    <ele>27.4</ele>
    <time>2022-11-21T18:26:40Z</time>
   </trkpt>
   <trkpt lat="51.5605060" lon="-0.0916180">
    <ele>27.8</ele>
    <time>2022-11-21T18:26:43Z</time>
   </trkpt>
   <trkpt lat="51.5604350" lon="-0.0916130">
    <ele>28.2</ele>
    <time>2022-11-21T18:26:46Z</time>
   </trkpt>
   <trkpt lat="51.5603850" lon="-0.0916010">
    <ele>28.4</ele>
    <time>2022-11-21T18:26:48Z</time>
   </trkpt>
   <trkpt lat="51.5603160" lon="-0.0915820">
    <ele>28.8</ele>
    <time>2022-11-21T18:26:51Z</time>
   </trkpt>
   <trkpt lat="51.5602720" lon="-0.0915750">
    <ele>29.1</ele>
    <time>2022-11-21T18:26:53Z</time>
   </trkpt>
   <trkpt lat="51.5601980" lon="-0.0915630">
    <ele>29.4</ele>
    <time>2022-11-21T18:26:56Z</time>
   </trkpt>
   <trkpt lat="51.5601470" lon="-0.0915550">
    <ele>29.5</ele>
    <time>2022-11-21T18:26:58Z</time>
   </trkpt>
   <trkpt lat="51.5600830" lon="-0.0915030">
    <ele>29.8</ele>
    <time>2022-11-21T18:27:01Z</time>
   </trkpt>
   <trkpt lat="51.5600390" lon="-0.0914760">
    <ele>30.0</ele>
    <time>2022-11-21T18:27:03Z</time>
   </trkpt>
   <trkpt lat="51.5599730" lon="-0.0914330">
    <ele>30.2</ele>
    <time>2022-11-21T18:27:06Z</time>
   </trkpt>
   <trkpt lat="51.5599070" lon="-0.0913950">
    <ele>30.4</ele>
    <time>2022-11-21T18:27:09Z</time>
   </trkpt>
   <trkpt lat="51.5598600" lon="-0.0913700">
    <ele>30.5</ele>
    <time>2022-11-21T18:27:11Z</time>
   </trkpt>
   <trkpt lat="51.5597900" lon="-0.0913320">
    <ele>30.7</ele>
    <time>2022-11-21T18:27:14Z</time>
   </trkpt>
   <trkpt lat="51.5597460" lon="-0.0913030">
    <ele>30.8</ele>
    <time>2022-11-21T18:27:16Z</time>
   </trkpt>
   <trkpt lat="51.5596740" lon="-0.0912680">
    <ele>30.9</ele>
    <time>2022-11-21T18:27:19Z</time>
   </trkpt>
   <trkpt lat="51.5596090" lon="-0.0912270">
    <ele>31.1</ele>
    <time>2022-11-21T18:27:22Z</time>
   </trkpt>
   <trkpt lat="51.5595620" lon="-0.0911980">
    <ele>31.2</ele>
    <time>2022-11-21T18:27:24Z</time>
   </trkpt>
   <trkpt lat="51.5594880" lon="-0.0911560">
    <ele>31.4</ele>
    <time>2022-11-21T18:27:27Z</time>
   </trkpt>
   <trkpt lat="51.5594430" lon="-0.0911320">
    <ele>31.4</ele>
    <time>2022-11-21T18:27:29Z</time>
   </trkpt>
   <trkpt lat="51.5593690" lon="-0.0910840">
    <ele>31.5</ele>
    <time>2022-11-21T18:27:32Z</time>
   </trkpt>
   <trkpt lat="51.5593250" lon="-0.0910530">
    <ele>31.6</ele>
    <time>2022-11-21T18:27:34Z</time>
   </trkpt>
   <trkpt lat="51.5592660" lon="-0.0910050">
    <ele>31.6</ele>
    <time>2022-11-21T18:27:37Z</time>
   </trkpt>
   <trkpt lat="51.5592100" lon="-0.0909780">
    <ele>31.6</ele>
    <time>2022-11-21T18:27:39Z</time>
   </trkpt>
   <trkpt lat="51.5591280" lon="-0.0909270">
    <ele>31.7</ele>
    <time>2022-11-21T18:27:42Z</time>
   </trkpt>
   <trkpt lat="51.5590440" lon="-0.0908720">
    <ele>31.7</ele>
    <time>2022-11-21T18:27:45Z</time>
   </trkpt>
   <trkpt lat="51.5589970" lon="-0.0908420">
    <ele>31.7</ele>
    <time>2022-11-21T18:27:47Z</time>
   </trkpt>
   <trkpt lat="51.5589160" lon="-0.0908240">
    <ele>31.7</ele>
    <time>2022-11-21T18:27:50Z</time>
   </trkpt>
   <trkpt lat="51.5588650" lon="-0.0907960">
    <ele>31.7</ele>
    <time>2022-11-21T18:27:52Z</time>
   </trkpt>
   <trkpt lat="51.5587760" lon="-0.0907380">
    <ele>31.6</ele>
    <time>2022-11-21T18:27:55Z</time>
   </trkpt>
   <trkpt lat="51.5587130" lon="-0.0907210">
    <ele>31.6</ele>
    <time>2022-11-21T18:27:57Z</time>
   </trkpt>
   <trkpt lat="51.5586480" lon="-0.0906810">
    <ele>31.5</ele>
    <time>2022-11-21T18:28:00Z</time>
   </trkpt>
   <trkpt lat="51.5585760" lon="-0.0906780">
    <ele>31.4</ele>
    <time>2022-11-21T18:28:03Z</time>
   </trkpt>
   <trkpt lat="51.5585380" lon="-0.0906460">
    <ele>31.4</ele>
    <time>2022-11-21T18:28:05Z</time>
   </trkpt>
   <trkpt lat="51.5584710" lon="-0.0906000">
    <ele>31.3</ele>
    <time>2022-11-21T18:28:08Z</time>
   </trkpt>
   <trkpt lat="51.5584260" lon="-0.0905670">
    <ele>31.3</ele>
    <time>2022-11-21T18:28:10Z</time>
   </trkpt>
   <trkpt lat="51.5583490" lon="-0.0905360">
    <ele>31.2</ele>
    <time>2022-11-21T18:28:13Z</time>
   </trkpt>
   <trkpt lat="51.5583100" lon="-0.0905040">
    <ele>31.2</ele>
    <time>2022-11-21T18:28:15Z</time>
   </trkpt>
   <trkpt lat="51.5582410" lon="-0.0904760">
    <ele>31.1</ele>
    <time>2022-11-21T18:28:18Z</time>
   </trkpt>
   <trkpt lat="51.5581660" lon="-0.0904480">
    <ele>31.0</ele>
    <time>2022-11-21T18:28:21Z</time>
   </trkpt>
   <trkpt lat="51.5581180" lon="-0.0904230">
    <ele>31.0</ele>
    <time>2022-11-21T18:28:23Z</time>
   </trkpt>
   <trkpt lat="51.5580440" lon="-0.0903950">
    <ele>30.9</ele>
    <time>2022-11-21T18:28:26Z</time>
   </trkpt>
   <trkpt lat="51.5579910" lon="-0.0903910">
    <ele>30.8</ele>
    <time>2022-11-21T18:28:28Z</time>
   </trkpt>
   <trkpt lat="51.5579210" lon="-0.0903400">
    <ele>30.7</ele>
    <time>2022-11-21T18:28:31Z</time>
   </trkpt>
   <trkpt lat="51.5579070" lon="-0.0902650">
    <ele>30.7</ele>
    <time>2022-11-21T18:28:33Z</time>
   </trkpt>
   <trkpt lat="51.5579330" lon="-0.0901460">
    <ele>30.2</ele>
    <time>2022-11-21T18:28:36Z</time>
   </trkpt>
   <trkpt lat="51.5579800" lon="-0.0900610">
    <ele>30.2</ele>
    <time>2022-11-21T18:28:39Z</time>
   </trkpt>
   <trkpt lat="51.5580000" lon="-0.0900130">
    <ele>30.1</ele>
    <time>2022-11-21T18:28:41Z</time>
   </trkpt>
   <trkpt lat="51.5580450" lon="-0.0899340">
    <ele>30.0</ele>
    <time>2022-11-21T18:28:44Z</time>
   </trkpt>
   <trkpt lat="51.5580710" lon="-0.0898680">
    <ele>30.0</ele>
    <time>2022-11-21T18:28:46Z</time>
   </trkpt>
   <trkpt lat="51.5581090" lon="-0.0897810">
    <ele>29.9</ele>
    <time>2022-11-21T18:28:49Z</time>
   </trkpt>
   <trkpt lat="51.5581370" lon="-0.0897170">
    <ele>29.9</ele>
    <time>2022-11-21T18:28:51Z</time>
   </trkpt>
   <trkpt lat="51.5581780" lon="-0.0896090">
    <ele>29.8</ele>
    <time>2022-11-21T18:28:54Z</time>
   </trkpt>
   <trkpt lat="51.5582170" lon="-0.0895390">
    <ele>29.8</ele>
    <time>2022-11-21T18:28:56Z</time>
   </trkpt>
   <trkpt lat="51.5582580" lon="-0.0894500">
    <ele>29.8</ele>
    <time>2022-11-21T18:28:59Z</time>
   </trkpt>
   <trkpt lat="51.5582970" lon="-0.0893550">
    <ele>29.8</ele>
    <time>2022-11-21T18:29:02Z</time>
   </trkpt>
   <trkpt lat="51.5583260" lon="-0.0893020">
    <ele>29.8</ele>
    <time>2022-11-21T18:29:04Z</time>
   </trkpt>
   <trkpt lat="51.5583700" lon="-0.0891810">
    <ele>29.8</ele>
    <time>2022-11-21T18:29:07Z</time>
   </trkpt>
   <trkpt lat="51.5583880" lon="-0.0891250">
    <ele>29.8</ele>
    <time>2022-11-21T18:29:09Z</time>
   </trkpt>
   <trkpt lat="51.5584380" lon="-0.0890620">
    <ele>29.8</ele>
    <time>2022-11-21T18:29:12Z</time>
   </trkpt>
   <trkpt lat="51.5584910" lon="-0.0889710">
    <ele>29.8</ele>
    <time>2022-11-21T18:29:15Z</time>
   </trkpt>
   <trkpt lat="51.5585200" lon="-0.0889250">
    <ele>29.8</ele>
    <time>2022-11-21T18:29:17Z</time>
   </trkpt>
   <trkpt lat="51.5585720" lon="-0.0888440">
    <ele>29.8</ele>
    <time>2022-11-21T18:29:20Z</time>
   </trkpt>
   <trkpt lat="51.5586060" lon="-0.0887660">
    <ele>29.8</ele>
    <time>2022-11-21T18:29:22Z</time>
   </trkpt>
   <trkpt lat="51.5586650" lon="-0.0886770">
    <ele>29.8</ele>
    <time>2022-11-21T18:29:25Z</time>
   </trkpt>
   <trkpt lat="51.5586960" lon="-0.0886170">
    <ele>29.8</ele>
    <time>2022-11-21T18:29:27Z</time>
   </trkpt>
   <trkpt lat="51.5587450" lon="-0.0885360">
    <ele>29.8</ele>
    <time>2022-11-21T18:29:30Z</time>
   </trkpt>
   <trkpt lat="51.5587740" lon="-0.0884610">
    <ele>29.8</ele>
    <time>2022-11-21T18:29:32Z</time>
   </trkpt>
   <trkpt lat="51.5588200" lon="-0.0883780">
    <ele>29.8</ele>
    <time>2022-11-21T18:29:35Z</time>
   </trkpt>
   <trkpt lat="51.5588550" lon="-0.0883130">
    <ele>29.8</ele>
    <time>2022-11-21T18:29:37Z</time>
   </trkpt>
   <trkpt lat="51.5589160" lon="-0.0882190">
    <ele>29.8</ele>
    <time>2022-11-21T18:29:40Z</time>
   </trkpt>
   <trkpt lat="51.5589700" lon="-0.0881420">
    <ele>29.8</ele>
    <time>2022-11-21T18:29:43Z</time>
   </trkpt>
   <trkpt lat="51.5590070" lon="-0.0880700">
    <ele>29.8</ele>
    <time>2022-11-21T18:29:45Z</time>
   </trkpt>
   <trkpt lat="51.5590670" lon="-0.0879730">
    <ele>29.7</ele>
    <time>2022-11-21T18:29:48Z</time>
   </trkpt>
   <trkpt lat="51.5590990" lon="-0.0879040">
    <ele>29.7</ele>
    <time>2022-11-21T18:29:50Z</time>
   </trkpt>
   <trkpt lat="51.5591470" lon="-0.0878070">
    <ele>29.7</ele>
    <time>2022-11-21T18:29:53Z</time>
   </trkpt>
   <trkpt lat="51.5591810" lon="-0.0877550">
    <ele>29.7</ele>
    <time>2022-11-21T18:29:55Z</time>
   </trkpt>
   <trkpt lat="51.5592330" lon="-0.0876470">
    <ele>29.7</ele>
    <time>2022-11-21T18:29:58Z</time>
   </trkpt>
   <trkpt lat="51.5592790" lon="-0.0875530">
    <ele>29.7</ele>
    <time>2022-11-21T18:30:01Z</time>
   </trkpt>
   <trkpt lat="51.5593130" lon="-0.0874880">
    <ele>29.7</ele>
    <time>2022-11-21T18:30:03Z</time>
   </trkpt>
   <trkpt lat="51.5593720" lon="-0.0873910">
    <ele>29.6</ele>
    <time>2022-11-21T18:30:06Z</time>
   </trkpt>
   <trkpt lat="51.5594040" lon="-0.0873120">
    <ele>29.6</ele>
    <time>2022-11-21T18:30:08Z</time>
   </trkpt>
   <trkpt lat="51.5594550" lon="-0.0872270">
    <ele>29.6</ele>
    <time>2022-11-21T18:30:11Z</time>
   </trkpt>
   <trkpt lat="51.5594950" lon="-0.0871660">
    <ele>29.6</ele>
    <time>2022-11-21T18:30:13Z</time>
   </trkpt>
   <trkpt lat="51.5595530" lon="-0.0870840">
    <ele>29.6</ele>
    <time>2022-11-21T18:30:16Z</time>
   </trkpt>
   <trkpt lat="51.5596210" lon="-0.0870100">
    <ele>29.6</ele>
    <time>2022-11-21T18:30:19Z</time>
   </trkpt>
   <trkpt lat="51.5596620" lon="-0.0869670">
    <ele>29.6</ele>
    <time>2022-11-21T18:30:21Z</time>
   </trkpt>
   <trkpt lat="51.5597310" lon="-0.0869000">
    <ele>29.6</ele>
    <time>2022-11-21T18:30:24Z</time>
   </trkpt>
   <trkpt lat="51.5597720" lon="-0.0868440">
    <ele>29.6</ele>
    <time>2022-11-21T18:30:26Z</time>
   </trkpt>
   <trkpt lat="51.5598490" lon="-0.0867770">
    <ele>29.6</ele>
    <time>2022-11-21T18:30:29Z</time>
   </trkpt>
   <trkpt lat="51.5598810" lon="-0.0867230">
    <ele>29.6</ele>
    <time>2022-11-21T18:30:31Z</time>
   </trkpt>
   <trkpt lat="51.5599480" lon="-0.0866420">
    <ele>29.6</ele>
    <time>2022-11-21T18:30:34Z</time>
   </trkpt>
   <trkpt lat="51.5599990" lon="-0.0865490">
    <ele>29.6</ele>
    <time>2022-11-21T18:30:37Z</time>
   </trkpt>
   <trkpt lat="51.5600430" lon="-0.0864880">
    <ele>29.5</ele>
    <time>2022-11-21T18:30:39Z</time>
   </trkpt>
   <trkpt lat="51.5601040" lon="-0.0864030">
    <ele>29.5</ele>
    <time>2022-11-21T18:30:42Z</time>
   </trkpt>
   <trkpt lat="51.5601430" lon="-0.0863370">
    <ele>29.5</ele>
    <time>2022-11-21T18:30:44Z</time>
   </trkpt>
   <trkpt lat="51.5602110" lon="-0.0862550">
    <ele>29.5</ele>
    <time>2022-11-21T18:30:47Z</time>
   </trkpt>
   <trkpt lat="51.5602520" lon="-0.0862120">
    <ele>29.5</ele>
    <time>2022-11-21T18:30:49Z</time>
   </trkpt>
   <trkpt lat="51.5603000" lon="-0.0861250">
    <ele>29.6</ele>
    <time>2022-11-21T18:30:52Z</time>
   </trkpt>
   <trkpt lat="51.5603560" lon="-0.0860340">
    <ele>29.6</ele>
    <time>2022-11-21T18:30:55Z</time>
   </trkpt>
   <trkpt lat="51.5603890" lon="-0.0859680">
    <ele>29.6</ele>
    <time>2022-11-21T18:30:57Z</time>
   </trkpt>
   <trkpt lat="51.5604390" lon="-0.0858730">
    <ele>29.5</ele>
    <time>2022-11-21T18:31:00Z</time>
   </trkpt>
   <trkpt lat="51.5604710" lon="-0.0858260">
    <ele>29.5</ele>
    <time>2022-11-21T18:31:02Z</time>
   </trkpt>
   <trkpt lat="51.5605250" lon="-0.0857310">
    <ele>29.5</ele>
    <time>2022-11-21T18:31:05Z</time>
   </trkpt>
   <trkpt lat="51.5605600" lon="-0.0856730">
    <ele>29.5</ele>
    <time>2022-11-21T18:31:07Z</time>
   </trkpt>
   <trkpt lat="51.5606150" lon="-0.0855720">
    <ele>29.4</ele>
    <time>2022-11-21T18:31:10Z</time>
   </trkpt>
   <trkpt lat="51.5606740" lon="-0.0854850">
    <ele>29.4</ele>
    <time>2022-11-21T18:31:13Z</time>
   </trkpt>
   <trkpt lat="51.5607100" lon="-0.0854460">
    <ele>29.4</ele>
    <time>2022-11-21T18:31:15Z</time>
   </trkpt>
   <trkpt lat="51.5607720" lon="-0.0853750">
    <ele>29.5</ele>
    <time>2022-11-21T18:31:18Z</time>
   </trkpt>
   <trkpt lat="51.5608190" lon="-0.0853300">
    <ele>29.5</ele>
    <time>2022-11-21T18:31:20Z</time>
   </trkpt>
   <trkpt lat="51.5608780" lon="-0.0852440">
    <ele>29.5</ele>
    <time>2022-11-21T18:31:23Z</time>
   </trkpt>
   <trkpt lat="51.5609200" lon="-0.0851830">
    <ele>29.5</ele>
    <time>2022-11-21T18:31:25Z</time>
   </trkpt>
   <trkpt lat="51.5609770" lon="-0.0850980">
    <ele>29.5</ele>
    <time>2022-11-21T18:31:28Z</time>
   </trkpt>
   <trkpt lat="51.5610120" lon="-0.0850450">
    <ele>29.5</ele>
    <time>2022-11-21T18:31:30Z</time>
   </trkpt>
   <trkpt lat="51.5610700" lon="-0.0849650">
    <ele>29.6</ele>
    <time>2022-11-21T18:31:33Z</time>
   </trkpt>
   <trkpt lat="51.5611060" lon="-0.0848530">
    <ele>29.6</ele>
    <time>2022-11-21T18:31:36Z</time>
   </trkpt>
   <trkpt lat="51.5611320" lon="-0.0847780">
    <ele>29.6</ele>
    <time>2022-11-21T18:31:38Z</time>
   </trkpt>
   <trkpt lat="51.5611620" lon="-0.0846580">
    <ele>29.7</ele>
    <time>2022-11-21T18:31:41Z</time>
   </trkpt>
   <trkpt lat="51.5611690" lon="-0.0845710">
    <ele>29.7</ele>
    <time>2022-11-21T18:31:43Z</time>
   </trkpt>
   <trkpt lat="51.5611870" lon="-0.0844410">
    <ele>29.7</ele>
    <time>2022-11-21T18:31:46Z</time>
   </trkpt>
   <trkpt lat="51.5611950" lon="-0.0843540">
    <ele>29.8</ele>
    <time>2022-11-21T18:31:48Z</time>
   </trkpt>
   <trkpt lat="51.5612110" lon="-0.0842330">
    <ele>29.8</ele>
    <time>2022-11-21T18:31:51Z</time>
   </trkpt>
   <trkpt lat="51.5612240" lon="-0.0841140">
    <ele>29.8</ele>
    <time>2022-11-21T18:31:54Z</time>
   </trkpt>
   <trkpt lat="51.5612360" lon="-0.0840420">
    <ele>29.8</ele>
    <time>2022-11-21T18:31:56Z</time>
   </trkpt>
   <trkpt lat="51.5612410" lon="-0.0839160">
    <ele>29.9</ele>
    <time>2022-11-21T18:31:59Z</time>
   </trkpt>
   <trkpt lat="51.5612530" lon="-0.0838380">
    <ele>29.9</ele>
    <time>2022-11-21T18:32:01Z</time>
   </trkpt>
   <trkpt lat="51.5612900" lon="-0.0836540">
    <ele>29.8</ele>
    <time>2022-11-21T18:32:04Z</time>
   </trkpt>
   <trkpt lat="51.5612880" lon="-0.0835440">
    <ele>29.8</ele>
    <time>2022-11-21T18:32:06Z</time>
   </trkpt>
   <trkpt lat="51.5612900" lon="-0.0834040">
    <ele>29.8</ele>
    <time>2022-11-21T18:32:09Z</time>
   </trkpt>
   <trkpt lat="51.5612900" lon="-0.0833140">
    <ele>29.9</ele>
    <time>2022-11-21T18:32:11Z</time>
   </trkpt>
   <trkpt lat="51.5612970" lon="-0.0831950">
    <ele>29.9</ele>
    <time>2022-11-21T18:32:14Z</time>
   </trkpt>
   <trkpt lat="51.5613080" lon="-0.0830330">
    <ele>29.9</ele>
    <time>2022-11-21T18:32:18Z</time>
   </trkpt>
   <trkpt lat="51.5613140" lon="-0.0829960">
    <ele>29.9</ele>
    <time>2022-11-21T18:32:19Z</time>
   </trkpt>
   <trkpt lat="51.5613060" lon="-0.0828850">
    <ele>30.0</ele>
    <time>2022-11-21T18:32:22Z</time>
   </trkpt>
   <trkpt lat="51.5613250" lon="-0.0828040">
    <ele>30.0</ele>
    <time>2022-11-21T18:32:24Z</time>
   </trkpt>
   <trkpt lat="51.5613470" lon="-0.0826830">
    <ele>30.0</ele>
    <time>2022-11-21T18:32:27Z</time>
   </trkpt>
   <trkpt lat="51.5613500" lon="-0.0825900">
    <ele>30.0</ele>
    <time>2022-11-21T18:32:29Z</time>
   </trkpt>
   <trkpt lat="51.5613810" lon="-0.0824970">
    <ele>30.0</ele>
    <time>2022-11-21T18:32:32Z</time>
   </trkpt>
   <trkpt lat="51.5614250" lon="-0.0824110">
    <ele>30.0</ele>
    <time>2022-11-21T18:32:35Z</time>
   </trkpt>
   <trkpt lat="51.5614460" lon="-0.0823310">
    <ele>30.0</ele>
    <time>2022-11-21T18:32:37Z</time>
   </trkpt>
   <trkpt lat="51.5614710" lon="-0.0822110">
    <ele>30.0</ele>
    <time>2022-11-21T18:32:40Z</time>
   </trkpt>
   <trkpt lat="51.5614960" lon="-0.0821380">
    <ele>29.9</ele>
    <time>2022-11-21T18:32:42Z</time>
   </trkpt>
   <trkpt lat="51.5615350" lon="-0.0820200">
    <ele>29.9</ele>
    <time>2022-11-21T18:32:45Z</time>
   </trkpt>
   <trkpt lat="51.5615840" lon="-0.0819640">
    <ele>29.9</ele>
    <time>2022-11-21T18:32:47Z</time>
   </trkpt>
   <trkpt lat="51.5616300" lon="-0.0818260">
    <ele>29.9</ele>
    <time>2022-11-21T18:32:50Z</time>
   </trkpt>
   <trkpt lat="51.5616760" lon="-0.0817910">
    <ele>29.9</ele>
    <time>2022-11-21T18:32:53Z</time>
   </trkpt>
   <trkpt lat="51.5616690" lon="-0.0816800">
    <ele>29.8</ele>
    <time>2022-11-21T18:32:55Z</time>
   </trkpt>
   <trkpt lat="51.5617130" lon="-0.0815410">
    <ele>29.8</ele>
    <time>2022-11-21T18:32:58Z</time>
   </trkpt>
   <trkpt lat="51.5617460" lon="-0.0814730">
    <ele>29.8</ele>
    <time>2022-11-21T18:33:00Z</time>
   </trkpt>
   <trkpt lat="51.5617740" lon="-0.0813480">
    <ele>29.8</ele>
    <time>2022-11-21T18:33:03Z</time>
   </trkpt>
   <trkpt lat="51.5618020" lon="-0.0812660">
    <ele>29.8</ele>
    <time>2022-11-21T18:33:05Z</time>
   </trkpt>
   <trkpt lat="51.5618220" lon="-0.0811640">
    <ele>29.8</ele>
    <time>2022-11-21T18:33:08Z</time>
   </trkpt>
   <trkpt lat="51.5618540" lon="-0.0810860">
    <ele>29.8</ele>
    <time>2022-11-21T18:33:10Z</time>
   </trkpt>
   <trkpt lat="51.5618680" lon="-0.0809950">
    <ele>29.7</ele>
    <time>2022-11-21T18:33:13Z</time>
   </trkpt>
   <trkpt lat="51.5619160" lon="-0.0808910">
    <ele>29.7</ele>
    <time>2022-11-21T18:33:16Z</time>
   </trkpt>
   <trkpt lat="51.5619480" lon="-0.0808260">
    <ele>29.7</ele>
    <time>2022-11-21T18:33:18Z</time>
   </trkpt>
   <trkpt lat="51.5620020" lon="-0.0807400">
    <ele>29.7</ele>
    <time>2022-11-21T18:33:21Z</time>
   </trkpt>
   <trkpt lat="51.5620180" lon="-0.0806700">
    <ele>29.6</ele>
    <time>2022-11-21T18:33:23Z</time>
   </trkpt>
   <trkpt lat="51.5620450" lon="-0.0805370">
    <ele>29.5</ele>
    <time>2022-11-21T18:33:26Z</time>
   </trkpt>
   <trkpt lat="51.5620880" lon="-0.0804680">
    <ele>29.5</ele>
    <time>2022-11-21T18:33:28Z</time>
   </trkpt>
   <trkpt lat="51.5621150" lon="-0.0803360">
    <ele>29.4</ele>
    <time>2022-11-21T18:33:31Z</time>
   </trkpt>
   <trkpt lat="51.5621160" lon="-0.0802180">
    <ele>29.4</ele>
    <time>2022-11-21T18:33:34Z</time>
   </trkpt>
   <trkpt lat="51.5621310" lon="-0.0801460">
    <ele>29.4</ele>
    <time>2022-11-21T18:33:36Z</time>
   </trkpt>
   <trkpt lat="51.5621370" lon="-0.0800270">
    <ele>29.4</ele>
    <time>2022-11-21T18:33:39Z</time>
   </trkpt>
   <trkpt lat="51.5621460" lon="-0.0799410">
    <ele>29.3</ele>
    <time>2022-11-21T18:33:41Z</time>
   </trkpt>
   <trkpt lat="51.5621500" lon="-0.0798240">
    <ele>29.3</ele>
    <time>2022-11-21T18:33:44Z</time>
   </trkpt>
   <trkpt lat="51.5621600" lon="-0.0797310">
    <ele>29.3</ele>
    <time>2022-11-21T18:33:46Z</time>
   </trkpt>
   <trkpt lat="51.5621670" lon="-0.0795950">
    <ele>29.3</ele>
    <time>2022-11-21T18:33:49Z</time>
   </trkpt>
   <trkpt lat="51.5621970" lon="-0.0794760">
    <ele>29.3</ele>
    <time>2022-11-21T18:33:52Z</time>
   </trkpt>
   <trkpt lat="51.5622450" lon="-0.0794400">
    <ele>29.3</ele>
    <time>2022-11-21T18:33:54Z</time>
   </trkpt>
   <trkpt lat="51.5622530" lon="-0.0793230">
    <ele>29.2</ele>
    <time>2022-11-21T18:33:57Z</time>
   </trkpt>
   <trkpt lat="51.5622280" lon="-0.0792080">
    <ele>29.3</ele>
    <time>2022-11-21T18:33:59Z</time>
   </trkpt>
   <trkpt lat="51.5622050" lon="-0.0790760">
    <ele>29.3</ele>
    <time>2022-11-21T18:34:02Z</time>
   </trkpt>
   <trkpt lat="51.5621930" lon="-0.0789910">
    <ele>29.2</ele>
    <time>2022-11-21T18:34:04Z</time>
   </trkpt>
   <trkpt lat="51.5622180" lon="-0.0788750">
    <ele>29.2</ele>
    <time>2022-11-21T18:34:07Z</time>
   </trkpt>
   <trkpt lat="51.5622580" lon="-0.0787800">
    <ele>29.1</ele>
    <time>2022-11-21T18:34:10Z</time>
   </trkpt>
   <trkpt lat="51.5622530" lon="-0.0787120">
    <ele>29.1</ele>
    <time>2022-11-21T18:34:12Z</time>
   </trkpt>
   <trkpt lat="51.5622570" lon="-0.0785870">
    <ele>29.0</ele>
    <time>2022-11-21T18:34:15Z</time>
   </trkpt>
   <trkpt lat="51.5622560" lon="-0.0785030">
    <ele>29.0</ele>
    <time>2022-11-21T18:34:17Z</time>
   </trkpt>
   <trkpt lat="51.5622840" lon="-0.0783700">
    <ele>28.9</ele>
    <time>2022-11-21T18:34:20Z</time>
   </trkpt>
   <trkpt lat="51.5622770" lon="-0.0782890">
    <ele>28.9</ele>
    <time>2022-11-21T18:34:22Z</time>
   </trkpt>
   <trkpt lat="51.5622550" lon="-0.0781490">
    <ele>28.8</ele>
    <time>2022-11-21T18:34:25Z</time>
   </trkpt>
   <trkpt lat="51.5622680" lon="-0.0780530">
    <ele>28.8</ele>
    <time>2022-11-21T18:34:27Z</time>
   </trkpt>
   <trkpt lat="51.5622850" lon="-0.0779120">
    <ele>28.7</ele>
    <time>2022-11-21T18:34:30Z</time>
   </trkpt>
   <trkpt lat="51.5623080" lon="-0.0777560">
    <ele>28.6</ele>
    <time>2022-11-21T18:34:33Z</time>
   </trkpt>
   <trkpt lat="51.5623140" lon="-0.0776470">
    <ele>28.6</ele>
    <time>2022-11-21T18:34:35Z</time>
   </trkpt>
   <trkpt lat="51.5623040" lon="-0.0775260">
    <ele>28.5</ele>
    <time>2022-11-21T18:34:38Z</time>
   </trkpt>
   <trkpt lat="51.5623050" lon="-0.0774290">
    <ele>28.5</ele>
    <time>2022-11-21T18:34:40Z</time>
   </trkpt>
   <trkpt lat="51.5622710" lon="-0.0773190">
    <ele>28.5</ele>
    <time>2022-11-21T18:34:43Z</time>
   </trkpt>
   <trkpt lat="51.5622660" lon="-0.0772270">
    <ele>28.4</ele>
    <time>2022-11-21T18:34:45Z</time>
   </trkpt>
   <trkpt lat="51.5622750" lon="-0.0771250">
    <ele>28.4</ele>
    <time>2022-11-21T18:34:48Z</time>
   </trkpt>
   <trkpt lat="51.5623140" lon="-0.0769960">
    <ele>28.4</ele>
    <time>2022-11-21T18:34:51Z</time>
   </trkpt>
   <trkpt lat="51.5623250" lon="-0.0769220">
    <ele>28.3</ele>
    <time>2022-11-21T18:34:53Z</time>
   </trkpt>
   <trkpt lat="51.5623310" lon="-0.0767900">
    <ele>28.3</ele>
    <time>2022-11-21T18:34:56Z</time>
   </trkpt>
   <trkpt lat="51.5623230" lon="-0.0767010">
    <ele>28.3</ele>
    <time>2022-11-21T18:34:58Z</time>
   </trkpt>
   <trkpt lat="51.5623460" lon="-0.0766130">
    <ele>28.3</ele>
    <time>2022-11-21T18:35:01Z</time>
   </trkpt>
   <trkpt lat="51.5623700" lon="-0.0765650">
    <ele>28.3</ele>
    <time>2022-11-21T18:35:03Z</time>
   </trkpt>
   <trkpt lat="51.5623410" lon="-0.0764400">
    <ele>28.3</ele>
    <time>2022-11-21T18:35:06Z</time>
   </trkpt>
   <trkpt lat="51.5622690" lon="-0.0763160">
    <ele>28.2</ele>
    <time>2022-11-21T18:35:09Z</time>
   </trkpt>
   <trkpt lat="51.5622510" lon="-0.0762310">
    <ele>28.2</ele>
    <time>2022-11-21T18:35:11Z</time>
   </trkpt>
   <trkpt lat="51.5622140" lon="-0.0761060">
    <ele>28.2</ele>
    <time>2022-11-21T18:35:14Z</time>
   </trkpt>
   <trkpt lat="51.5622010" lon="-0.0760360">
    <ele>28.2</ele>
    <time>2022-11-21T18:35:16Z</time>
   </trkpt>
  </trkseg>
 </trk>
</gpx>
