<?xml version="1.0" encoding="UTF-8"?>
<gpx creator="StravaGPX" version="1.1" xmlns="http://www.topografix.com/GPX/1/1" xmlns:xsi="http://www.w3.org/2001/XMLSchema-instance" xsi:schemaLocation="http://www.topografix.com/GPX/1/1 http://www.topografix.com/GPX/1/1/gpx.xsd">
 <metadata>
  <time>2023-06-09T07:44:26Z</time>
 </metadata>
 <trk>
  <name>Afternoon Run</name>
  <type>running</type>
  <trkseg>
   <trkpt lat="51.5734960" lon="-0.0833490">
    <ele>31.2</ele>
    <time>2023-06-09T07:44:26Z</time>
   </trkpt>
   <trkpt lat="51.5734750" lon="-0.0833360">
    <ele>31.2</ele>
    <time>2023-06-09T07:44:27Z</time>
   </trkpt>
   <trkpt lat="51.5734670" lon="-0.0833300">
    <ele>31.2</ele>
    <time>2023-06-09T07:44:28Z</time>
   </trkpt>
   <trkpt lat="51.5734590" lon="-0.0833230">
    <ele>31.2</ele>
    <time>2023-06-09T07:44:29Z</time>
   </trkpt>
   <trkpt lat="51.5734460" lon="-0.0833150">
    <ele>31.2</ele>
    <time>2023-06-09T07:44:30Z</time>
   </trkpt>
   <trkpt lat="51.5734310" lon="-0.0833090">
    <ele>31.2</ele>
    <time>2023-06-09T07:44:31Z</time>
   </trkpt>
   <trkpt lat="51.5734160" lon="-0.0833040">
    <ele>31.1</ele>
    <time>2023-06-09T07:44:32Z</time>
   </trkpt>
   <trkpt lat="51.5733980" lon="-0.0832950">
    <ele>31.1</ele>
    <time>2023-06-09T07:44:33Z</time>
   </trkpt>
   <trkpt lat="51.5733710" lon="-0.0832920">
    <ele>31.1</ele>
    <time>2023-06-09T07:44:34Z</time>
   </trkpt>
   <trkpt lat="51.5733580" lon="-0.0832960">
    <ele>31.1</ele>
    <time>2023-06-09T07:44:35Z</time>
   </trkpt>
   <trkpt lat="51.5733440" lon="-0.0832990">
    <ele>31.1</ele>
    <time>2023-06-09T07:44:36Z</time>
   </trkpt>
   <trkpt lat="51.5733180" lon="-0.0833020">
    <ele>31.0</ele>
    <time>2023-06-09T07:44:37Z</time>
   </trkpt>
   <trkpt lat="51.5733050" lon="-0.0833000">
    <ele>31.0</ele>
    <time>2023-06-09T07:44:38Z</time>
   </trkpt>
   <trkpt lat="51.5732950" lon="-0.0832930">
    <ele>31.0</ele>
    <time>2023-06-09T07:44:39Z</time>
   </trkpt>
   <trkpt lat="51.5732770" lon="-0.0833010">
    <ele>31.0</ele>
    <time>2023-06-09T07:44:40Z</time>
   </trkpt>
   <trkpt lat="51.5732580" lon="-0.0832690">
    <ele>30.9</ele>
    <time>2023-06-09T07:44:41Z</time>
   </trkpt>
   <trkpt lat="51.5732270" lon="-0.0832530">
    <ele>30.9</ele>
    <time>2023-06-09T07:44:42Z</time>
   </trkpt>
   <trkpt lat="51.5732180" lon="-0.0832410">
    <ele>30.8</ele>
    <time>2023-06-09T07:44:43Z</time>
   </trkpt>
   <trkpt lat="51.5731860" lon="-0.0832280">
    <ele>30.8</ele>
    <time>2023-06-09T07:44:44Z</time>
   </trkpt>
   <trkpt lat="51.5731750" lon="-0.0832240">
    <ele>30.8</ele>
    <time>2023-06-09T07:44:45Z</time>
   </trkpt>
   <trkpt lat="51.5731420" lon="-0.0832160">
    <ele>30.7</ele>
    <time>2023-06-09T07:44:46Z</time>
   </trkpt>
   <trkpt lat="51.5731300" lon="-0.0832170">
    <ele>30.7</ele>
    <time>2023-06-09T07:44:47Z</time>
   </trkpt>
   <trkpt lat="51.5730920" lon="-0.0832000">
    <ele>30.6</ele>
    <time>2023-06-09T07:44:48Z</time>
   </trkpt>
   <trkpt lat="51.5730780" lon="-0.0831890">
    <ele>30.6</ele>
    <time>2023-06-09T07:44:49Z</time>
   </trkpt>
   <trkpt lat="51.5730410" lon="-0.0831840">
    <ele>30.5</ele>
    <time>2023-06-09T07:44:50Z</time>
   </trkpt>
   <trkpt lat="51.5730210" lon="-0.0831510">
    <ele>30.5</ele>
    <time>2023-06-09T07:44:51Z</time>
   </trkpt>
   <trkpt lat="51.5729860" lon="-0.0831610">
    <ele>30.4</ele>
    <time>2023-06-09T07:44:52Z</time>
   </trkpt>
   <trkpt lat="51.5729400" lon="-0.0831220">
    <ele>30.3</ele>
    <time>2023-06-09T07:44:53Z</time>
   </trkpt>
   <trkpt lat="51.5729080" lon="-0.0830920">
    <ele>30.2</ele>
    <time>2023-06-09T07:44:54Z</time>
   </trkpt>
   <trkpt lat="51.5728990" lon="-0.0830810">
    <ele>30.2</ele>
    <time>2023-06-09T07:44:55Z</time>
   </trkpt>
   <trkpt lat="51.5728620" lon="-0.0830520">
    <ele>30.1</ele>
    <time>2023-06-09T07:44:56Z</time>
   </trkpt>
   <trkpt lat="51.5728460" lon="-0.0830400">
    <ele>30.1</ele>
    <time>2023-06-09T07:44:57Z</time>
   </trkpt>
   <trkpt lat="51.5728130" lon="-0.0830370">
    <ele>30.0</ele>
    <time>2023-06-09T07:44:58Z</time>
   </trkpt>
   <trkpt lat="51.5727880" lon="-0.0829980">
    <ele>29.9</ele>
    <time>2023-06-09T07:44:59Z</time>
   </trkpt>
   <trkpt lat="51.5727650" lon="-0.0829610">
    <ele>29.9</ele>
    <time>2023-06-09T07:45:00Z</time>
   </trkpt>
   <trkpt lat="51.5727430" lon="-0.0829350">
    <ele>29.8</ele>
    <time>2023-06-09T07:45:01Z</time>
   </trkpt>
   <trkpt lat="51.5727180" lon="-0.0829020">
    <ele>29.7</ele>
    <time>2023-06-09T07:45:02Z</time>
   </trkpt>
   <trkpt lat="51.5727090" lon="-0.0828890">
    <ele>29.7</ele>
    <time>2023-06-09T07:45:03Z</time>
   </trkpt>
   <trkpt lat="51.5726890" lon="-0.0828620">
    <ele>29.6</ele>
    <time>2023-06-09T07:45:04Z</time>
   </trkpt>
   <trkpt lat="51.5726770" lon="-0.0828510">
    <ele>29.5</ele>
    <time>2023-06-09T07:45:05Z</time>
   </trkpt>
   <trkpt lat="51.5726420" lon="-0.0828490">
    <ele>29.4</ele>
    <time>2023-06-09T07:45:06Z</time>
   </trkpt>
   <trkpt lat="51.5726120" lon="-0.0828260">
    <ele>29.4</ele>
    <time>2023-06-09T07:45:07Z</time>
   </trkpt>
   <trkpt lat="51.5726000" lon="-0.0828290">
    <ele>29.3</ele>
    <time>2023-06-09T07:45:08Z</time>
   </trkpt>
   <trkpt lat="51.5725780" lon="-0.0827860">
    <ele>29.2</ele>
    <time>2023-06-09T07:45:09Z</time>
   </trkpt>
   <trkpt lat="51.5725660" lon="-0.0827740">
    <ele>29.2</ele>
    <time>2023-06-09T07:45:10Z</time>
   </trkpt>
   <trkpt lat="51.5725370" lon="-0.0827580">
    <ele>29.1</ele>
    <time>2023-06-09T07:45:11Z</time>
   </trkpt>
   <trkpt lat="51.5725250" lon="-0.0827400">
    <ele>29.0</ele>
    <time>2023-06-09T07:45:12Z</time>
   </trkpt>
   <trkpt lat="51.5724990" lon="-0.0827180">
    <ele>29.0</ele>
    <time>2023-06-09T07:45:13Z</time>
   </trkpt>
   <trkpt lat="51.5724680" lon="-0.0827030">
    <ele>28.9</ele>
    <time>2023-06-09T07:45:14Z</time>
   </trkpt>
   <trkpt lat="51.5724380" lon="-0.0826880">
    <ele>28.8</ele>
    <time>2023-06-09T07:45:15Z</time>
   </trkpt>
   <trkpt lat="51.5724050" lon="-0.0826760">
    <ele>28.7</ele>
    <time>2023-06-09T07:45:16Z</time>
   </trkpt>
   <trkpt lat="51.5723790" lon="-0.0826570">
    <ele>28.6</ele>
    <time>2023-06-09T07:45:17Z</time>
   </trkpt>
   <trkpt lat="51.5723500" lon="-0.0826250">
    <ele>28.5</ele>
    <time>2023-06-09T07:45:18Z</time>
   </trkpt>
   <trkpt lat="51.5723380" lon="-0.0826110">
    <ele>28.4</ele>
    <time>2023-06-09T07:45:19Z</time>
   </trkpt>
   <trkpt lat="51.5723100" lon="-0.0825730">
    <ele>28.3</ele>
    <time>2023-06-09T07:45:20Z</time>
   </trkpt>
   <trkpt lat="51.5722860" lon="-0.0825410">
    <ele>28.2</ele>
    <time>2023-06-09T07:45:21Z</time>
   </trkpt>
   <trkpt lat="51.5722610" lon="-0.0825200">
    <ele>28.1</ele>
    <time>2023-06-09T07:45:22Z</time>
   </trkpt>
   <trkpt lat="51.5722290" lon="-0.0824900">
    <ele>28.0</ele>
    <time>2023-06-09T07:45:23Z</time>
   </trkpt>
   <trkpt lat="51.5722050" lon="-0.0824600">
    <ele>27.9</ele>
    <time>2023-06-09T07:45:24Z</time>
   </trkpt>
   <trkpt lat="51.5721780" lon="-0.0824330">
    <ele>27.8</ele>
    <time>2023-06-09T07:45:25Z</time>
   </trkpt>
   <trkpt lat="51.5721670" lon="-0.0824220">
    <ele>27.8</ele>
    <time>2023-06-09T07:45:26Z</time>
   </trkpt>
   <trkpt lat="51.5721380" lon="-0.0823890">
    <ele>27.7</ele>
    <time>2023-06-09T07:45:27Z</time>
   </trkpt>
   <trkpt lat="51.5721290" lon="-0.0823770">
    <ele>27.7</ele>
    <time>2023-06-09T07:45:28Z</time>
   </trkpt>
   <trkpt lat="51.5721010" lon="-0.0823720">
    <ele>27.6</ele>
    <time>2023-06-09T07:45:29Z</time>
   </trkpt>
   <trkpt lat="51.5720690" lon="-0.0823590">
    <ele>27.5</ele>
    <time>2023-06-09T07:45:30Z</time>
   </trkpt>
   <trkpt lat="51.5720560" lon="-0.0823550">
    <ele>27.5</ele>
    <time>2023-06-09T07:45:31Z</time>
   </trkpt>
   <trkpt lat="51.5720220" lon="-0.0823240">
    <ele>27.3</ele>
    <time>2023-06-09T07:45:32Z</time>
   </trkpt>
   <trkpt lat="51.5720100" lon="-0.0823180">
    <ele>27.3</ele>
    <time>2023-06-09T07:45:33Z</time>
   </trkpt>
   <trkpt lat="51.5719810" lon="-0.0822990">
    <ele>27.2</ele>
    <time>2023-06-09T07:45:34Z</time>
   </trkpt>
   <trkpt lat="51.5719470" lon="-0.0822780">
    <ele>27.1</ele>
    <time>2023-06-09T07:45:35Z</time>
   </trkpt>
   <trkpt lat="51.5719360" lon="-0.0822700">
    <ele>27.1</ele>
    <time>2023-06-09T07:45:36Z</time>
   </trkpt>
   <trkpt lat="51.5719070" lon="-0.0822480">
    <ele>27.0</ele>
    <time>2023-06-09T07:45:37Z</time>
   </trkpt>
   <trkpt lat="51.5718760" lon="-0.0822190">
    <ele>26.9</ele>
    <time>2023-06-09T07:45:38Z</time>
   </trkpt>
   <trkpt lat="51.5718470" lon="-0.0822020">
    <ele>26.8</ele>
    <time>2023-06-09T07:45:39Z</time>
   </trkpt>
   <trkpt lat="51.5718280" lon="-0.0821620">
    <ele>26.7</ele>
    <time>2023-06-09T07:45:40Z</time>
   </trkpt>
   <trkpt lat="51.5717940" lon="-0.0821580">
    <ele>26.6</ele>
    <time>2023-06-09T07:45:41Z</time>
   </trkpt>
   <trkpt lat="51.5717660" lon="-0.0821080">
    <ele>26.5</ele>
    <time>2023-06-09T07:45:42Z</time>
   </trkpt>
   <trkpt lat="51.5717460" lon="-0.0820860">
    <ele>26.5</ele>
    <time>2023-06-09T07:45:43Z</time>
   </trkpt>
   <trkpt lat="51.5717130" lon="-0.0820540">
    <ele>26.4</ele>
    <time>2023-06-09T07:45:44Z</time>
   </trkpt>
   <trkpt lat="51.5716800" lon="-0.0820270">
    <ele>26.3</ele>
    <time>2023-06-09T07:45:45Z</time>
   </trkpt>
   <trkpt lat="51.5716490" lon="-0.0819980">
    <ele>26.2</ele>
    <time>2023-06-09T07:45:46Z</time>
   </trkpt>
   <trkpt lat="51.5716240" lon="-0.0819660">
    <ele>26.1</ele>
    <time>2023-06-09T07:45:47Z</time>
   </trkpt>
   <trkpt lat="51.5716010" lon="-0.0819080">
    <ele>26.0</ele>
    <time>2023-06-09T07:45:48Z</time>
   </trkpt>
   <trkpt lat="51.5715910" lon="-0.0818890">
    <ele>26.0</ele>
    <time>2023-06-09T07:45:49Z</time>
   </trkpt>
   <trkpt lat="51.5715590" lon="-0.0818720">
    <ele>25.9</ele>
    <time>2023-06-09T07:45:51Z</time>
   </trkpt>
   <trkpt lat="51.5715280" lon="-0.0818530">
    <ele>25.9</ele>
    <time>2023-06-09T07:45:52Z</time>
   </trkpt>
   <trkpt lat="51.5715000" lon="-0.0818340">
    <ele>25.8</ele>
    <time>2023-06-09T07:45:53Z</time>
   </trkpt>
   <trkpt lat="51.5714650" lon="-0.0818300">
    <ele>25.8</ele>
    <time>2023-06-09T07:45:54Z</time>
   </trkpt>
   <trkpt lat="51.5714370" lon="-0.0818120">
    <ele>25.7</ele>
    <time>2023-06-09T07:45:55Z</time>
   </trkpt>
   <trkpt lat="51.5714160" lon="-0.0817790">
    <ele>25.6</ele>
    <time>2023-06-09T07:45:56Z</time>
   </trkpt>
   <trkpt lat="51.5713810" lon="-0.0817430">
    <ele>25.6</ele>
    <time>2023-06-09T07:45:57Z</time>
   </trkpt>
   <trkpt lat="51.5713650" lon="-0.0817340">
    <ele>25.5</ele>
    <time>2023-06-09T07:45:58Z</time>
   </trkpt>
   <trkpt lat="51.5713380" lon="-0.0817150">
    <ele>25.5</ele>
    <time>2023-06-09T07:45:59Z</time>
   </trkpt>
   <trkpt lat="51.5713040" lon="-0.0816800">
    <ele>25.4</ele>
    <time>2023-06-09T07:46:00Z</time>
   </trkpt>
   <trkpt lat="51.5712930" lon="-0.0816650">
    <ele>25.4</ele>
    <time>2023-06-09T07:46:01Z</time>
   </trkpt>
   <trkpt lat="51.5712630" lon="-0.0816280">
    <ele>25.4</ele>
    <time>2023-06-09T07:46:02Z</time>
   </trkpt>
   <trkpt lat="51.5712540" lon="-0.0816170">
    <ele>25.3</ele>
    <time>2023-06-09T07:46:03Z</time>
   </trkpt>
   <trkpt lat="51.5712260" lon="-0.0815960">
    <ele>25.3</ele>
    <time>2023-06-09T07:46:04Z</time>
   </trkpt>
   <trkpt lat="51.5711920" lon="-0.0815600">
    <ele>25.2</ele>
    <time>2023-06-09T07:46:05Z</time>
   </trkpt>
   <trkpt lat="51.5711790" lon="-0.0815500">
    <ele>25.2</ele>
    <time>2023-06-09T07:46:06Z</time>
   </trkpt>
   <trkpt lat="51.5711550" lon="-0.0815260">
    <ele>25.2</ele>
    <time>2023-06-09T07:46:07Z</time>
   </trkpt>
   <trkpt lat="51.5711290" lon="-0.0815010">
    <ele>25.1</ele>
    <time>2023-06-09T07:46:08Z</time>
   </trkpt>
   <trkpt lat="51.5711010" lon="-0.0814890">
    <ele>25.1</ele>
    <time>2023-06-09T07:46:09Z</time>
   </trkpt>
   <trkpt lat="51.5710770" lon="-0.0814570">
    <ele>25.0</ele>
    <time>2023-06-09T07:46:10Z</time>
   </trkpt>
   <trkpt lat="51.5710550" lon="-0.0814250">
    <ele>25.0</ele>
    <time>2023-06-09T07:46:11Z</time>
   </trkpt>
   <trkpt lat="51.5710270" lon="-0.0814090">
    <ele>24.9</ele>
    <time>2023-06-09T07:46:12Z</time>
   </trkpt>
   <trkpt lat="51.5709760" lon="-0.0813700">
    <ele>24.8</ele>
    <time>2023-06-09T07:46:13Z</time>
   </trkpt>
   <trkpt lat="51.5709560" lon="-0.0813390">
    <ele>24.8</ele>
    <time>2023-06-09T07:46:14Z</time>
   </trkpt>
   <trkpt lat="51.5709200" lon="-0.0813240">
    <ele>24.7</ele>
    <time>2023-06-09T07:46:15Z</time>
   </trkpt>
   <trkpt lat="51.5709100" lon="-0.0813170">
    <ele>24.7</ele>
    <time>2023-06-09T07:46:16Z</time>
   </trkpt>
   <trkpt lat="51.5708840" lon="-0.0812890">
    <ele>24.6</ele>
    <time>2023-06-09T07:46:17Z</time>
   </trkpt>
   <trkpt lat="51.5708500" lon="-0.0812560">
    <ele>24.6</ele>
    <time>2023-06-09T07:46:18Z</time>
   </trkpt>
   <trkpt lat="51.5708400" lon="-0.0812430">
    <ele>24.5</ele>
    <time>2023-06-09T07:46:19Z</time>
   </trkpt>
   <trkpt lat="51.5708130" lon="-0.0812270">
    <ele>24.5</ele>
    <time>2023-06-09T07:46:20Z</time>
   </trkpt>
   <trkpt lat="51.5707800" lon="-0.0811970">
    <ele>24.4</ele>
    <time>2023-06-09T07:46:21Z</time>
   </trkpt>
   <trkpt lat="51.5707690" lon="-0.0811910">
    <ele>24.4</ele>
    <time>2023-06-09T07:46:22Z</time>
   </trkpt>
   <trkpt lat="51.5707330" lon="-0.0811730">
    <ele>24.4</ele>
    <time>2023-06-09T07:46:23Z</time>
   </trkpt>
   <trkpt lat="51.5707060" lon="-0.0811330">
    <ele>24.3</ele>
    <time>2023-06-09T07:46:24Z</time>
   </trkpt>
   <trkpt lat="51.5706960" lon="-0.0811220">
    <ele>24.3</ele>
    <time>2023-06-09T07:46:25Z</time>
   </trkpt>
   <trkpt lat="51.5706660" lon="-0.0810880">
    <ele>24.2</ele>
    <time>2023-06-09T07:46:26Z</time>
   </trkpt>
   <trkpt lat="51.5706550" lon="-0.0810740">
    <ele>24.2</ele>
    <time>2023-06-09T07:46:27Z</time>
   </trkpt>
   <trkpt lat="51.5706260" lon="-0.0810470">
    <ele>24.2</ele>
    <time>2023-06-09T07:46:28Z</time>
   </trkpt>
   <trkpt lat="51.5705980" lon="-0.0810290">
    <ele>24.2</ele>
    <time>2023-06-09T07:46:29Z</time>
   </trkpt>
   <trkpt lat="51.5705730" lon="-0.0810130">
    <ele>24.1</ele>
    <time>2023-06-09T07:46:30Z</time>
   </trkpt>
   <trkpt lat="51.5705520" lon="-0.0809720">
    <ele>24.1</ele>
    <time>2023-06-09T07:46:31Z</time>
   </trkpt>
   <trkpt lat="51.5705260" lon="-0.0809440">
    <ele>24.1</ele>
    <time>2023-06-09T07:46:32Z</time>
   </trkpt>
   <trkpt lat="51.5704960" lon="-0.0809260">
    <ele>24.1</ele>
    <time>2023-06-09T07:46:33Z</time>
   </trkpt>
   <trkpt lat="51.5704620" lon="-0.0809110">
    <ele>24.0</ele>
    <time>2023-06-09T07:46:34Z</time>
   </trkpt>
   <trkpt lat="51.5704370" lon="-0.0808760">
    <ele>24.0</ele>
    <time>2023-06-09T07:46:35Z</time>
   </trkpt>
   <trkpt lat="51.5704190" lon="-0.0808390">
    <ele>24.0</ele>
    <time>2023-06-09T07:46:36Z</time>
   </trkpt>
   <trkpt lat="51.5703980" lon="-0.0808110">
    <ele>24.0</ele>
    <time>2023-06-09T07:46:37Z</time>
   </trkpt>
   <trkpt lat="51.5703700" lon="-0.0807820">
    <ele>24.0</ele>
    <time>2023-06-09T07:46:38Z</time>
   </trkpt>
   <trkpt lat="51.5703460" lon="-0.0807720">
    <ele>23.9</ele>
    <time>2023-06-09T07:46:39Z</time>
   </trkpt>
   <trkpt lat="51.5703390" lon="-0.0807800">
    <ele>23.9</ele>
    <time>2023-06-09T07:46:40Z</time>
   </trkpt>
   <trkpt lat="51.5703320" lon="-0.0807920">
    <ele>23.9</ele>
    <time>2023-06-09T07:46:41Z</time>
   </trkpt>
   <trkpt lat="51.5703310" lon="-0.0808050">
    <ele>23.9</ele>
    <time>2023-06-09T07:46:42Z</time>
   </trkpt>
   <trkpt lat="51.5703260" lon="-0.0808210">
    <ele>23.9</ele>
    <time>2023-06-09T07:46:43Z</time>
   </trkpt>
   <trkpt lat="51.5703260" lon="-0.0808390">
    <ele>23.9</ele>
    <time>2023-06-09T07:46:44Z</time>
   </trkpt>
   <trkpt lat="51.5703110" lon="-0.0808320">
    <ele>23.9</ele>
    <time>2023-06-09T07:46:45Z</time>
   </trkpt>
   <trkpt lat="51.5703110" lon="-0.0808180">
    <ele>23.9</ele>
    <time>2023-06-09T07:46:46Z</time>
   </trkpt>
   <trkpt lat="51.5703090" lon="-0.0807850">
    <ele>23.9</ele>
    <time>2023-06-09T07:46:47Z</time>
   </trkpt>
   <trkpt lat="51.5703020" lon="-0.0807110">
    <ele>23.9</ele>
    <time>2023-06-09T07:46:48Z</time>
   </trkpt>
   <trkpt lat="51.5703120" lon="-0.0806270">
    <ele>23.9</ele>
    <time>2023-06-09T07:46:49Z</time>
   </trkpt>
   <trkpt lat="51.5703090" lon="-0.0805630">
    <ele>23.8</ele>
    <time>2023-06-09T07:46:50Z</time>
   </trkpt>
   <trkpt lat="51.5702580" lon="-0.0805780">
    <ele>23.7</ele>
    <time>2023-06-09T07:46:51Z</time>
   </trkpt>
   <trkpt lat="51.5702270" lon="-0.0805970">
    <ele>23.6</ele>
    <time>2023-06-09T07:46:52Z</time>
   </trkpt>
   <trkpt lat="51.5701850" lon="-0.0806240">
    <ele>23.6</ele>
    <time>2023-06-09T07:46:53Z</time>
   </trkpt>
   <trkpt lat="51.5701540" lon="-0.0806190">
    <ele>23.5</ele>
    <time>2023-06-09T07:46:54Z</time>
   </trkpt>
   <trkpt lat="51.5701490" lon="-0.0805540">
    <ele>23.4</ele>
    <time>2023-06-09T07:46:55Z</time>
   </trkpt>
   <trkpt lat="51.5701270" lon="-0.0805270">
    <ele>23.4</ele>
    <time>2023-06-09T07:46:56Z</time>
   </trkpt>
   <trkpt lat="51.5700970" lon="-0.0805060">
    <ele>23.4</ele>
    <time>2023-06-09T07:46:57Z</time>
   </trkpt>
   <trkpt lat="51.5700710" lon="-0.0804750">
    <ele>23.3</ele>
    <time>2023-06-09T07:46:58Z</time>
   </trkpt>
   <trkpt lat="51.5700450" lon="-0.0804500">
    <ele>23.3</ele>
    <time>2023-06-09T07:46:59Z</time>
   </trkpt>
   <trkpt lat="51.5700170" lon="-0.0804280">
    <ele>23.3</ele>
    <time>2023-06-09T07:47:00Z</time>
   </trkpt>
   <trkpt lat="51.5699930" lon="-0.0804020">
    <ele>23.3</ele>
    <time>2023-06-09T07:47:01Z</time>
   </trkpt>
   <trkpt lat="51.5699630" lon="-0.0803690">
    <ele>23.2</ele>
    <time>2023-06-09T07:47:02Z</time>
   </trkpt>
   <trkpt lat="51.5699510" lon="-0.0803570">
    <ele>23.2</ele>
    <time>2023-06-09T07:47:03Z</time>
   </trkpt>
   <trkpt lat="51.5699180" lon="-0.0803330">
    <ele>23.2</ele>
    <time>2023-06-09T07:47:04Z</time>
   </trkpt>
   <trkpt lat="51.5699070" lon="-0.0803240">
    <ele>23.2</ele>
    <time>2023-06-09T07:47:05Z</time>
   </trkpt>
   <trkpt lat="51.5698760" lon="-0.0803050">
    <ele>23.2</ele>
    <time>2023-06-09T07:47:06Z</time>
   </trkpt>
   <trkpt lat="51.5698480" lon="-0.0802530">
    <ele>23.2</ele>
    <time>2023-06-09T07:47:08Z</time>
   </trkpt>
   <trkpt lat="51.5698400" lon="-0.0802260">
    <ele>23.1</ele>
    <time>2023-06-09T07:47:09Z</time>
   </trkpt>
   <trkpt lat="51.5698200" lon="-0.0801790">
    <ele>23.1</ele>
    <time>2023-06-09T07:47:10Z</time>
   </trkpt>
   <trkpt lat="51.5697810" lon="-0.0801600">
    <ele>23.1</ele>
    <time>2023-06-09T07:47:11Z</time>
   </trkpt>
   <trkpt lat="51.5697650" lon="-0.0801640">
    <ele>23.1</ele>
    <time>2023-06-09T07:47:12Z</time>
   </trkpt>
   <trkpt lat="51.5697240" lon="-0.0801710">
    <ele>23.1</ele>
    <time>2023-06-09T07:47:13Z</time>
   </trkpt>
   <trkpt lat="51.5696900" lon="-0.0801570">
    <ele>23.1</ele>
    <time>2023-06-09T07:47:14Z</time>
   </trkpt>
   <trkpt lat="51.5696770" lon="-0.0801060">
    <ele>23.0</ele>
    <time>2023-06-09T07:47:15Z</time>
   </trkpt>
   <trkpt lat="51.5696600" lon="-0.0800710">
    <ele>23.0</ele>
    <time>2023-06-09T07:47:16Z</time>
   </trkpt>
   <trkpt lat="51.5696270" lon="-0.0800350">
    <ele>23.0</ele>
    <time>2023-06-09T07:47:17Z</time>
   </trkpt>
   <trkpt lat="51.5696100" lon="-0.0800290">
    <ele>23.0</ele>
    <time>2023-06-09T07:47:18Z</time>
   </trkpt>
   <trkpt lat="51.5695840" lon="-0.0800060">
    <ele>23.0</ele>
    <time>2023-06-09T07:47:19Z</time>
   </trkpt>
   <trkpt lat="51.5695590" lon="-0.0799840">
    <ele>23.0</ele>
    <time>2023-06-09T07:47:20Z</time>
   </trkpt>
   <trkpt lat="51.5695220" lon="-0.0799490">
    <ele>23.0</ele>
    <time>2023-06-09T07:47:21Z</time>
   </trkpt>
   <trkpt lat="51.5695090" lon="-0.0799340">
    <ele>23.0</ele>
    <time>2023-06-09T07:47:22Z</time>
   </trkpt>
   <trkpt lat="51.5694800" lon="-0.0799140">
    <ele>23.0</ele>
    <time>2023-06-09T07:47:23Z</time>
   </trkpt>
   <trkpt lat="51.5694550" lon="-0.0798940">
    <ele>22.9</ele>
    <time>2023-06-09T07:47:24Z</time>
   </trkpt>
   <trkpt lat="51.5694200" lon="-0.0798580">
    <ele>22.9</ele>
    <time>2023-06-09T07:47:25Z</time>
   </trkpt>
   <trkpt lat="51.5694070" lon="-0.0798490">
    <ele>22.9</ele>
    <time>2023-06-09T07:47:26Z</time>
   </trkpt>
   <trkpt lat="51.5693800" lon="-0.0798340">
    <ele>22.9</ele>
    <time>2023-06-09T07:47:27Z</time>
   </trkpt>
   <trkpt lat="51.5693560" lon="-0.0798110">
    <ele>22.9</ele>
    <time>2023-06-09T07:47:28Z</time>
   </trkpt>
   <trkpt lat="51.5693290" lon="-0.0797940">
    <ele>22.9</ele>
    <time>2023-06-09T07:47:29Z</time>
   </trkpt>
   <trkpt lat="51.5693030" lon="-0.0797780">
    <ele>22.9</ele>
    <time>2023-06-09T07:47:30Z</time>
   </trkpt>
   <trkpt lat="51.5692730" lon="-0.0797600">
    <ele>22.9</ele>
    <time>2023-06-09T07:47:31Z</time>
   </trkpt>
   <trkpt lat="51.5692400" lon="-0.0797370">
    <ele>22.9</ele>
    <time>2023-06-09T07:47:32Z</time>
   </trkpt>
   <trkpt lat="51.5692130" lon="-0.0797220">
    <ele>22.9</ele>
    <time>2023-06-09T07:47:33Z</time>
   </trkpt>
   <trkpt lat="51.5691780" lon="-0.0796910">
    <ele>22.9</ele>
    <time>2023-06-09T07:47:34Z</time>
   </trkpt>
   <trkpt lat="51.5691650" lon="-0.0796830">
    <ele>22.9</ele>
    <time>2023-06-09T07:47:35Z</time>
   </trkpt>
   <trkpt lat="51.5691410" lon="-0.0796630">
    <ele>22.8</ele>
    <time>2023-06-09T07:47:36Z</time>
   </trkpt>
   <trkpt lat="51.5691170" lon="-0.0796420">
    <ele>22.8</ele>
    <time>2023-06-09T07:47:37Z</time>
   </trkpt>
   <trkpt lat="51.5690920" lon="-0.0796220">
    <ele>22.8</ele>
    <time>2023-06-09T07:47:38Z</time>
   </trkpt>
   <trkpt lat="51.5690670" lon="-0.0795960">
    <ele>22.8</ele>
    <time>2023-06-09T07:47:39Z</time>
   </trkpt>
   <trkpt lat="51.5690420" lon="-0.0795750">
    <ele>22.8</ele>
    <time>2023-06-09T07:47:40Z</time>
   </trkpt>
   <trkpt lat="51.5690120" lon="-0.0795650">
    <ele>22.8</ele>
    <time>2023-06-09T07:47:41Z</time>
   </trkpt>
   <trkpt lat="51.5689840" lon="-0.0795450">
    <ele>22.7</ele>
    <time>2023-06-09T07:47:42Z</time>
   </trkpt>
   <trkpt lat="51.5689570" lon="-0.0795270">
    <ele>22.7</ele>
    <time>2023-06-09T07:47:43Z</time>
   </trkpt>
   <trkpt lat="51.5689320" lon="-0.0795090">
    <ele>22.7</ele>
    <time>2023-06-09T07:47:44Z</time>
   </trkpt>
   <trkpt lat="51.5689070" lon="-0.0794900">
    <ele>22.7</ele>
    <time>2023-06-09T07:47:45Z</time>
   </trkpt>
   <trkpt lat="51.5688770" lon="-0.0794820">
    <ele>22.7</ele>
    <time>2023-06-09T07:47:46Z</time>
   </trkpt>
   <trkpt lat="51.5688410" lon="-0.0794570">
    <ele>22.7</ele>
    <time>2023-06-09T07:47:47Z</time>
   </trkpt>
   <trkpt lat="51.5688290" lon="-0.0794490">
    <ele>22.7</ele>
    <time>2023-06-09T07:47:48Z</time>
   </trkpt>
   <trkpt lat="51.5688060" lon="-0.0794260">
    <ele>22.6</ele>
    <time>2023-06-09T07:47:49Z</time>
   </trkpt>
   <trkpt lat="51.5687660" lon="-0.0793980">
    <ele>22.6</ele>
    <time>2023-06-09T07:47:50Z</time>
   </trkpt>
   <trkpt lat="51.5687490" lon="-0.0793880">
    <ele>22.6</ele>
    <time>2023-06-09T07:47:51Z</time>
   </trkpt>
   <trkpt lat="51.5687200" lon="-0.0793730">
    <ele>22.6</ele>
    <time>2023-06-09T07:47:52Z</time>
   </trkpt>
   <trkpt lat="51.5686940" lon="-0.0793490">
    <ele>22.6</ele>
    <time>2023-06-09T07:47:53Z</time>
   </trkpt>
   <trkpt lat="51.5686640" lon="-0.0793380">
    <ele>22.6</ele>
    <time>2023-06-09T07:47:54Z</time>
   </trkpt>
   <trkpt lat="51.5686380" lon="-0.0793260">
    <ele>22.6</ele>
    <time>2023-06-09T07:47:55Z</time>
   </trkpt>
   <trkpt lat="51.5685990" lon="-0.0793040">
    <ele>22.5</ele>
    <time>2023-06-09T07:47:56Z</time>
   </trkpt>
   <trkpt lat="51.5685860" lon="-0.0792940">
    <ele>22.5</ele>
    <time>2023-06-09T07:47:57Z</time>
   </trkpt>
   <trkpt lat="51.5685580" lon="-0.0792790">
    <ele>22.5</ele>
    <time>2023-06-09T07:47:58Z</time>
   </trkpt>
   <trkpt lat="51.5685300" lon="-0.0792620">
    <ele>22.5</ele>
    <time>2023-06-09T07:47:59Z</time>
   </trkpt>
   <trkpt lat="51.5685040" lon="-0.0792430">
    <ele>22.5</ele>
    <time>2023-06-09T07:48:00Z</time>
   </trkpt>
   <trkpt lat="51.5684780" lon="-0.0792260">
    <ele>22.5</ele>
    <time>2023-06-09T07:48:01Z</time>
   </trkpt>
   <trkpt lat="51.5684490" lon="-0.0792050">
    <ele>22.5</ele>
    <time>2023-06-09T07:48:02Z</time>
   </trkpt>
   <trkpt lat="51.5684170" lon="-0.0791800">
    <ele>22.4</ele>
    <time>2023-06-09T07:48:03Z</time>
   </trkpt>
   <trkpt lat="51.5684050" lon="-0.0791740">
    <ele>22.4</ele>
    <time>2023-06-09T07:48:04Z</time>
   </trkpt>
   <trkpt lat="51.5683780" lon="-0.0791540">
    <ele>22.4</ele>
    <time>2023-06-09T07:48:05Z</time>
   </trkpt>
   <trkpt lat="51.5683510" lon="-0.0791360">
    <ele>22.4</ele>
    <time>2023-06-09T07:48:06Z</time>
   </trkpt>
   <trkpt lat="51.5683250" lon="-0.0791180">
    <ele>22.4</ele>
    <time>2023-06-09T07:48:07Z</time>
   </trkpt>
   <trkpt lat="51.5682970" lon="-0.0791060">
    <ele>22.3</ele>
    <time>2023-06-09T07:48:08Z</time>
   </trkpt>
   <trkpt lat="51.5682720" lon="-0.0790830">
    <ele>22.3</ele>
    <time>2023-06-09T07:48:09Z</time>
   </trkpt>
   <trkpt lat="51.5682460" lon="-0.0790650">
    <ele>22.3</ele>
    <time>2023-06-09T07:48:10Z</time>
   </trkpt>
   <trkpt lat="51.5682200" lon="-0.0790490">
    <ele>22.3</ele>
    <time>2023-06-09T07:48:11Z</time>
   </trkpt>
   <trkpt lat="51.5681930" lon="-0.0790330">
    <ele>22.3</ele>
    <time>2023-06-09T07:48:12Z</time>
   </trkpt>
   <trkpt lat="51.5681670" lon="-0.0790170">
    <ele>22.2</ele>
    <time>2023-06-09T07:48:13Z</time>
   </trkpt>
   <trkpt lat="51.5681370" lon="-0.0790030">
    <ele>22.2</ele>
    <time>2023-06-09T07:48:14Z</time>
   </trkpt>
   <trkpt lat="51.5680980" lon="-0.0789780">
    <ele>22.2</ele>
    <time>2023-06-09T07:48:15Z</time>
   </trkpt>
   <trkpt lat="51.5680840" lon="-0.0789680">
    <ele>22.2</ele>
    <time>2023-06-09T07:48:16Z</time>
   </trkpt>
   <trkpt lat="51.5680490" lon="-0.0789460">
    <ele>22.1</ele>
    <time>2023-06-09T07:48:17Z</time>
   </trkpt>
   <trkpt lat="51.5680380" lon="-0.0789390">
    <ele>22.1</ele>
    <time>2023-06-09T07:48:18Z</time>
   </trkpt>
   <trkpt lat="51.5679770" lon="-0.0789050">
    <ele>22.1</ele>
    <time>2023-06-09T07:48:19Z</time>
   </trkpt>
   <trkpt lat="51.5679470" lon="-0.0788870">
    <ele>22.1</ele>
    <time>2023-06-09T07:48:20Z</time>
   </trkpt>
   <trkpt lat="51.5679140" lon="-0.0788700">
    <ele>22.1</ele>
    <time>2023-06-09T07:48:21Z</time>
   </trkpt>
   <trkpt lat="51.5678800" lon="-0.0788510">
    <ele>22.1</ele>
    <time>2023-06-09T07:48:22Z</time>
   </trkpt>
   <trkpt lat="51.5678680" lon="-0.0788430">
    <ele>22.1</ele>
    <time>2023-06-09T07:48:23Z</time>
   </trkpt>
   <trkpt lat="51.5678360" lon="-0.0788220">
    <ele>22.1</ele>
    <time>2023-06-09T07:48:24Z</time>
   </trkpt>
   <trkpt lat="51.5677970" lon="-0.0787980">
    <ele>22.1</ele>
    <time>2023-06-09T07:48:25Z</time>
   </trkpt>
   <trkpt lat="51.5677830" lon="-0.0787890">
    <ele>22.1</ele>
    <time>2023-06-09T07:48:26Z</time>
   </trkpt>
   <trkpt lat="51.5677460" lon="-0.0787700">
    <ele>22.1</ele>
    <time>2023-06-09T07:48:27Z</time>
   </trkpt>
   <trkpt lat="51.5677330" lon="-0.0787630">
    <ele>22.1</ele>
    <time>2023-06-09T07:48:28Z</time>
   </trkpt>
   <trkpt lat="51.5677050" lon="-0.0787430">
    <ele>22.1</ele>
    <time>2023-06-09T07:48:29Z</time>
   </trkpt>
   <trkpt lat="51.5676790" lon="-0.0787230">
    <ele>22.1</ele>
    <time>2023-06-09T07:48:30Z</time>
   </trkpt>
   <trkpt lat="51.5676460" lon="-0.0786920">
    <ele>22.1</ele>
    <time>2023-06-09T07:48:31Z</time>
   </trkpt>
   <trkpt lat="51.5676340" lon="-0.0786830">
    <ele>22.1</ele>
    <time>2023-06-09T07:48:32Z</time>
   </trkpt>
   <trkpt lat="51.5675990" lon="-0.0786610">
    <ele>22.1</ele>
    <time>2023-06-09T07:48:33Z</time>
   </trkpt>
   <trkpt lat="51.5675870" lon="-0.0786550">
    <ele>22.1</ele>
    <time>2023-06-09T07:48:34Z</time>
   </trkpt>
   <trkpt lat="51.5675610" lon="-0.0786360">
    <ele>22.1</ele>
    <time>2023-06-09T07:48:35Z</time>
   </trkpt>
   <trkpt lat="51.5675360" lon="-0.0786150">
    <ele>22.1</ele>
    <time>2023-06-09T07:48:36Z</time>
   </trkpt>
   <trkpt lat="51.5675010" lon="-0.0785920">
    <ele>22.1</ele>
    <time>2023-06-09T07:48:37Z</time>
   </trkpt>
   <trkpt lat="51.5674880" lon="-0.0785850">
    <ele>22.1</ele>
    <time>2023-06-09T07:48:38Z</time>
   </trkpt>
   <trkpt lat="51.5674540" lon="-0.0785530">
    <ele>22.1</ele>
    <time>2023-06-09T07:48:39Z</time>
   </trkpt>
   <trkpt lat="51.5674420" lon="-0.0785420">
    <ele>22.1</ele>
    <time>2023-06-09T07:48:40Z</time>
   </trkpt>
   <trkpt lat="51.5674240" lon="-0.0785060">
    <ele>22.1</ele>
    <time>2023-06-09T07:48:41Z</time>
   </trkpt>
   <trkpt lat="51.5674060" lon="-0.0784940">
    <ele>22.1</ele>
    <time>2023-06-09T07:48:43Z</time>
   </trkpt>
   <trkpt lat="51.5673870" lon="-0.0784820">
    <ele>22.1</ele>
    <time>2023-06-09T07:48:44Z</time>
   </trkpt>
   <trkpt lat="51.5673690" lon="-0.0784710">
    <ele>22.1</ele>
    <time>2023-06-09T07:48:45Z</time>
   </trkpt>
   <trkpt lat="51.5673350" lon="-0.0784700">
    <ele>22.1</ele>
    <time>2023-06-09T07:48:46Z</time>
   </trkpt>
   <trkpt lat="51.5673270" lon="-0.0784710">
    <ele>22.1</ele>
    <time>2023-06-09T07:48:47Z</time>
   </trkpt>
   <trkpt lat="51.5673230" lon="-0.0784940">
    <ele>22.1</ele>
    <time>2023-06-09T07:48:48Z</time>
   </trkpt>
   <trkpt lat="51.5673150" lon="-0.0785020">
    <ele>22.1</ele>
    <time>2023-06-09T07:48:49Z</time>
   </trkpt>
   <trkpt lat="51.5673080" lon="-0.0785050">
    <ele>22.1</ele>
    <time>2023-06-09T07:48:50Z</time>
   </trkpt>
   <trkpt lat="51.5673100" lon="-0.0785020">
    <ele>22.1</ele>
    <time>2023-06-09T07:48:51Z</time>
   </trkpt>
   <trkpt lat="51.5673090" lon="-0.0785130">
    <ele>22.1</ele>
    <time>2023-06-09T07:48:52Z</time>
   </trkpt>
   <trkpt lat="51.5673120" lon="-0.0785270">
    <ele>22.1</ele>
    <time>2023-06-09T07:48:53Z</time>
   </trkpt>
   <trkpt lat="51.5673160" lon="-0.0785510">
    <ele>22.1</ele>
    <time>2023-06-09T07:48:54Z</time>
   </trkpt>
   <trkpt lat="51.5673120" lon="-0.0785680">
    <ele>22.1</ele>
    <time>2023-06-09T07:48:55Z</time>
   </trkpt>
   <trkpt lat="51.5673030" lon="-0.0785720">
    <ele>22.1</ele>
    <time>2023-06-09T07:48:56Z</time>
   </trkpt>
   <trkpt lat="51.5672880" lon="-0.0785720">
    <ele>22.1</ele>
    <time>2023-06-09T07:48:57Z</time>
   </trkpt>
   <trkpt lat="51.5672590" lon="-0.0785690">
    <ele>22.1</ele>
    <time>2023-06-09T07:48:58Z</time>
   </trkpt>
   <trkpt lat="51.5672500" lon="-0.0785720">
    <ele>22.1</ele>
    <time>2023-06-09T07:48:59Z</time>
   </trkpt>
   <trkpt lat="51.5672350" lon="-0.0785770">
    <ele>22.1</ele>
    <time>2023-06-09T07:49:00Z</time>
   </trkpt>
   <trkpt lat="51.5672220" lon="-0.0785820">
    <ele>22.1</ele>
    <time>2023-06-09T07:49:01Z</time>
   </trkpt>
   <trkpt lat="51.5672110" lon="-0.0785890">
    <ele>22.1</ele>
    <time>2023-06-09T07:49:02Z</time>
   </trkpt>
   <trkpt lat="51.5672040" lon="-0.0786050">
    <ele>22.2</ele>
    <time>2023-06-09T07:49:03Z</time>
   </trkpt>
   <trkpt lat="51.5672030" lon="-0.0786240">
    <ele>22.2</ele>
    <time>2023-06-09T07:49:04Z</time>
   </trkpt>
   <trkpt lat="51.5672100" lon="-0.0786320">
    <ele>22.2</ele>
    <time>2023-06-09T07:49:05Z</time>
   </trkpt>
   <trkpt lat="51.5672050" lon="-0.0786250">
    <ele>22.2</ele>
    <time>2023-06-09T07:49:06Z</time>
   </trkpt>
   <trkpt lat="51.5672020" lon="-0.0786410">
    <ele>22.2</ele>
    <time>2023-06-09T07:49:07Z</time>
   </trkpt>
   <trkpt lat="51.5671970" lon="-0.0786540">
    <ele>22.2</ele>
    <time>2023-06-09T07:49:08Z</time>
   </trkpt>
   <trkpt lat="51.5671980" lon="-0.0786650">
    <ele>22.2</ele>
    <time>2023-06-09T07:49:09Z</time>
   </trkpt>
   <trkpt lat="51.5671970" lon="-0.0786730">
    <ele>22.2</ele>
    <time>2023-06-09T07:49:10Z</time>
   </trkpt>
   <trkpt lat="51.5671960" lon="-0.0786850">
    <ele>22.2</ele>
    <time>2023-06-09T07:49:11Z</time>
   </trkpt>
   <trkpt lat="51.5671900" lon="-0.0787060">
    <ele>22.2</ele>
    <time>2023-06-09T07:49:12Z</time>
   </trkpt>
   <trkpt lat="51.5671900" lon="-0.0787180">
    <ele>22.2</ele>
    <time>2023-06-09T07:49:13Z</time>
   </trkpt>
   <trkpt lat="51.5671920" lon="-0.0787390">
    <ele>22.2</ele>
    <time>2023-06-09T07:49:14Z</time>
   </trkpt>
   <trkpt lat="51.5671880" lon="-0.0787550">
    <ele>22.2</ele>
    <time>2023-06-09T07:49:15Z</time>
   </trkpt>
   <trkpt lat="51.5671850" lon="-0.0787640">
    <ele>22.2</ele>
    <time>2023-06-09T07:49:16Z</time>
   </trkpt>
   <trkpt lat="51.5671830" lon="-0.0787930">
    <ele>22.2</ele>
    <time>2023-06-09T07:49:17Z</time>
   </trkpt>
   <trkpt lat="51.5671840" lon="-0.0788040">
    <ele>22.2</ele>
    <time>2023-06-09T07:49:18Z</time>
   </trkpt>
   <trkpt lat="51.5671860" lon="-0.0788150">
    <ele>22.2</ele>
    <time>2023-06-09T07:49:19Z</time>
   </trkpt>
   <trkpt lat="51.5671880" lon="-0.0788260">
    <ele>22.2</ele>
    <time>2023-06-09T07:49:20Z</time>
   </trkpt>
   <trkpt lat="51.5671880" lon="-0.0788370">
    <ele>22.2</ele>
    <time>2023-06-09T07:49:21Z</time>
   </trkpt>
   <trkpt lat="51.5671870" lon="-0.0788540">
    <ele>22.2</ele>
    <time>2023-06-09T07:49:22Z</time>
   </trkpt>
   <trkpt lat="51.5671880" lon="-0.0788650">
    <ele>22.2</ele>
    <time>2023-06-09T07:49:23Z</time>
   </trkpt>
   <trkpt lat="51.5671890" lon="-0.0788840">
    <ele>22.2</ele>
    <time>2023-06-09T07:49:24Z</time>
   </trkpt>
   <trkpt lat="51.5671710" lon="-0.0789170">
    <ele>22.2</ele>
    <time>2023-06-09T07:49:25Z</time>
   </trkpt>
   <trkpt lat="51.5671660" lon="-0.0789430">
    <ele>22.2</ele>
    <time>2023-06-09T07:49:26Z</time>
   </trkpt>
   <trkpt lat="51.5671640" lon="-0.0789610">
    <ele>22.2</ele>
    <time>2023-06-09T07:49:27Z</time>
   </trkpt>
   <trkpt lat="51.5671620" lon="-0.0789840">
    <ele>22.2</ele>
    <time>2023-06-09T07:49:28Z</time>
   </trkpt>
   <trkpt lat="51.5671590" lon="-0.0789830">
    <ele>22.2</ele>
    <time>2023-06-09T07:49:29Z</time>
   </trkpt>
   <trkpt lat="51.5671620" lon="-0.0789670">
    <ele>22.2</ele>
    <time>2023-06-09T07:49:30Z</time>
   </trkpt>
   <trkpt lat="51.5671640" lon="-0.0789540">
    <ele>22.2</ele>
    <time>2023-06-09T07:49:31Z</time>
   </trkpt>
   <trkpt lat="51.5671700" lon="-0.0789400">
    <ele>22.2</ele>
    <time>2023-06-09T07:49:32Z</time>
   </trkpt>
   <trkpt lat="51.5671720" lon="-0.0789270">
    <ele>22.2</ele>
    <time>2023-06-09T07:49:33Z</time>
   </trkpt>
   <trkpt lat="51.5671750" lon="-0.0789130">
    <ele>22.2</ele>
    <time>2023-06-09T07:49:34Z</time>
   </trkpt>
   <trkpt lat="51.5671730" lon="-0.0788990">
    <ele>22.2</ele>
    <time>2023-06-09T07:49:35Z</time>
   </trkpt>
   <trkpt lat="51.5671760" lon="-0.0788910">
    <ele>22.2</ele>
    <time>2023-06-09T07:49:36Z</time>
   </trkpt>
   <trkpt lat="51.5671780" lon="-0.0788900">
    <ele>22.2</ele>
    <time>2023-06-09T07:49:37Z</time>
   </trkpt>
   <trkpt lat="51.5671810" lon="-0.0788910">
    <ele>22.2</ele>
    <time>2023-06-09T07:49:38Z</time>
   </trkpt>
   <trkpt lat="51.5671810" lon="-0.0788910">
    <ele>22.2</ele>
    <time>2023-06-09T07:49:39Z</time>
   </trkpt>
   <trkpt lat="51.5671810" lon="-0.0788940">
    <ele>22.2</ele>
    <time>2023-06-09T07:49:40Z</time>
   </trkpt>
   <trkpt lat="51.5671810" lon="-0.0788920">
    <ele>22.2</ele>
    <time>2023-06-09T07:49:41Z</time>
   </trkpt>
   <trkpt lat="51.5671830" lon="-0.0788940">
    <ele>22.2</ele>
    <time>2023-06-09T07:49:42Z</time>
   </trkpt>
   <trkpt lat="51.5671810" lon="-0.0789070">
    <ele>22.2</ele>
    <time>2023-06-09T07:49:43Z</time>
   </trkpt>
   <trkpt lat="51.5671780" lon="-0.0789220">
    <ele>22.2</ele>
    <time>2023-06-09T07:49:44Z</time>
   </trkpt>
   <trkpt lat="51.5671780" lon="-0.0789340">
    <ele>22.2</ele>
    <time>2023-06-09T07:49:45Z</time>
   </trkpt>
   <trkpt lat="51.5671790" lon="-0.0789430">
    <ele>22.2</ele>
    <time>2023-06-09T07:49:46Z</time>
   </trkpt>
   <trkpt lat="51.5671800" lon="-0.0789600">
    <ele>22.2</ele>
    <time>2023-06-09T07:49:47Z</time>
   </trkpt>
   <trkpt lat="51.5671800" lon="-0.0789750">
    <ele>22.2</ele>
    <time>2023-06-09T07:49:48Z</time>
   </trkpt>
   <trkpt lat="51.5671800" lon="-0.0789880">
    <ele>22.2</ele>
    <time>2023-06-09T07:49:49Z</time>
   </trkpt>
   <trkpt lat="51.5671770" lon="-0.0790080">
    <ele>22.2</ele>
    <time>2023-06-09T07:49:50Z</time>
   </trkpt>
   <trkpt lat="51.5671770" lon="-0.0790290">
    <ele>22.2</ele>
    <time>2023-06-09T07:49:51Z</time>
   </trkpt>
   <trkpt lat="51.5671760" lon="-0.0790440">
    <ele>22.2</ele>
    <time>2023-06-09T07:49:52Z</time>
   </trkpt>
   <trkpt lat="51.5671770" lon="-0.0790590">
    <ele>22.2</ele>
    <time>2023-06-09T07:49:53Z</time>
   </trkpt>
   <trkpt lat="51.5671770" lon="-0.0790760">
    <ele>22.2</ele>
    <time>2023-06-09T07:49:54Z</time>
   </trkpt>
   <trkpt lat="51.5671750" lon="-0.0791070">
    <ele>22.2</ele>
    <time>2023-06-09T07:49:55Z</time>
   </trkpt>
   <trkpt lat="51.5671680" lon="-0.0791550">
    <ele>22.2</ele>
    <time>2023-06-09T07:49:56Z</time>
   </trkpt>
   <trkpt lat="51.5671610" lon="-0.0792090">
    <ele>22.2</ele>
    <time>2023-06-09T07:49:57Z</time>
   </trkpt>
   <trkpt lat="51.5671590" lon="-0.0792260">
    <ele>22.2</ele>
    <time>2023-06-09T07:49:58Z</time>
   </trkpt>
   <trkpt lat="51.5671580" lon="-0.0792900">
    <ele>22.2</ele>
    <time>2023-06-09T07:49:59Z</time>
   </trkpt>
   <trkpt lat="51.5671600" lon="-0.0793110">
    <ele>22.3</ele>
    <time>2023-06-09T07:50:00Z</time>
   </trkpt>
   <trkpt lat="51.5671500" lon="-0.0793590">
    <ele>22.3</ele>
    <time>2023-06-09T07:50:01Z</time>
   </trkpt>
   <trkpt lat="51.5671450" lon="-0.0794070">
    <ele>22.3</ele>
    <time>2023-06-09T07:50:02Z</time>
   </trkpt>
   <trkpt lat="51.5671350" lon="-0.0794530">
    <ele>22.3</ele>
    <time>2023-06-09T07:50:03Z</time>
   </trkpt>
   <trkpt lat="51.5671260" lon="-0.0795090">
    <ele>22.3</ele>
    <time>2023-06-09T07:50:04Z</time>
   </trkpt>
   <trkpt lat="51.5671230" lon="-0.0795310">
    <ele>22.3</ele>
    <time>2023-06-09T07:50:05Z</time>
   </trkpt>
   <trkpt lat="51.5671200" lon="-0.0795770">
    <ele>22.3</ele>
    <time>2023-06-09T07:50:06Z</time>
   </trkpt>
   <trkpt lat="51.5671180" lon="-0.0796210">
    <ele>22.3</ele>
    <time>2023-06-09T07:50:07Z</time>
   </trkpt>
   <trkpt lat="51.5671020" lon="-0.0796570">
    <ele>22.3</ele>
    <time>2023-06-09T07:50:08Z</time>
   </trkpt>
   <trkpt lat="51.5670930" lon="-0.0797150">
    <ele>22.3</ele>
    <time>2023-06-09T07:50:09Z</time>
   </trkpt>
   <trkpt lat="51.5670870" lon="-0.0797370">
    <ele>22.3</ele>
    <time>2023-06-09T07:50:10Z</time>
   </trkpt>
   <trkpt lat="51.5670780" lon="-0.0797810">
    <ele>22.3</ele>
    <time>2023-06-09T07:50:11Z</time>
   </trkpt>
   <trkpt lat="51.5670640" lon="-0.0798400">
    <ele>22.4</ele>
    <time>2023-06-09T07:50:12Z</time>
   </trkpt>
   <trkpt lat="51.5670590" lon="-0.0798630">
    <ele>22.4</ele>
    <time>2023-06-09T07:50:13Z</time>
   </trkpt>
   <trkpt lat="51.5670510" lon="-0.0799230">
    <ele>22.4</ele>
    <time>2023-06-09T07:50:14Z</time>
   </trkpt>
   <trkpt lat="51.5670490" lon="-0.0799480">
    <ele>22.4</ele>
    <time>2023-06-09T07:50:15Z</time>
   </trkpt>
   <trkpt lat="51.5670370" lon="-0.0800090">
    <ele>22.4</ele>
    <time>2023-06-09T07:50:16Z</time>
   </trkpt>
   <trkpt lat="51.5670350" lon="-0.0800350">
    <ele>22.4</ele>
    <time>2023-06-09T07:50:17Z</time>
   </trkpt>
   <trkpt lat="51.5670280" lon="-0.0800780">
    <ele>22.4</ele>
    <time>2023-06-09T07:50:18Z</time>
   </trkpt>
   <trkpt lat="51.5670160" lon="-0.0801370">
    <ele>22.5</ele>
    <time>2023-06-09T07:50:19Z</time>
   </trkpt>
   <trkpt lat="51.5670100" lon="-0.0801570">
    <ele>22.5</ele>
    <time>2023-06-09T07:50:20Z</time>
   </trkpt>
   <trkpt lat="51.5669910" lon="-0.0802050">
    <ele>22.5</ele>
    <time>2023-06-09T07:50:21Z</time>
   </trkpt>
   <trkpt lat="51.5669870" lon="-0.0802290">
    <ele>22.5</ele>
    <time>2023-06-09T07:50:22Z</time>
   </trkpt>
   <trkpt lat="51.5669710" lon="-0.0802730">
    <ele>22.5</ele>
    <time>2023-06-09T07:50:23Z</time>
   </trkpt>
   <trkpt lat="51.5669570" lon="-0.0803240">
    <ele>22.5</ele>
    <time>2023-06-09T07:50:24Z</time>
   </trkpt>
   <trkpt lat="51.5669370" lon="-0.0803780">
    <ele>22.5</ele>
    <time>2023-06-09T07:50:25Z</time>
   </trkpt>
   <trkpt lat="51.5669280" lon="-0.0803950">
    <ele>22.6</ele>
    <time>2023-06-09T07:50:26Z</time>
   </trkpt>
   <trkpt lat="51.5669240" lon="-0.0804420">
    <ele>22.6</ele>
    <time>2023-06-09T07:50:27Z</time>
   </trkpt>
   <trkpt lat="51.5669120" lon="-0.0805020">
    <ele>22.6</ele>
    <time>2023-06-09T07:50:28Z</time>
   </trkpt>
   <trkpt lat="51.5669100" lon="-0.0805240">
    <ele>22.6</ele>
    <time>2023-06-09T07:50:29Z</time>
   </trkpt>
   <trkpt lat="51.5668960" lon="-0.0805650">
    <ele>22.6</ele>
    <time>2023-06-09T07:50:30Z</time>
   </trkpt>
   <trkpt lat="51.5668810" lon="-0.0806160">
    <ele>22.6</ele>
    <time>2023-06-09T07:50:31Z</time>
   </trkpt>
   <trkpt lat="51.5668820" lon="-0.0806340">
    <ele>22.7</ele>
    <time>2023-06-09T07:50:32Z</time>
   </trkpt>
   <trkpt lat="51.5668780" lon="-0.0806900">
    <ele>22.7</ele>
    <time>2023-06-09T07:50:33Z</time>
   </trkpt>
   <trkpt lat="51.5668680" lon="-0.0807390">
    <ele>22.7</ele>
    <time>2023-06-09T07:50:34Z</time>
   </trkpt>
   <trkpt lat="51.5668510" lon="-0.0807780">
    <ele>22.7</ele>
    <time>2023-06-09T07:50:35Z</time>
   </trkpt>
   <trkpt lat="51.5668330" lon="-0.0808210">
    <ele>22.7</ele>
    <time>2023-06-09T07:50:36Z</time>
   </trkpt>
   <trkpt lat="51.5667990" lon="-0.0808970">
    <ele>22.8</ele>
    <time>2023-06-09T07:50:37Z</time>
   </trkpt>
   <trkpt lat="51.5667680" lon="-0.0809380">
    <ele>22.9</ele>
    <time>2023-06-09T07:50:39Z</time>
   </trkpt>
   <trkpt lat="51.5667560" lon="-0.0809470">
    <ele>22.9</ele>
    <time>2023-06-09T07:50:40Z</time>
   </trkpt>
   <trkpt lat="51.5667240" lon="-0.0809650">
    <ele>22.9</ele>
    <time>2023-06-09T07:50:41Z</time>
   </trkpt>
   <trkpt lat="51.5667140" lon="-0.0809680">
    <ele>22.9</ele>
    <time>2023-06-09T07:50:42Z</time>
   </trkpt>
   <trkpt lat="51.5666820" lon="-0.0809670">
    <ele>22.9</ele>
    <time>2023-06-09T07:50:43Z</time>
   </trkpt>
   <trkpt lat="51.5666410" lon="-0.0809760">
    <ele>22.9</ele>
    <time>2023-06-09T07:50:44Z</time>
   </trkpt>
   <trkpt lat="51.5666240" lon="-0.0809810">
    <ele>22.9</ele>
    <time>2023-06-09T07:50:45Z</time>
   </trkpt>
   <trkpt lat="51.5665880" lon="-0.0809940">
    <ele>22.9</ele>
    <time>2023-06-09T07:50:46Z</time>
   </trkpt>
   <trkpt lat="51.5665770" lon="-0.0809940">
    <ele>22.9</ele>
    <time>2023-06-09T07:50:47Z</time>
   </trkpt>
   <trkpt lat="51.5665490" lon="-0.0809930">
    <ele>22.9</ele>
    <time>2023-06-09T07:50:48Z</time>
   </trkpt>
   <trkpt lat="51.5665090" lon="-0.0809950">
    <ele>22.9</ele>
    <time>2023-06-09T07:50:49Z</time>
   </trkpt>
   <trkpt lat="51.5664930" lon="-0.0809970">
    <ele>22.9</ele>
    <time>2023-06-09T07:50:50Z</time>
   </trkpt>
   <trkpt lat="51.5664630" lon="-0.0810000">
    <ele>22.9</ele>
    <time>2023-06-09T07:50:51Z</time>
   </trkpt>
   <trkpt lat="51.5664210" lon="-0.0810170">
    <ele>22.9</ele>
    <time>2023-06-09T07:50:52Z</time>
   </trkpt>
   <trkpt lat="51.5664030" lon="-0.0810150">
    <ele>22.9</ele>
    <time>2023-06-09T07:50:53Z</time>
   </trkpt>
   <trkpt lat="51.5663640" lon="-0.0810260">
    <ele>22.9</ele>
    <time>2023-06-09T07:50:54Z</time>
   </trkpt>
   <trkpt lat="51.5663480" lon="-0.0810310">
    <ele>22.9</ele>
    <time>2023-06-09T07:50:55Z</time>
   </trkpt>
   <trkpt lat="51.5663030" lon="-0.0810230">
    <ele>22.9</ele>
    <time>2023-06-09T07:50:56Z</time>
   </trkpt>
   <trkpt lat="51.5662850" lon="-0.0810200">
    <ele>22.9</ele>
    <time>2023-06-09T07:50:57Z</time>
   </trkpt>
   <trkpt lat="51.5662450" lon="-0.0810160">
    <ele>23.0</ele>
    <time>2023-06-09T07:50:58Z</time>
   </trkpt>
   <trkpt lat="51.5662280" lon="-0.0810140">
    <ele>23.0</ele>
    <time>2023-06-09T07:50:59Z</time>
   </trkpt>
   <trkpt lat="51.5661890" lon="-0.0810030">
    <ele>23.0</ele>
    <time>2023-06-09T07:51:00Z</time>
   </trkpt>
   <trkpt lat="51.5661710" lon="-0.0809990">
    <ele>23.0</ele>
    <time>2023-06-09T07:51:01Z</time>
   </trkpt>
   <trkpt lat="51.5661380" lon="-0.0809870">
    <ele>23.1</ele>
    <time>2023-06-09T07:51:02Z</time>
   </trkpt>
   <trkpt lat="51.5661240" lon="-0.0809850">
    <ele>23.1</ele>
    <time>2023-06-09T07:51:03Z</time>
   </trkpt>
   <trkpt lat="51.5660920" lon="-0.0809900">
    <ele>23.2</ele>
    <time>2023-06-09T07:51:04Z</time>
   </trkpt>
   <trkpt lat="51.5660640" lon="-0.0809810">
    <ele>23.2</ele>
    <time>2023-06-09T07:51:05Z</time>
   </trkpt>
   <trkpt lat="51.5660250" lon="-0.0809660">
    <ele>23.3</ele>
    <time>2023-06-09T07:51:06Z</time>
   </trkpt>
   <trkpt lat="51.5660080" lon="-0.0809640">
    <ele>23.3</ele>
    <time>2023-06-09T07:51:07Z</time>
   </trkpt>
   <trkpt lat="51.5659790" lon="-0.0809670">
    <ele>23.3</ele>
    <time>2023-06-09T07:51:08Z</time>
   </trkpt>
   <trkpt lat="51.5659480" lon="-0.0809620">
    <ele>23.4</ele>
    <time>2023-06-09T07:51:09Z</time>
   </trkpt>
   <trkpt lat="51.5659110" lon="-0.0809600">
    <ele>23.4</ele>
    <time>2023-06-09T07:51:10Z</time>
   </trkpt>
   <trkpt lat="51.5658800" lon="-0.0809650">
    <ele>23.5</ele>
    <time>2023-06-09T07:51:11Z</time>
   </trkpt>
   <trkpt lat="51.5658540" lon="-0.0809490">
    <ele>23.5</ele>
    <time>2023-06-09T07:51:12Z</time>
   </trkpt>
   <trkpt lat="51.5658260" lon="-0.0809480">
    <ele>23.5</ele>
    <time>2023-06-09T07:51:13Z</time>
   </trkpt>
   <trkpt lat="51.5657990" lon="-0.0809610">
    <ele>23.6</ele>
    <time>2023-06-09T07:51:14Z</time>
   </trkpt>
   <trkpt lat="51.5657670" lon="-0.0809510">
    <ele>23.6</ele>
    <time>2023-06-09T07:51:15Z</time>
   </trkpt>
   <trkpt lat="51.5657270" lon="-0.0809330">
    <ele>23.6</ele>
    <time>2023-06-09T07:51:16Z</time>
   </trkpt>
   <trkpt lat="51.5657100" lon="-0.0809280">
    <ele>23.6</ele>
    <time>2023-06-09T07:51:17Z</time>
   </trkpt>
   <trkpt lat="51.5656770" lon="-0.0809180">
    <ele>23.7</ele>
    <time>2023-06-09T07:51:18Z</time>
   </trkpt>
   <trkpt lat="51.5656410" lon="-0.0809130">
    <ele>23.7</ele>
    <time>2023-06-09T07:51:19Z</time>
   </trkpt>
   <trkpt lat="51.5656300" lon="-0.0809130">
    <ele>23.7</ele>
    <time>2023-06-09T07:51:20Z</time>
   </trkpt>
   <trkpt lat="51.5656010" lon="-0.0809040">
    <ele>23.7</ele>
    <time>2023-06-09T07:51:21Z</time>
   </trkpt>
   <trkpt lat="51.5655710" lon="-0.0809110">
    <ele>23.8</ele>
    <time>2023-06-09T07:51:22Z</time>
   </trkpt>
   <trkpt lat="51.5655400" lon="-0.0808990">
    <ele>23.8</ele>
    <time>2023-06-09T07:51:23Z</time>
   </trkpt>
   <trkpt lat="51.5654990" lon="-0.0808770">
    <ele>23.8</ele>
    <time>2023-06-09T07:51:24Z</time>
   </trkpt>
   <trkpt lat="51.5654590" lon="-0.0808690">
    <ele>23.9</ele>
    <time>2023-06-09T07:51:25Z</time>
   </trkpt>
   <trkpt lat="51.5654440" lon="-0.0808670">
    <ele>23.9</ele>
    <time>2023-06-09T07:51:26Z</time>
   </trkpt>
   <trkpt lat="51.5654040" lon="-0.0808480">
    <ele>23.9</ele>
    <time>2023-06-09T07:51:27Z</time>
   </trkpt>
   <trkpt lat="51.5653890" lon="-0.0808430">
    <ele>23.9</ele>
    <time>2023-06-09T07:51:28Z</time>
   </trkpt>
   <trkpt lat="51.5653600" lon="-0.0808310">
    <ele>24.0</ele>
    <time>2023-06-09T07:51:29Z</time>
   </trkpt>
   <trkpt lat="51.5653270" lon="-0.0808190">
    <ele>24.0</ele>
    <time>2023-06-09T07:51:30Z</time>
   </trkpt>
   <trkpt lat="51.5652890" lon="-0.0808190">
    <ele>24.0</ele>
    <time>2023-06-09T07:51:31Z</time>
   </trkpt>
   <trkpt lat="51.5652620" lon="-0.0808060">
    <ele>24.1</ele>
    <time>2023-06-09T07:51:32Z</time>
   </trkpt>
   <trkpt lat="51.5652350" lon="-0.0807910">
    <ele>24.1</ele>
    <time>2023-06-09T07:51:33Z</time>
   </trkpt>
   <trkpt lat="51.5651920" lon="-0.0807820">
    <ele>24.1</ele>
    <time>2023-06-09T07:51:34Z</time>
   </trkpt>
   <trkpt lat="51.5651750" lon="-0.0807810">
    <ele>24.2</ele>
    <time>2023-06-09T07:51:35Z</time>
   </trkpt>
   <trkpt lat="51.5651430" lon="-0.0807700">
    <ele>24.2</ele>
    <time>2023-06-09T07:51:36Z</time>
   </trkpt>
   <trkpt lat="51.5651150" lon="-0.0807630">
    <ele>24.2</ele>
    <time>2023-06-09T07:51:37Z</time>
   </trkpt>
   <trkpt lat="51.5650850" lon="-0.0807660">
    <ele>24.3</ele>
    <time>2023-06-09T07:51:38Z</time>
   </trkpt>
   <trkpt lat="51.5650550" lon="-0.0807530">
    <ele>24.3</ele>
    <time>2023-06-09T07:51:39Z</time>
   </trkpt>
   <trkpt lat="51.5650290" lon="-0.0807370">
    <ele>24.3</ele>
    <time>2023-06-09T07:51:40Z</time>
   </trkpt>
   <trkpt lat="51.5649980" lon="-0.0807250">
    <ele>24.4</ele>
    <time>2023-06-09T07:51:41Z</time>
   </trkpt>
   <trkpt lat="51.5649640" lon="-0.0807070">
    <ele>24.4</ele>
    <time>2023-06-09T07:51:42Z</time>
   </trkpt>
   <trkpt lat="51.5649290" lon="-0.0807020">
    <ele>24.5</ele>
    <time>2023-06-09T07:51:43Z</time>
   </trkpt>
   <trkpt lat="51.5648930" lon="-0.0806840">
    <ele>24.5</ele>
    <time>2023-06-09T07:51:44Z</time>
   </trkpt>
   <trkpt lat="51.5648800" lon="-0.0806800">
    <ele>24.6</ele>
    <time>2023-06-09T07:51:45Z</time>
   </trkpt>
   <trkpt lat="51.5648460" lon="-0.0806560">
    <ele>24.6</ele>
    <time>2023-06-09T07:51:46Z</time>
   </trkpt>
   <trkpt lat="51.5648340" lon="-0.0806490">
    <ele>24.7</ele>
    <time>2023-06-09T07:51:47Z</time>
   </trkpt>
   <trkpt lat="51.5648080" lon="-0.0806320">
    <ele>24.7</ele>
    <time>2023-06-09T07:51:48Z</time>
   </trkpt>
   <trkpt lat="51.5647770" lon="-0.0806200">
    <ele>24.8</ele>
    <time>2023-06-09T07:51:49Z</time>
   </trkpt>
   <trkpt lat="51.5647510" lon="-0.0806070">
    <ele>24.8</ele>
    <time>2023-06-09T07:51:50Z</time>
   </trkpt>
   <trkpt lat="51.5647190" lon="-0.0805800">
    <ele>24.9</ele>
    <time>2023-06-09T07:51:51Z</time>
   </trkpt>
   <trkpt lat="51.5647040" lon="-0.0805690">
    <ele>24.9</ele>
    <time>2023-06-09T07:51:52Z</time>
   </trkpt>
   <trkpt lat="51.5646750" lon="-0.0805600">
    <ele>25.0</ele>
    <time>2023-06-09T07:51:53Z</time>
   </trkpt>
   <trkpt lat="51.5646430" lon="-0.0805350">
    <ele>25.0</ele>
    <time>2023-06-09T07:51:54Z</time>
   </trkpt>
   <trkpt lat="51.5646320" lon="-0.0805300">
    <ele>25.0</ele>
    <time>2023-06-09T07:51:55Z</time>
   </trkpt>
   <trkpt lat="51.5646030" lon="-0.0805070">
    <ele>25.1</ele>
    <time>2023-06-09T07:51:56Z</time>
   </trkpt>
   <trkpt lat="51.5645800" lon="-0.0804830">
    <ele>25.1</ele>
    <time>2023-06-09T07:51:57Z</time>
   </trkpt>
   <trkpt lat="51.5645570" lon="-0.0804580">
    <ele>25.2</ele>
    <time>2023-06-09T07:51:58Z</time>
   </trkpt>
   <trkpt lat="51.5645250" lon="-0.0804420">
    <ele>25.2</ele>
    <time>2023-06-09T07:51:59Z</time>
   </trkpt>
   <trkpt lat="51.5644970" lon="-0.0804030">
    <ele>25.3</ele>
    <time>2023-06-09T07:52:00Z</time>
   </trkpt>
   <trkpt lat="51.5644900" lon="-0.0803870">
    <ele>25.3</ele>
    <time>2023-06-09T07:52:01Z</time>
   </trkpt>
   <trkpt lat="51.5644580" lon="-0.0803550">
    <ele>25.4</ele>
    <time>2023-06-09T07:52:02Z</time>
   </trkpt>
   <trkpt lat="51.5644480" lon="-0.0803420">
    <ele>25.4</ele>
    <time>2023-06-09T07:52:03Z</time>
   </trkpt>
   <trkpt lat="51.5644210" lon="-0.0803160">
    <ele>25.4</ele>
    <time>2023-06-09T07:52:04Z</time>
   </trkpt>
   <trkpt lat="51.5643860" lon="-0.0802910">
    <ele>25.5</ele>
    <time>2023-06-09T07:52:05Z</time>
   </trkpt>
   <trkpt lat="51.5643730" lon="-0.0802820">
    <ele>25.5</ele>
    <time>2023-06-09T07:52:06Z</time>
   </trkpt>
   <trkpt lat="51.5643410" lon="-0.0802800">
    <ele>25.6</ele>
    <time>2023-06-09T07:52:07Z</time>
   </trkpt>
   <trkpt lat="51.5643060" lon="-0.0802570">
    <ele>25.7</ele>
    <time>2023-06-09T07:52:08Z</time>
   </trkpt>
   <trkpt lat="51.5642810" lon="-0.0802250">
    <ele>25.7</ele>
    <time>2023-06-09T07:52:09Z</time>
   </trkpt>
   <trkpt lat="51.5642690" lon="-0.0802100">
    <ele>25.7</ele>
    <time>2023-06-09T07:52:10Z</time>
   </trkpt>
   <trkpt lat="51.5642450" lon="-0.0801650">
    <ele>25.8</ele>
    <time>2023-06-09T07:52:11Z</time>
   </trkpt>
   <trkpt lat="51.5642220" lon="-0.0801390">
    <ele>25.8</ele>
    <time>2023-06-09T07:52:12Z</time>
   </trkpt>
   <trkpt lat="51.5641970" lon="-0.0801160">
    <ele>25.9</ele>
    <time>2023-06-09T07:52:13Z</time>
   </trkpt>
   <trkpt lat="51.5641850" lon="-0.0801030">
    <ele>25.9</ele>
    <time>2023-06-09T07:52:14Z</time>
   </trkpt>
   <trkpt lat="51.5641480" lon="-0.0800730">
    <ele>25.9</ele>
    <time>2023-06-09T07:52:15Z</time>
   </trkpt>
   <trkpt lat="51.5641350" lon="-0.0800560">
    <ele>26.0</ele>
    <time>2023-06-09T07:52:16Z</time>
   </trkpt>
   <trkpt lat="51.5641080" lon="-0.0800330">
    <ele>26.0</ele>
    <time>2023-06-09T07:52:17Z</time>
   </trkpt>
   <trkpt lat="51.5640850" lon="-0.0800090">
    <ele>26.1</ele>
    <time>2023-06-09T07:52:18Z</time>
   </trkpt>
   <trkpt lat="51.5640620" lon="-0.0799860">
    <ele>26.1</ele>
    <time>2023-06-09T07:52:19Z</time>
   </trkpt>
   <trkpt lat="51.5640340" lon="-0.0799580">
    <ele>26.1</ele>
    <time>2023-06-09T07:52:20Z</time>
   </trkpt>
   <trkpt lat="51.5639970" lon="-0.0799250">
    <ele>26.2</ele>
    <time>2023-06-09T07:52:21Z</time>
   </trkpt>
   <trkpt lat="51.5639820" lon="-0.0799130">
    <ele>26.2</ele>
    <time>2023-06-09T07:52:22Z</time>
   </trkpt>
   <trkpt lat="51.5639590" lon="-0.0798840">
    <ele>26.3</ele>
    <time>2023-06-09T07:52:23Z</time>
   </trkpt>
   <trkpt lat="51.5639310" lon="-0.0798460">
    <ele>26.3</ele>
    <time>2023-06-09T07:52:24Z</time>
   </trkpt>
   <trkpt lat="51.5639220" lon="-0.0798350">
    <ele>26.3</ele>
    <time>2023-06-09T07:52:25Z</time>
   </trkpt>
   <trkpt lat="51.5639030" lon="-0.0798020">
    <ele>26.4</ele>
    <time>2023-06-09T07:52:26Z</time>
   </trkpt>
   <trkpt lat="51.5638680" lon="-0.0797710">
    <ele>26.4</ele>
    <time>2023-06-09T07:52:27Z</time>
   </trkpt>
   <trkpt lat="51.5638560" lon="-0.0797600">
    <ele>26.5</ele>
    <time>2023-06-09T07:52:28Z</time>
   </trkpt>
   <trkpt lat="51.5638330" lon="-0.0797350">
    <ele>26.5</ele>
    <time>2023-06-09T07:52:29Z</time>
   </trkpt>
   <trkpt lat="51.5638090" lon="-0.0797130">
    <ele>26.5</ele>
    <time>2023-06-09T07:52:30Z</time>
   </trkpt>
   <trkpt lat="51.5637720" lon="-0.0796790">
    <ele>26.6</ele>
    <time>2023-06-09T07:52:31Z</time>
   </trkpt>
   <trkpt lat="51.5637570" lon="-0.0796700">
    <ele>26.6</ele>
    <time>2023-06-09T07:52:32Z</time>
   </trkpt>
   <trkpt lat="51.5637220" lon="-0.0796580">
    <ele>26.7</ele>
    <time>2023-06-09T07:52:33Z</time>
   </trkpt>
   <trkpt lat="51.5636940" lon="-0.0796390">
    <ele>26.7</ele>
    <time>2023-06-09T07:52:34Z</time>
   </trkpt>
   <trkpt lat="51.5636690" lon="-0.0796080">
    <ele>26.8</ele>
    <time>2023-06-09T07:52:35Z</time>
   </trkpt>
   <trkpt lat="51.5636430" lon="-0.0795830">
    <ele>26.8</ele>
    <time>2023-06-09T07:52:36Z</time>
   </trkpt>
   <trkpt lat="51.5636180" lon="-0.0795580">
    <ele>26.9</ele>
    <time>2023-06-09T07:52:37Z</time>
   </trkpt>
   <trkpt lat="51.5635930" lon="-0.0795310">
    <ele>26.9</ele>
    <time>2023-06-09T07:52:38Z</time>
   </trkpt>
   <trkpt lat="51.5635570" lon="-0.0795110">
    <ele>27.0</ele>
    <time>2023-06-09T07:52:39Z</time>
   </trkpt>
   <trkpt lat="51.5635430" lon="-0.0795020">
    <ele>27.0</ele>
    <time>2023-06-09T07:52:40Z</time>
   </trkpt>
   <trkpt lat="51.5635150" lon="-0.0794850">
    <ele>27.0</ele>
    <time>2023-06-09T07:52:41Z</time>
   </trkpt>
   <trkpt lat="51.5634750" lon="-0.0794600">
    <ele>27.1</ele>
    <time>2023-06-09T07:52:42Z</time>
   </trkpt>
   <trkpt lat="51.5634590" lon="-0.0794530">
    <ele>27.1</ele>
    <time>2023-06-09T07:52:43Z</time>
   </trkpt>
   <trkpt lat="51.5634300" lon="-0.0794370">
    <ele>27.2</ele>
    <time>2023-06-09T07:52:44Z</time>
   </trkpt>
   <trkpt lat="51.5633940" lon="-0.0794180">
    <ele>27.2</ele>
    <time>2023-06-09T07:52:45Z</time>
   </trkpt>
   <trkpt lat="51.5633820" lon="-0.0794080">
    <ele>27.2</ele>
    <time>2023-06-09T07:52:46Z</time>
   </trkpt>
   <trkpt lat="51.5633580" lon="-0.0793820">
    <ele>27.3</ele>
    <time>2023-06-09T07:52:47Z</time>
   </trkpt>
   <trkpt lat="51.5633340" lon="-0.0793600">
    <ele>27.3</ele>
    <time>2023-06-09T07:52:48Z</time>
   </trkpt>
   <trkpt lat="51.5633040" lon="-0.0793350">
    <ele>27.4</ele>
    <time>2023-06-09T07:52:49Z</time>
   </trkpt>
   <trkpt lat="51.5632770" lon="-0.0793130">
    <ele>27.4</ele>
    <time>2023-06-09T07:52:50Z</time>
   </trkpt>
   <trkpt lat="51.5632510" lon="-0.0792910">
    <ele>27.4</ele>
    <time>2023-06-09T07:52:51Z</time>
   </trkpt>
   <trkpt lat="51.5632210" lon="-0.0792740">
    <ele>27.5</ele>
    <time>2023-06-09T07:52:52Z</time>
   </trkpt>
   <trkpt lat="51.5631960" lon="-0.0792490">
    <ele>27.5</ele>
    <time>2023-06-09T07:52:53Z</time>
   </trkpt>
   <trkpt lat="51.5631650" lon="-0.0792320">
    <ele>27.5</ele>
    <time>2023-06-09T07:52:54Z</time>
   </trkpt>
   <trkpt lat="51.5631390" lon="-0.0792160">
    <ele>27.6</ele>
    <time>2023-06-09T07:52:55Z</time>
   </trkpt>
   <trkpt lat="51.5631020" lon="-0.0791910">
    <ele>27.6</ele>
    <time>2023-06-09T07:52:56Z</time>
   </trkpt>
   <trkpt lat="51.5630900" lon="-0.0791810">
    <ele>27.6</ele>
    <time>2023-06-09T07:52:57Z</time>
   </trkpt>
   <trkpt lat="51.5630590" lon="-0.0791520">
    <ele>27.7</ele>
    <time>2023-06-09T07:52:58Z</time>
   </trkpt>
   <trkpt lat="51.5630480" lon="-0.0791400">
    <ele>27.7</ele>
    <time>2023-06-09T07:52:59Z</time>
   </trkpt>
   <trkpt lat="51.5630110" lon="-0.0791210">
    <ele>27.8</ele>
    <time>2023-06-09T07:53:00Z</time>
   </trkpt>
   <trkpt lat="51.5629840" lon="-0.0791000">
    <ele>27.8</ele>
    <time>2023-06-09T07:53:01Z</time>
   </trkpt>
   <trkpt lat="51.5629540" lon="-0.0790980">
    <ele>27.8</ele>
    <time>2023-06-09T07:53:02Z</time>
   </trkpt>
   <trkpt lat="51.5629170" lon="-0.0790780">
    <ele>27.9</ele>
    <time>2023-06-09T07:53:03Z</time>
   </trkpt>
   <trkpt lat="51.5629030" lon="-0.0790620">
    <ele>27.9</ele>
    <time>2023-06-09T07:53:04Z</time>
   </trkpt>
   <trkpt lat="51.5628730" lon="-0.0790480">
    <ele>27.9</ele>
    <time>2023-06-09T07:53:05Z</time>
   </trkpt>
   <trkpt lat="51.5628350" lon="-0.0790250">
    <ele>28.0</ele>
    <time>2023-06-09T07:53:06Z</time>
   </trkpt>
   <trkpt lat="51.5628200" lon="-0.0790180">
    <ele>28.0</ele>
    <time>2023-06-09T07:53:07Z</time>
   </trkpt>
   <trkpt lat="51.5627890" lon="-0.0790120">
    <ele>28.1</ele>
    <time>2023-06-09T07:53:08Z</time>
   </trkpt>
   <trkpt lat="51.5627660" lon="-0.0789860">
    <ele>28.1</ele>
    <time>2023-06-09T07:53:09Z</time>
   </trkpt>
   <trkpt lat="51.5627400" lon="-0.0789630">
    <ele>28.1</ele>
    <time>2023-06-09T07:53:10Z</time>
   </trkpt>
   <trkpt lat="51.5627100" lon="-0.0789400">
    <ele>28.2</ele>
    <time>2023-06-09T07:53:11Z</time>
   </trkpt>
   <trkpt lat="51.5626980" lon="-0.0789380">
    <ele>28.2</ele>
    <time>2023-06-09T07:53:12Z</time>
   </trkpt>
   <trkpt lat="51.5626600" lon="-0.0789250">
    <ele>28.3</ele>
    <time>2023-06-09T07:53:13Z</time>
   </trkpt>
   <trkpt lat="51.5626410" lon="-0.0789200">
    <ele>28.3</ele>
    <time>2023-06-09T07:53:14Z</time>
   </trkpt>
   <trkpt lat="51.5626100" lon="-0.0789010">
    <ele>28.3</ele>
    <time>2023-06-09T07:53:15Z</time>
   </trkpt>
   <trkpt lat="51.5625840" lon="-0.0788870">
    <ele>28.4</ele>
    <time>2023-06-09T07:53:16Z</time>
   </trkpt>
   <trkpt lat="51.5625530" lon="-0.0788780">
    <ele>28.4</ele>
    <time>2023-06-09T07:53:17Z</time>
   </trkpt>
   <trkpt lat="51.5625260" lon="-0.0788640">
    <ele>28.5</ele>
    <time>2023-06-09T07:53:18Z</time>
   </trkpt>
   <trkpt lat="51.5624940" lon="-0.0788430">
    <ele>28.5</ele>
    <time>2023-06-09T07:53:19Z</time>
   </trkpt>
   <trkpt lat="51.5624630" lon="-0.0788310">
    <ele>28.5</ele>
    <time>2023-06-09T07:53:20Z</time>
   </trkpt>
   <trkpt lat="51.5624320" lon="-0.0788080">
    <ele>28.6</ele>
    <time>2023-06-09T07:53:21Z</time>
   </trkpt>
   <trkpt lat="51.5624200" lon="-0.0788000">
    <ele>28.6</ele>
    <time>2023-06-09T07:53:22Z</time>
   </trkpt>
   <trkpt lat="51.5623940" lon="-0.0787800">
    <ele>28.7</ele>
    <time>2023-06-09T07:53:23Z</time>
   </trkpt>
   <trkpt lat="51.5623540" lon="-0.0787570">
    <ele>28.7</ele>
    <time>2023-06-09T07:53:24Z</time>
   </trkpt>
   <trkpt lat="51.5623380" lon="-0.0787510">
    <ele>28.7</ele>
    <time>2023-06-09T07:53:25Z</time>
   </trkpt>
   <trkpt lat="51.5623080" lon="-0.0787470">
    <ele>28.8</ele>
    <time>2023-06-09T07:53:26Z</time>
   </trkpt>
   <trkpt lat="51.5622660" lon="-0.0787520">
    <ele>29.1</ele>
    <time>2023-06-09T07:53:27Z</time>
   </trkpt>
   <trkpt lat="51.5622510" lon="-0.0787620">
    <ele>29.1</ele>
    <time>2023-06-09T07:53:28Z</time>
   </trkpt>
   <trkpt lat="51.5622290" lon="-0.0788030">
    <ele>29.1</ele>
    <time>2023-06-09T07:53:29Z</time>
   </trkpt>
   <trkpt lat="51.5622230" lon="-0.0788230">
    <ele>29.1</ele>
    <time>2023-06-09T07:53:30Z</time>
   </trkpt>
   <trkpt lat="51.5622020" lon="-0.0788760">
    <ele>29.1</ele>
    <time>2023-06-09T07:53:31Z</time>
   </trkpt>
   <trkpt lat="51.5621910" lon="-0.0788910">
    <ele>29.1</ele>
    <time>2023-06-09T07:53:32Z</time>
   </trkpt>
   <trkpt lat="51.5621570" lon="-0.0789220">
    <ele>29.1</ele>
    <time>2023-06-09T07:53:33Z</time>
   </trkpt>
   <trkpt lat="51.5621450" lon="-0.0789300">
    <ele>29.1</ele>
    <time>2023-06-09T07:53:34Z</time>
   </trkpt>
   <trkpt lat="51.5621140" lon="-0.0789530">
    <ele>29.1</ele>
    <time>2023-06-09T07:53:35Z</time>
   </trkpt>
   <trkpt lat="51.5620770" lon="-0.0789520">
    <ele>29.1</ele>
    <time>2023-06-09T07:53:36Z</time>
   </trkpt>
   <trkpt lat="51.5620620" lon="-0.0789500">
    <ele>29.1</ele>
    <time>2023-06-09T07:53:37Z</time>
   </trkpt>
   <trkpt lat="51.5620320" lon="-0.0789500">
    <ele>29.1</ele>
    <time>2023-06-09T07:53:38Z</time>
   </trkpt>
   <trkpt lat="51.5619940" lon="-0.0789480">
    <ele>29.0</ele>
    <time>2023-06-09T07:53:39Z</time>
   </trkpt>
   <trkpt lat="51.5619780" lon="-0.0789490">
    <ele>29.0</ele>
    <time>2023-06-09T07:53:40Z</time>
   </trkpt>
   <trkpt lat="51.5619390" lon="-0.0789370">
    <ele>29.0</ele>
    <time>2023-06-09T07:53:41Z</time>
   </trkpt>
   <trkpt lat="51.5619250" lon="-0.0789370">
    <ele>28.9</ele>
    <time>2023-06-09T07:53:42Z</time>
   </trkpt>
   <trkpt lat="51.5618900" lon="-0.0789330">
    <ele>28.9</ele>
    <time>2023-06-09T07:53:43Z</time>
   </trkpt>
   <trkpt lat="51.5618780" lon="-0.0789320">
    <ele>28.9</ele>
    <time>2023-06-09T07:53:44Z</time>
   </trkpt>
   <trkpt lat="51.5618400" lon="-0.0789190">
    <ele>28.8</ele>
    <time>2023-06-09T07:53:45Z</time>
   </trkpt>
   <trkpt lat="51.5617970" lon="-0.0789230">
    <ele>28.8</ele>
    <time>2023-06-09T07:53:46Z</time>
   </trkpt>
   <trkpt lat="51.5617780" lon="-0.0789270">
    <ele>28.8</ele>
    <time>2023-06-09T07:53:47Z</time>
   </trkpt>
   <trkpt lat="51.5617500" lon="-0.0789320">
    <ele>28.7</ele>
    <time>2023-06-09T07:53:48Z</time>
   </trkpt>
   <trkpt lat="51.5617210" lon="-0.0789220">
    <ele>28.7</ele>
    <time>2023-06-09T07:53:49Z</time>
   </trkpt>
   <trkpt lat="51.5617130" lon="-0.0789200">
    <ele>28.7</ele>
    <time>2023-06-09T07:53:50Z</time>
   </trkpt>
   <trkpt lat="51.5616830" lon="-0.0789150">
    <ele>28.7</ele>
    <time>2023-06-09T07:53:51Z</time>
   </trkpt>
   <trkpt lat="51.5616480" lon="-0.0789190">
    <ele>28.7</ele>
    <time>2023-06-09T07:53:52Z</time>
   </trkpt>
   <trkpt lat="51.5616360" lon="-0.0789220">
    <ele>28.6</ele>
    <time>2023-06-09T07:53:53Z</time>
   </trkpt>
   <trkpt lat="51.5615920" lon="-0.0789180">
    <ele>28.6</ele>
    <time>2023-06-09T07:53:54Z</time>
   </trkpt>
   <trkpt lat="51.5615730" lon="-0.0789120">
    <ele>28.6</ele>
    <time>2023-06-09T07:53:55Z</time>
   </trkpt>
   <trkpt lat="51.5615420" lon="-0.0789140">
    <ele>28.6</ele>
    <time>2023-06-09T07:53:56Z</time>
   </trkpt>
   <trkpt lat="51.5615060" lon="-0.0789110">
    <ele>28.6</ele>
    <time>2023-06-09T07:53:57Z</time>
   </trkpt>
   <trkpt lat="51.5614920" lon="-0.0789130">
    <ele>28.6</ele>
    <time>2023-06-09T07:53:58Z</time>
   </trkpt>
   <trkpt lat="51.5614590" lon="-0.0789030">
    <ele>28.5</ele>
    <time>2023-06-09T07:53:59Z</time>
   </trkpt>
   <trkpt lat="51.5614180" lon="-0.0789030">
    <ele>28.5</ele>
    <time>2023-06-09T07:54:00Z</time>
   </trkpt>
   <trkpt lat="51.5614040" lon="-0.0789020">
    <ele>28.5</ele>
    <time>2023-06-09T07:54:01Z</time>
   </trkpt>
   <trkpt lat="51.5613640" lon="-0.0788960">
    <ele>28.4</ele>
    <time>2023-06-09T07:54:02Z</time>
   </trkpt>
   <trkpt lat="51.5613490" lon="-0.0788990">
    <ele>28.4</ele>
    <time>2023-06-09T07:54:03Z</time>
   </trkpt>
   <trkpt lat="51.5613050" lon="-0.0788950">
    <ele>28.4</ele>
    <time>2023-06-09T07:54:04Z</time>
   </trkpt>
   <trkpt lat="51.5612720" lon="-0.0788900">
    <ele>28.3</ele>
    <time>2023-06-09T07:54:05Z</time>
   </trkpt>
   <trkpt lat="51.5612330" lon="-0.0788900">
    <ele>28.3</ele>
    <time>2023-06-09T07:54:06Z</time>
   </trkpt>
   <trkpt lat="51.5612140" lon="-0.0788930">
    <ele>28.3</ele>
    <time>2023-06-09T07:54:07Z</time>
   </trkpt>
   <trkpt lat="51.5611700" lon="-0.0788860">
    <ele>28.2</ele>
    <time>2023-06-09T07:54:08Z</time>
   </trkpt>
   <trkpt lat="51.5611530" lon="-0.0788840">
    <ele>28.2</ele>
    <time>2023-06-09T07:54:09Z</time>
   </trkpt>
   <trkpt lat="51.5611250" lon="-0.0788830">
    <ele>28.1</ele>
    <time>2023-06-09T07:54:10Z</time>
   </trkpt>
   <trkpt lat="51.5610960" lon="-0.0788790">
    <ele>28.0</ele>
    <time>2023-06-09T07:54:11Z</time>
   </trkpt>
   <trkpt lat="51.5610620" lon="-0.0788780">
    <ele>28.0</ele>
    <time>2023-06-09T07:54:12Z</time>
   </trkpt>
   <trkpt lat="51.5610210" lon="-0.0788810">
    <ele>27.9</ele>
    <time>2023-06-09T07:54:13Z</time>
   </trkpt>
   <trkpt lat="51.5610070" lon="-0.0788800">
    <ele>27.8</ele>
    <time>2023-06-09T07:54:14Z</time>
   </trkpt>
   <trkpt lat="51.5609650" lon="-0.0788710">
    <ele>27.7</ele>
    <time>2023-06-09T07:54:15Z</time>
   </trkpt>
   <trkpt lat="51.5609490" lon="-0.0788700">
    <ele>27.7</ele>
    <time>2023-06-09T07:54:16Z</time>
   </trkpt>
   <trkpt lat="51.5609150" lon="-0.0788710">
    <ele>27.6</ele>
    <time>2023-06-09T07:54:17Z</time>
   </trkpt>
   <trkpt lat="51.5608810" lon="-0.0788670">
    <ele>27.5</ele>
    <time>2023-06-09T07:54:18Z</time>
   </trkpt>
   <trkpt lat="51.5608690" lon="-0.0788650">
    <ele>27.5</ele>
    <time>2023-06-09T07:54:19Z</time>
   </trkpt>
   <trkpt lat="51.5608410" lon="-0.0788600">
    <ele>27.4</ele>
    <time>2023-06-09T07:54:20Z</time>
   </trkpt>
   <trkpt lat="51.5608100" lon="-0.0788490">
    <ele>27.4</ele>
    <time>2023-06-09T07:54:21Z</time>
   </trkpt>
   <trkpt lat="51.5607810" lon="-0.0788460">
    <ele>27.3</ele>
    <time>2023-06-09T07:54:22Z</time>
   </trkpt>
   <trkpt lat="51.5607490" lon="-0.0788480">
    <ele>27.2</ele>
    <time>2023-06-09T07:54:23Z</time>
   </trkpt>
   <trkpt lat="51.5607180" lon="-0.0788450">
    <ele>27.1</ele>
    <time>2023-06-09T07:54:24Z</time>
   </trkpt>
   <trkpt lat="51.5606760" lon="-0.0788430">
    <ele>27.0</ele>
    <time>2023-06-09T07:54:25Z</time>
   </trkpt>
   <trkpt lat="51.5606590" lon="-0.0788410">
    <ele>27.0</ele>
    <time>2023-06-09T07:54:26Z</time>
   </trkpt>
   <trkpt lat="51.5606280" lon="-0.0788420">
    <ele>26.9</ele>
    <time>2023-06-09T07:54:27Z</time>
   </trkpt>
   <trkpt lat="51.5605980" lon="-0.0788430">
    <ele>26.8</ele>
    <time>2023-06-09T07:54:28Z</time>
   </trkpt>
   <trkpt lat="51.5605640" lon="-0.0788350">
    <ele>26.7</ele>
    <time>2023-06-09T07:54:29Z</time>
   </trkpt>
   <trkpt lat="51.5605290" lon="-0.0788090">
    <ele>26.6</ele>
    <time>2023-06-09T07:54:30Z</time>
   </trkpt>
   <trkpt lat="51.5605170" lon="-0.0788050">
    <ele>26.6</ele>
    <time>2023-06-09T07:54:31Z</time>
   </trkpt>
   <trkpt lat="51.5604750" lon="-0.0788100">
    <ele>26.5</ele>
    <time>2023-06-09T07:54:32Z</time>
   </trkpt>
   <trkpt lat="51.5604580" lon="-0.0788160">
    <ele>26.5</ele>
    <time>2023-06-09T07:54:33Z</time>
   </trkpt>
   <trkpt lat="51.5604250" lon="-0.0788170">
    <ele>26.4</ele>
    <time>2023-06-09T07:54:34Z</time>
   </trkpt>
   <trkpt lat="51.5603960" lon="-0.0788150">
    <ele>26.3</ele>
    <time>2023-06-09T07:54:35Z</time>
   </trkpt>
   <trkpt lat="51.5603580" lon="-0.0788110">
    <ele>26.2</ele>
    <time>2023-06-09T07:54:36Z</time>
   </trkpt>
   <trkpt lat="51.5603460" lon="-0.0788100">
    <ele>26.2</ele>
    <time>2023-06-09T07:54:37Z</time>
   </trkpt>
   <trkpt lat="51.5603070" lon="-0.0788040">
    <ele>26.1</ele>
    <time>2023-06-09T07:54:38Z</time>
   </trkpt>
   <trkpt lat="51.5602700" lon="-0.0788060">
    <ele>26.0</ele>
    <time>2023-06-09T07:54:39Z</time>
   </trkpt>
   <trkpt lat="51.5602560" lon="-0.0788070">
    <ele>26.0</ele>
    <time>2023-06-09T07:54:40Z</time>
   </trkpt>
   <trkpt lat="51.5602260" lon="-0.0788000">
    <ele>25.9</ele>
    <time>2023-06-09T07:54:41Z</time>
   </trkpt>
   <trkpt lat="51.5601880" lon="-0.0787980">
    <ele>25.9</ele>
    <time>2023-06-09T07:54:42Z</time>
   </trkpt>
   <trkpt lat="51.5601590" lon="-0.0787800">
    <ele>25.8</ele>
    <time>2023-06-09T07:54:43Z</time>
   </trkpt>
   <trkpt lat="51.5601490" lon="-0.0787740">
    <ele>25.7</ele>
    <time>2023-06-09T07:54:44Z</time>
   </trkpt>
   <trkpt lat="51.5601230" lon="-0.0787340">
    <ele>25.6</ele>
    <time>2023-06-09T07:54:45Z</time>
   </trkpt>
   <trkpt lat="51.5601150" lon="-0.0787160">
    <ele>25.6</ele>
    <time>2023-06-09T07:54:46Z</time>
   </trkpt>
   <trkpt lat="51.5600880" lon="-0.0786860">
    <ele>25.5</ele>
    <time>2023-06-09T07:54:47Z</time>
   </trkpt>
   <trkpt lat="51.5600770" lon="-0.0786820">
    <ele>25.5</ele>
    <time>2023-06-09T07:54:48Z</time>
   </trkpt>
   <trkpt lat="51.5600450" lon="-0.0786800">
    <ele>25.4</ele>
    <time>2023-06-09T07:54:49Z</time>
   </trkpt>
   <trkpt lat="51.5600090" lon="-0.0786830">
    <ele>25.2</ele>
    <time>2023-06-09T07:54:50Z</time>
   </trkpt>
   <trkpt lat="51.5599710" lon="-0.0786740">
    <ele>25.1</ele>
    <time>2023-06-09T07:54:51Z</time>
   </trkpt>
   <trkpt lat="51.5599590" lon="-0.0786610">
    <ele>25.0</ele>
    <time>2023-06-09T07:54:52Z</time>
   </trkpt>
   <trkpt lat="51.5599200" lon="-0.0786780">
    <ele>24.9</ele>
    <time>2023-06-09T07:54:53Z</time>
   </trkpt>
   <trkpt lat="51.5599060" lon="-0.0786850">
    <ele>24.9</ele>
    <time>2023-06-09T07:54:54Z</time>
   </trkpt>
   <trkpt lat="51.5598780" lon="-0.0786740">
    <ele>24.8</ele>
    <time>2023-06-09T07:54:55Z</time>
   </trkpt>
   <trkpt lat="51.5598440" lon="-0.0786550">
    <ele>24.7</ele>
    <time>2023-06-09T07:54:56Z</time>
   </trkpt>
   <trkpt lat="51.5598320" lon="-0.0786470">
    <ele>24.6</ele>
    <time>2023-06-09T07:54:57Z</time>
   </trkpt>
   <trkpt lat="51.5597980" lon="-0.0786180">
    <ele>24.5</ele>
    <time>2023-06-09T07:54:58Z</time>
   </trkpt>
   <trkpt lat="51.5597850" lon="-0.0786130">
    <ele>24.5</ele>
    <time>2023-06-09T07:54:59Z</time>
   </trkpt>
   <trkpt lat="51.5597580" lon="-0.0786100">
    <ele>24.4</ele>
    <time>2023-06-09T07:55:00Z</time>
   </trkpt>
   <trkpt lat="51.5597320" lon="-0.0786260">
    <ele>24.3</ele>
    <time>2023-06-09T07:55:01Z</time>
   </trkpt>
   <trkpt lat="51.5597030" lon="-0.0786360">
    <ele>24.2</ele>
    <time>2023-06-09T07:55:02Z</time>
   </trkpt>
   <trkpt lat="51.5596780" lon="-0.0786130">
    <ele>24.2</ele>
    <time>2023-06-09T07:55:03Z</time>
   </trkpt>
   <trkpt lat="51.5596510" lon="-0.0786050">
    <ele>24.1</ele>
    <time>2023-06-09T07:55:04Z</time>
   </trkpt>
   <trkpt lat="51.5595980" lon="-0.0786010">
    <ele>23.9</ele>
    <time>2023-06-09T07:55:05Z</time>
   </trkpt>
   <trkpt lat="51.5595680" lon="-0.0785960">
    <ele>23.9</ele>
    <time>2023-06-09T07:55:06Z</time>
   </trkpt>
   <trkpt lat="51.5595280" lon="-0.0785990">
    <ele>23.8</ele>
    <time>2023-06-09T07:55:07Z</time>
   </trkpt>
   <trkpt lat="51.5595150" lon="-0.0786030">
    <ele>23.7</ele>
    <time>2023-06-09T07:55:08Z</time>
   </trkpt>
   <trkpt lat="51.5594850" lon="-0.0786020">
    <ele>23.7</ele>
    <time>2023-06-09T07:55:09Z</time>
   </trkpt>
   <trkpt lat="51.5594520" lon="-0.0785960">
    <ele>23.6</ele>
    <time>2023-06-09T07:55:10Z</time>
   </trkpt>
   <trkpt lat="51.5594240" lon="-0.0785970">
    <ele>23.5</ele>
    <time>2023-06-09T07:55:11Z</time>
   </trkpt>
   <trkpt lat="51.5593950" lon="-0.0785900">
    <ele>23.5</ele>
    <time>2023-06-09T07:55:12Z</time>
   </trkpt>
   <trkpt lat="51.5593630" lon="-0.0785890">
    <ele>23.4</ele>
    <time>2023-06-09T07:55:13Z</time>
   </trkpt>
   <trkpt lat="51.5593320" lon="-0.0785810">
    <ele>23.4</ele>
    <time>2023-06-09T07:55:14Z</time>
   </trkpt>
   <trkpt lat="51.5593000" lon="-0.0785800">
    <ele>23.3</ele>
    <time>2023-06-09T07:55:15Z</time>
   </trkpt>
   <trkpt lat="51.5592720" lon="-0.0785710">
    <ele>23.3</ele>
    <time>2023-06-09T07:55:16Z</time>
   </trkpt>
   <trkpt lat="51.5592400" lon="-0.0785660">
    <ele>23.2</ele>
    <time>2023-06-09T07:55:17Z</time>
   </trkpt>
   <trkpt lat="51.5592110" lon="-0.0785610">
    <ele>23.2</ele>
    <time>2023-06-09T07:55:18Z</time>
   </trkpt>
   <trkpt lat="51.5591800" lon="-0.0785580">
    <ele>23.2</ele>
    <time>2023-06-09T07:55:19Z</time>
   </trkpt>
   <trkpt lat="51.5591490" lon="-0.0785500">
    <ele>23.1</ele>
    <time>2023-06-09T07:55:20Z</time>
   </trkpt>
   <trkpt lat="51.5591200" lon="-0.0785650">
    <ele>23.1</ele>
    <time>2023-06-09T07:55:22Z</time>
   </trkpt>
   <trkpt lat="51.5590890" lon="-0.0785500">
    <ele>23.1</ele>
    <time>2023-06-09T07:55:23Z</time>
   </trkpt>
   <trkpt lat="51.5590550" lon="-0.0785570">
    <ele>23.1</ele>
    <time>2023-06-09T07:55:24Z</time>
   </trkpt>
   <trkpt lat="51.5590240" lon="-0.0785620">
    <ele>23.0</ele>
    <time>2023-06-09T07:55:25Z</time>
   </trkpt>
   <trkpt lat="51.5589950" lon="-0.0785800">
    <ele>23.0</ele>
    <time>2023-06-09T07:55:26Z</time>
   </trkpt>
   <trkpt lat="51.5589650" lon="-0.0785640">
    <ele>23.0</ele>
    <time>2023-06-09T07:55:27Z</time>
   </trkpt>
   <trkpt lat="51.5589280" lon="-0.0785420">
    <ele>23.0</ele>
    <time>2023-06-09T07:55:28Z</time>
   </trkpt>
   <trkpt lat="51.5589150" lon="-0.0785380">
    <ele>23.0</ele>
    <time>2023-06-09T07:55:29Z</time>
   </trkpt>
   <trkpt lat="51.5588870" lon="-0.0785300">
    <ele>23.0</ele>
    <time>2023-06-09T07:55:30Z</time>
   </trkpt>
   <trkpt lat="51.5588550" lon="-0.0785310">
    <ele>23.0</ele>
    <time>2023-06-09T07:55:31Z</time>
   </trkpt>
   <trkpt lat="51.5588270" lon="-0.0785300">
    <ele>23.0</ele>
    <time>2023-06-09T07:55:32Z</time>
   </trkpt>
   <trkpt lat="51.5587900" lon="-0.0785210">
    <ele>23.1</ele>
    <time>2023-06-09T07:55:33Z</time>
   </trkpt>
   <trkpt lat="51.5587750" lon="-0.0785140">
    <ele>23.1</ele>
    <time>2023-06-09T07:55:34Z</time>
   </trkpt>
   <trkpt lat="51.5587400" lon="-0.0785050">
    <ele>23.1</ele>
    <time>2023-06-09T07:55:35Z</time>
   </trkpt>
   <trkpt lat="51.5587290" lon="-0.0785090">
    <ele>23.1</ele>
    <time>2023-06-09T07:55:36Z</time>
   </trkpt>
   <trkpt lat="51.5587000" lon="-0.0785050">
    <ele>23.1</ele>
    <time>2023-06-09T07:55:37Z</time>
   </trkpt>
   <trkpt lat="51.5586840" lon="-0.0784990">
    <ele>23.1</ele>
    <time>2023-06-09T07:55:38Z</time>
   </trkpt>
   <trkpt lat="51.5586680" lon="-0.0784880">
    <ele>23.1</ele>
    <time>2023-06-09T07:55:39Z</time>
   </trkpt>
   <trkpt lat="51.5586570" lon="-0.0784830">
    <ele>23.1</ele>
    <time>2023-06-09T07:55:40Z</time>
   </trkpt>
   <trkpt lat="51.5586430" lon="-0.0784850">
    <ele>23.1</ele>
    <time>2023-06-09T07:55:41Z</time>
   </trkpt>
   <trkpt lat="51.5586350" lon="-0.0784730">
    <ele>23.1</ele>
    <time>2023-06-09T07:55:42Z</time>
   </trkpt>
   <trkpt lat="51.5586290" lon="-0.0784760">
    <ele>23.1</ele>
    <time>2023-06-09T07:55:43Z</time>
   </trkpt>
   <trkpt lat="51.5586240" lon="-0.0784760">
    <ele>23.1</ele>
    <time>2023-06-09T07:55:44Z</time>
   </trkpt>
   <trkpt lat="51.5586210" lon="-0.0784770">
    <ele>23.1</ele>
    <time>2023-06-09T07:55:45Z</time>
   </trkpt>
   <trkpt lat="51.5586200" lon="-0.0784750">
    <ele>23.1</ele>
    <time>2023-06-09T07:55:46Z</time>
   </trkpt>
   <trkpt lat="51.5586170" lon="-0.0784700">
    <ele>23.1</ele>
    <time>2023-06-09T07:55:47Z</time>
   </trkpt>
   <trkpt lat="51.5586170" lon="-0.0784700">
    <ele>23.1</ele>
    <time>2023-06-09T07:55:48Z</time>
   </trkpt>
   <trkpt lat="51.5586150" lon="-0.0784680">
    <ele>23.1</ele>
    <time>2023-06-09T07:55:49Z</time>
   </trkpt>
   <trkpt lat="51.5586110" lon="-0.0784630">
    <ele>23.1</ele>
    <time>2023-06-09T07:55:50Z</time>
   </trkpt>
   <trkpt lat="51.5586080" lon="-0.0784610">
    <ele>23.1</ele>
    <time>2023-06-09T07:55:51Z</time>
   </trkpt>
   <trkpt lat="51.5586080" lon="-0.0784610">
    <ele>23.1</ele>
    <time>2023-06-09T07:55:52Z</time>
   </trkpt>
   <trkpt lat="51.5586080" lon="-0.0784610">
    <ele>23.1</ele>
    <time>2023-06-09T07:55:53Z</time>
   </trkpt>
   <trkpt lat="51.5586010" lon="-0.0784600">
    <ele>23.1</ele>
    <time>2023-06-09T07:55:54Z</time>
   </trkpt>
   <trkpt lat="51.5586000" lon="-0.0784590">
    <ele>23.1</ele>
    <time>2023-06-09T07:55:55Z</time>
   </trkpt>
   <trkpt lat="51.5585960" lon="-0.0784540">
    <ele>23.1</ele>
    <time>2023-06-09T07:55:56Z</time>
   </trkpt>
   <trkpt lat="51.5585930" lon="-0.0784490">
    <ele>23.1</ele>
    <time>2023-06-09T07:55:57Z</time>
   </trkpt>
   <trkpt lat="51.5585900" lon="-0.0784420">
    <ele>23.1</ele>
    <time>2023-06-09T07:55:58Z</time>
   </trkpt>
   <trkpt lat="51.5585880" lon="-0.0784440">
    <ele>23.1</ele>
    <time>2023-06-09T07:55:59Z</time>
   </trkpt>
   <trkpt lat="51.5585870" lon="-0.0784510">
    <ele>23.1</ele>
    <time>2023-06-09T07:56:00Z</time>
   </trkpt>
   <trkpt lat="51.5585780" lon="-0.0784460">
    <ele>23.1</ele>
    <time>2023-06-09T07:56:01Z</time>
   </trkpt>
   <trkpt lat="51.5585720" lon="-0.0784440">
    <ele>23.1</ele>
    <time>2023-06-09T07:56:02Z</time>
   </trkpt>
   <trkpt lat="51.5585660" lon="-0.0784410">
    <ele>23.1</ele>
    <time>2023-06-09T07:56:03Z</time>
   </trkpt>
   <trkpt lat="51.5585600" lon="-0.0784410">
    <ele>23.2</ele>
    <time>2023-06-09T07:56:04Z</time>
   </trkpt>
   <trkpt lat="51.5585490" lon="-0.0784350">
    <ele>23.2</ele>
    <time>2023-06-09T07:56:05Z</time>
   </trkpt>
   <trkpt lat="51.5585420" lon="-0.0784380">
    <ele>23.2</ele>
    <time>2023-06-09T07:56:06Z</time>
   </trkpt>
   <trkpt lat="51.5585340" lon="-0.0784330">
    <ele>23.2</ele>
    <time>2023-06-09T07:56:07Z</time>
   </trkpt>
   <trkpt lat="51.5585280" lon="-0.0784340">
    <ele>23.2</ele>
    <time>2023-06-09T07:56:08Z</time>
   </trkpt>
   <trkpt lat="51.5585180" lon="-0.0784330">
    <ele>23.2</ele>
    <time>2023-06-09T07:56:09Z</time>
   </trkpt>
   <trkpt lat="51.5585180" lon="-0.0784390">
    <ele>23.2</ele>
    <time>2023-06-09T07:56:10Z</time>
   </trkpt>
   <trkpt lat="51.5584980" lon="-0.0784340">
    <ele>23.2</ele>
    <time>2023-06-09T07:56:11Z</time>
   </trkpt>
   <trkpt lat="51.5584980" lon="-0.0784400">
    <ele>23.2</ele>
    <time>2023-06-09T07:56:12Z</time>
   </trkpt>
   <trkpt lat="51.5584910" lon="-0.0784370">
    <ele>23.2</ele>
    <time>2023-06-09T07:56:13Z</time>
   </trkpt>
   <trkpt lat="51.5584920" lon="-0.0784360">
    <ele>23.2</ele>
    <time>2023-06-09T07:56:14Z</time>
   </trkpt>
   <trkpt lat="51.5584920" lon="-0.0784360">
    <ele>23.2</ele>
    <time>2023-06-09T07:56:15Z</time>
   </trkpt>
   <trkpt lat="51.5584920" lon="-0.0784360">
    <ele>23.2</ele>
    <time>2023-06-09T07:56:16Z</time>
   </trkpt>
   <trkpt lat="51.5584920" lon="-0.0784360">
    <ele>23.2</ele>
    <time>2023-06-09T07:56:17Z</time>
   </trkpt>
   <trkpt lat="51.5584920" lon="-0.0784360">
    <ele>23.2</ele>
    <time>2023-06-09T07:56:18Z</time>
   </trkpt>
   <trkpt lat="51.5584920" lon="-0.0784360">
    <ele>23.2</ele>
    <time>2023-06-09T07:56:19Z</time>
   </trkpt>
   <trkpt lat="51.5584920" lon="-0.0784360">
    <ele>23.2</ele>
    <time>2023-06-09T07:56:20Z</time>
   </trkpt>
   <trkpt lat="51.5584920" lon="-0.0784360">
    <ele>23.2</ele>
    <time>2023-06-09T07:56:21Z</time>
   </trkpt>
   <trkpt lat="51.5584920" lon="-0.0784360">
    <ele>23.2</ele>
    <time>2023-06-09T07:56:22Z</time>
   </trkpt>
   <trkpt lat="51.5584920" lon="-0.0784360">
    <ele>23.2</ele>
    <time>2023-06-09T07:56:23Z</time>
   </trkpt>
   <trkpt lat="51.5584920" lon="-0.0784360">
    <ele>23.2</ele>
    <time>2023-06-09T07:56:24Z</time>
   </trkpt>
   <trkpt lat="51.5584920" lon="-0.0784360">
    <ele>23.2</ele>
    <time>2023-06-09T07:56:25Z</time>
   </trkpt>
   <trkpt lat="51.5584920" lon="-0.0784360">
    <ele>23.2</ele>
    <time>2023-06-09T07:56:26Z</time>
   </trkpt>
   <trkpt lat="51.5584920" lon="-0.0784360">
    <ele>23.2</ele>
    <time>2023-06-09T07:56:27Z</time>
   </trkpt>
   <trkpt lat="51.5584840" lon="-0.0784260">
    <ele>23.2</ele>
    <time>2023-06-09T07:56:28Z</time>
   </trkpt>
   <trkpt lat="51.5584840" lon="-0.0784260">
    <ele>23.2</ele>
    <time>2023-06-09T07:56:29Z</time>
   </trkpt>
   <trkpt lat="51.5584750" lon="-0.0784440">
    <ele>23.2</ele>
    <time>2023-06-09T07:56:30Z</time>
   </trkpt>
   <trkpt lat="51.5584690" lon="-0.0784520">
    <ele>23.2</ele>
    <time>2023-06-09T07:56:31Z</time>
   </trkpt>
   <trkpt lat="51.5584760" lon="-0.0784460">
    <ele>23.2</ele>
    <time>2023-06-09T07:56:32Z</time>
   </trkpt>
   <trkpt lat="51.5584750" lon="-0.0784450">
    <ele>23.2</ele>
    <time>2023-06-09T07:56:33Z</time>
   </trkpt>
   <trkpt lat="51.5584770" lon="-0.0784460">
    <ele>23.2</ele>
    <time>2023-06-09T07:56:34Z</time>
   </trkpt>
   <trkpt lat="51.5584760" lon="-0.0784450">
    <ele>23.2</ele>
    <time>2023-06-09T07:56:35Z</time>
   </trkpt>
   <trkpt lat="51.5584760" lon="-0.0784450">
    <ele>23.2</ele>
    <time>2023-06-09T07:56:36Z</time>
   </trkpt>
   <trkpt lat="51.5584760" lon="-0.0784450">
    <ele>23.2</ele>
    <time>2023-06-09T07:56:37Z</time>
   </trkpt>
   <trkpt lat="51.5584800" lon="-0.0784480">
    <ele>23.2</ele>
    <time>2023-06-09T07:56:38Z</time>
   </trkpt>
   <trkpt lat="51.5584820" lon="-0.0784480">
    <ele>23.2</ele>
    <time>2023-06-09T07:56:39Z</time>
   </trkpt>
   <trkpt lat="51.5584810" lon="-0.0784520">
    <ele>23.2</ele>
    <time>2023-06-09T07:56:40Z</time>
   </trkpt>
   <trkpt lat="51.5584810" lon="-0.0784530">
    <ele>23.2</ele>
    <time>2023-06-09T07:56:41Z</time>
   </trkpt>
   <trkpt lat="51.5584810" lon="-0.0784570">
    <ele>23.2</ele>
    <time>2023-06-09T07:56:42Z</time>
   </trkpt>
   <trkpt lat="51.5584800" lon="-0.0784560">
    <ele>23.2</ele>
    <time>2023-06-09T07:56:43Z</time>
   </trkpt>
   <trkpt lat="51.5584800" lon="-0.0784580">
    <ele>23.2</ele>
    <time>2023-06-09T07:56:44Z</time>
   </trkpt>
   <trkpt lat="51.5584820" lon="-0.0784570">
    <ele>23.2</ele>
    <time>2023-06-09T07:56:45Z</time>
   </trkpt>
   <trkpt lat="51.5584830" lon="-0.0784580">
    <ele>23.2</ele>
    <time>2023-06-09T07:56:46Z</time>
   </trkpt>
   <trkpt lat="51.5584820" lon="-0.0784550">
    <ele>23.2</ele>
    <time>2023-06-09T07:56:47Z</time>
   </trkpt>
   <trkpt lat="51.5584790" lon="-0.0784570">
    <ele>23.2</ele>
    <time>2023-06-09T07:56:48Z</time>
   </trkpt>
   <trkpt lat="51.5584780" lon="-0.0784570">
    <ele>23.2</ele>
    <time>2023-06-09T07:56:49Z</time>
   </trkpt>
   <trkpt lat="51.5584800" lon="-0.0784550">
    <ele>23.2</ele>
    <time>2023-06-09T07:56:50Z</time>
   </trkpt>
  </trkseg>
 </trk>
</gpx>
